{
"type": "FeatureCollection",
"name": "alr_gain_overlap",
"crs": { "type": "name", "properties": { "name": "urn:ogc:def:crs:EPSG::32610" } },
"features": [
{"type":"Feature","properties":{"feature":"OBS01_flood_intersecting_ALR","source_observation_id":"OBS01","source_observation_utc":"OBS01 — 12 Dec 2025 14:08:24 UTC","claim_boundary":"mapped overlap with ALR designation; not crop loss or damage"},"geometry":{"type":"MultiPolygon","coordinates":[[[[564820.0,5443480.0],[564820.0,5443460.0],[564803.622905189404264,5443460.0],[564800.0,5443460.603870431892574],[564800.0,5443480.0],[564820.0,5443480.0]]],[[[564660.0,5443500.0],[564660.0,5443480.0],[564640.0,5443480.0],[564640.0,5443500.0],[564660.0,5443500.0]]],[[[564560.0,5443520.0],[564560.0,5443500.0],[564540.0,5443500.0],[564540.0,5443520.0],[564560.0,5443520.0]]],[[[564420.0,5443580.0],[564420.0,5443560.0],[564400.0,5443560.0],[564400.0,5443580.0],[564420.0,5443580.0]]],[[[564380.0,5443620.0],[564380.0,5443600.0],[564360.0,5443600.0],[564360.0,5443620.0],[564380.0,5443620.0]]],[[[564440.0,5443640.0],[564440.0,5443620.0],[564420.0,5443620.0],[564420.0,5443640.0],[564440.0,5443640.0]]],[[[564580.0,5443660.0],[564580.0,5443640.0],[564560.0,5443640.0],[564560.0,5443660.0],[564580.0,5443660.0]]],[[[564620.0,5443640.0],[564620.0,5443660.0],[564600.0,5443660.0],[564600.0,5443680.0],[564640.0,5443680.0],[564640.0,5443640.0],[564620.0,5443640.0]]],[[[565300.0,5443680.0],[565300.0,5443700.0],[565380.0,5443700.0],[565380.0,5443680.0],[565360.0,5443680.0],[565360.0,5443660.0],[565320.0,5443660.0],[565320.0,5443640.0],[565300.0,5443640.0],[565300.0,5443620.0],[565260.0,5443620.0],[565260.0,5443600.0],[565080.0,5443600.0],[565080.0,5443620.0],[565040.0,5443620.0],[565040.0,5443640.0],[564940.0,5443640.0],[564940.0,5443660.0],[564900.0,5443660.0],[564900.0,5443680.0],[564880.0,5443680.0],[564880.0,5443660.0],[564860.0,5443660.0],[564860.0,5443680.0],[564840.0,5443680.0],[564840.0,5443660.0],[564740.0,5443660.0],[564740.0,5443640.0],[564680.0,5443640.0],[564680.0,5443660.0],[564720.0,5443660.0],[564720.0,5443680.0],[564820.0,5443680.0],[564820.0,5443700.0],[564920.0,5443700.0],[564920.0,5443720.0],[565100.0,5443720.0],[565100.0,5443700.0],[565160.0,5443700.0],[565160.0,5443720.0],[565200.0,5443720.0],[565200.0,5443700.0],[565280.0,5443700.0],[565280.0,5443680.0],[565300.0,5443680.0]]],[[[564260.0,5444653.742135435342789],[564252.880816615070216,5444646.623329541645944],[564240.0,5444640.183295731432736],[564240.0,5444660.0],[564260.0,5444660.0],[564260.0,5444653.742135435342789]]],[[[564260.0,5444680.0],[564298.540858061052859,5444680.0],[564283.880603067576885,5444671.62256124895066],[564267.276935752481222,5444660.0],[564260.0,5444660.0],[564260.0,5444680.0]]],[[[564320.0,5444693.171660053543746],[564304.88077456119936,5444683.622874376364052],[564300.0,5444680.833810341544449],[564300.0,5444700.0],[564320.0,5444700.0],[564320.0,5444693.171660053543746]]],[[[564320.0,5444720.0],[564360.0,5444720.0],[564360.0,5444716.262073080986738],[564344.882052323780954,5444707.621969454921782],[564331.542056669015437,5444700.0],[564320.0,5444700.0],[564320.0,5444720.0]]],[[[564380.0,5444740.0],[564380.0,5444726.346511303447187],[564366.672344906604849,5444720.0],[564360.0,5444720.0],[564360.0,5444740.0],[564380.0,5444740.0]]],[[[564440.0,5444780.0],[564458.809536343091168,5444780.0],[564449.880775945726782,5444773.622405014000833],[564440.880458016181365,5444767.62288286536932],[564440.0,5444766.897790523245931],[564440.0,5444780.0]]],[[[564520.0,5444813.376855536364019],[564504.880756160360761,5444804.623054934665561],[564500.0,5444802.370670744217932],[564500.0,5444820.0],[564520.0,5444820.0],[564520.0,5444813.376855536364019]]],[[[564579.149337902781554,5444860.0],[564564.881083581713028,5444849.623481953516603],[564560.0,5444844.044925176538527],[564560.0,5444860.0],[564579.149337902781554,5444860.0]]],[[[564520.0,5444960.0],[564520.0,5444980.0],[564540.0,5444980.0],[564540.0,5445000.0],[564600.0,5445000.0],[564600.0,5444980.0],[564580.0,5444980.0],[564580.0,5444960.0],[564560.0,5444960.0],[564560.0,5444920.0],[564540.0,5444920.0],[564540.0,5444960.0],[564520.0,5444960.0]]],[[[565300.0,5445340.0],[565300.0,5445320.0],[565200.0,5445320.0],[565200.0,5445340.0],[565300.0,5445340.0]]],[[[565320.0,5446760.0],[565320.0,5446740.0],[565260.0,5446740.0],[565260.0,5446760.0],[565160.0,5446760.0],[565160.0,5446800.0],[565180.0,5446800.0],[565180.0,5446780.0],[565200.0,5446780.0],[565200.0,5446800.0],[565220.0,5446800.0],[565220.0,5446780.0],[565280.0,5446780.0],[565280.0,5446760.0],[565320.0,5446760.0]]],[[[565200.0,5446840.0],[565200.0,5446860.0],[565180.0,5446860.0],[565180.0,5446900.0],[565220.0,5446900.0],[565220.0,5446840.0],[565200.0,5446840.0]]],[[[565060.0,5446960.0],[565060.0,5446980.0],[565040.0,5446980.0],[565040.0,5447000.0],[565000.0,5447000.0],[565000.0,5447020.0],[564980.0,5447020.0],[564980.0,5447040.0],[565020.0,5447040.0],[565020.0,5447020.0],[565100.0,5447020.0],[565100.0,5447000.0],[565140.0,5447000.0],[565140.0,5446960.0],[565160.0,5446960.0],[565160.0,5446920.0],[565180.0,5446920.0],[565180.0,5446900.0],[565140.0,5446900.0],[565140.0,5446920.0],[565120.0,5446920.0],[565120.0,5446940.0],[565100.0,5446940.0],[565100.0,5446980.0],[565080.0,5446980.0],[565080.0,5446960.0],[565060.0,5446960.0]]],[[[564960.0,5447080.0],[564960.0,5447060.0],[564980.0,5447060.0],[564980.0,5447040.0],[564940.0,5447040.0],[564940.0,5447060.0],[564920.0,5447060.0],[564920.0,5447080.0],[564960.0,5447080.0]]],[[[564680.0,5447140.0],[564700.0,5447140.0],[564700.0,5447100.0],[564660.0,5447100.0],[564660.0,5447140.0],[564640.0,5447140.0],[564640.0,5447160.0],[564680.0,5447160.0],[564680.0,5447140.0]]],[[[565180.0,5447140.0],[565200.0,5447140.0],[565200.0,5447120.0],[565140.0,5447120.0],[565140.0,5447140.0],[565100.0,5447140.0],[565100.0,5447160.0],[565180.0,5447160.0],[565180.0,5447140.0]]],[[[564640.0,5447180.0],[564640.0,5447160.0],[564620.0,5447160.0],[564620.0,5447180.0],[564640.0,5447180.0]]],[[[564700.0,5447360.0],[564700.0,5447380.0],[564760.0,5447380.0],[564760.0,5447360.0],[564780.0,5447360.0],[564780.0,5447320.0],[564760.0,5447320.0],[564760.0,5447340.0],[564740.0,5447340.0],[564740.0,5447360.0],[564700.0,5447360.0]]],[[[564360.0,5447340.0],[564360.0,5447320.0],[564340.0,5447320.0],[564340.0,5447360.0],[564380.0,5447360.0],[564380.0,5447380.0],[564400.0,5447380.0],[564400.0,5447400.0],[564460.0,5447400.0],[564460.0,5447420.0],[564600.0,5447420.0],[564600.0,5447400.0],[564700.0,5447400.0],[564700.0,5447380.0],[564440.0,5447380.0],[564440.0,5447360.0],[564400.0,5447360.0],[564400.0,5447340.0],[564360.0,5447340.0]]],[[[564740.0,5447460.0],[564740.0,5447500.0],[564880.0,5447500.0],[564880.0,5447480.0],[564860.0,5447480.0],[564860.0,5447460.0],[564800.0,5447460.0],[564800.0,5447480.0],[564780.0,5447480.0],[564780.0,5447460.0],[564740.0,5447460.0]]],[[[564580.0,5447500.0],[564580.0,5447540.0],[564600.0,5447540.0],[564600.0,5447520.0],[564640.0,5447520.0],[564640.0,5447500.0],[564660.0,5447500.0],[564660.0,5447460.0],[564560.0,5447460.0],[564560.0,5447500.0],[564580.0,5447500.0]]],[[[564600.0,5448000.0],[564580.0,5448000.0],[564580.0,5448015.073749404400587],[564590.880949969869107,5448013.622847264632583],[564600.0,5448013.623729254119098],[564600.0,5448000.0]]],[[[564720.0,5448200.0],[564720.0,5448180.0],[564680.0,5448180.0],[564680.0,5448200.0],[564720.0,5448200.0]]],[[[565280.0,5448200.0],[565280.0,5448180.0],[565260.0,5448180.0],[565260.0,5448200.0],[565280.0,5448200.0]]],[[[564680.0,5448220.0],[564680.0,5448200.0],[564640.0,5448200.0],[564640.0,5448220.0],[564680.0,5448220.0]]],[[[564580.0,5448220.0],[564580.0,5448200.0],[564560.0,5448200.0],[564560.0,5448220.0],[564580.0,5448220.0]]],[[[565260.0,5448240.0],[565260.0,5448200.0],[565240.0,5448200.0],[565240.0,5448240.0],[565260.0,5448240.0]]],[[[564740.0,5448220.0],[564740.0,5448240.0],[564780.0,5448240.0],[564780.0,5448260.0],[564840.0,5448260.0],[564840.0,5448240.0],[564880.0,5448240.0],[564880.0,5448220.0],[564780.0,5448220.0],[564780.0,5448200.0],[564720.0,5448200.0],[564720.0,5448220.0],[564740.0,5448220.0]]],[[[565240.0,5448260.0],[565240.0,5448240.0],[565220.0,5448240.0],[565220.0,5448260.0],[565240.0,5448260.0]]],[[[564880.0,5448240.0],[564880.0,5448260.0],[564900.0,5448260.0],[564900.0,5448280.0],[564920.0,5448280.0],[564920.0,5448240.0],[564880.0,5448240.0]]],[[[565200.0,5448260.0],[565200.0,5448280.0],[565080.0,5448280.0],[565080.0,5448300.0],[565100.0,5448300.0],[565100.0,5448320.0],[565264.927567637176253,5448320.0],[565276.530292575480416,5448316.923025522381067],[565276.418236847850494,5448320.0],[565300.0,5448320.0],[565300.0,5448280.0],[565280.0,5448280.0],[565280.0,5448300.0],[565260.0,5448300.0],[565260.0,5448280.0],[565220.0,5448280.0],[565220.0,5448260.0],[565200.0,5448260.0]]],[[[565880.0,5443360.0],[565880.0,5443340.0],[565869.555540433968417,5443340.0],[565860.0,5443348.122420838102698],[565860.0,5443360.0],[565880.0,5443360.0]]],[[[565844.713257577968761,5443360.0],[565840.0,5443363.535210594534874],[565840.0,5443380.0],[565860.0,5443380.0],[565860.0,5443360.0],[565844.713257577968761,5443360.0]]],[[[565840.0,5443400.0],[565840.0,5443380.0],[565820.0,5443380.0],[565820.0,5443400.0],[565840.0,5443400.0]]],[[[565820.0,5443400.0],[565800.0,5443400.0],[565800.0,5443420.0],[565820.0,5443420.0],[565820.0,5443400.0]]],[[[565720.0,5443460.0],[565800.0,5443460.0],[565800.0,5443420.0],[565760.0,5443420.0],[565760.0,5443440.0],[565720.0,5443440.0],[565720.0,5443460.0]]],[[[565440.0,5443440.0],[565400.0,5443440.0],[565400.0,5443460.0],[565440.0,5443460.0],[565440.0,5443440.0]]],[[[565440.0,5443480.0],[565540.0,5443480.0],[565540.0,5443460.0],[565480.0,5443460.0],[565480.0,5443440.0],[565460.0,5443440.0],[565460.0,5443460.0],[565440.0,5443460.0],[565440.0,5443480.0]]],[[[565700.0,5443480.0],[565700.0,5443460.0],[565660.0,5443460.0],[565660.0,5443480.0],[565700.0,5443480.0]]],[[[565600.0,5443500.0],[565600.0,5443480.0],[565560.0,5443480.0],[565560.0,5443500.0],[565600.0,5443500.0]]],[[[565440.0,5443720.0],[565420.0,5443720.0],[565420.0,5443740.0],[565440.0,5443740.0],[565440.0,5443720.0]]],[[[565440.0,5443760.0],[565460.0,5443760.0],[565460.0,5443740.0],[565440.0,5443740.0],[565440.0,5443760.0]]],[[[565480.0,5443760.0],[565460.0,5443760.0],[565460.0,5443780.0],[565480.0,5443780.0],[565480.0,5443760.0]]],[[[565500.0,5443800.0],[565500.0,5443780.0],[565480.0,5443780.0],[565480.0,5443820.0],[565500.0,5443820.0],[565500.0,5443840.0],[565520.0,5443840.0],[565520.0,5443800.0],[565500.0,5443800.0]]],[[[565660.0,5443940.0],[565660.0,5443960.0],[565680.0,5443960.0],[565680.0,5443920.0],[565660.0,5443920.0],[565660.0,5443900.0],[565620.0,5443900.0],[565620.0,5443880.0],[565600.0,5443880.0],[565600.0,5443860.0],[565580.0,5443860.0],[565580.0,5443840.0],[565520.0,5443840.0],[565520.0,5443860.0],[565540.0,5443860.0],[565540.0,5443880.0],[565560.0,5443880.0],[565560.0,5443900.0],[565600.0,5443900.0],[565600.0,5443920.0],[565620.0,5443920.0],[565620.0,5443940.0],[565660.0,5443940.0]]],[[[565700.0,5443960.0],[565680.0,5443960.0],[565680.0,5444000.0],[565700.0,5444000.0],[565700.0,5443960.0]]],[[[565700.0,5444060.0],[565720.0,5444060.0],[565720.0,5444000.0],[565700.0,5444000.0],[565700.0,5444060.0]]],[[[565720.0,5444100.0],[565720.0,5444080.0],[565700.0,5444080.0],[565700.0,5444090.597337274812162],[565700.880524931009859,5444091.624471058137715],[565705.881448052008636,5444094.624009401537478],[565717.171369325951673,5444100.0],[565720.0,5444100.0]]],[[[565420.0,5445100.0],[565420.0,5445095.111146610230207],[565404.880242922110483,5445096.623786092735827],[565400.0,5445097.92484343983233],[565400.0,5445100.0],[565420.0,5445100.0]]],[[[565540.0,5445280.0],[565540.0,5445260.0],[565480.0,5445260.0],[565480.0,5445300.0],[565500.0,5445300.0],[565500.0,5445280.0],[565540.0,5445280.0]]],[[[565660.0,5446400.0],[565660.0,5446360.0],[565580.0,5446360.0],[565580.0,5446400.0],[565660.0,5446400.0]]],[[[565400.0,5446700.0],[565400.0,5446720.0],[565360.0,5446720.0],[565360.0,5446740.0],[565440.0,5446740.0],[565440.0,5446720.0],[565500.0,5446720.0],[565500.0,5446700.0],[565540.0,5446700.0],[565540.0,5446680.0],[565440.0,5446680.0],[565440.0,5446700.0],[565400.0,5446700.0]]],[[[565360.0,5446740.0],[565340.0,5446740.0],[565340.0,5446760.0],[565360.0,5446760.0],[565360.0,5446740.0]]],[[[565600.0,5446980.0],[565560.0,5446980.0],[565560.0,5447060.0],[565600.0,5447060.0],[565600.0,5446980.0]]],[[[565780.0,5447040.0],[565780.0,5447000.0],[565760.0,5447000.0],[565760.0,5447040.0],[565780.0,5447040.0]]],[[[565690.296106306370348,5447100.0],[565697.880680082715116,5447088.622831560671329],[565700.0,5447085.746625912375748],[565700.0,5447080.0],[565680.0,5447080.0],[565680.0,5447100.0],[565690.296106306370348,5447100.0]]],[[[565664.556093820603564,5447140.0],[565671.88122422771994,5447129.622857968322933],[565680.0,5447116.091352454386652],[565680.0,5447100.0],[565660.0,5447100.0],[565660.0,5447140.0],[565664.556093820603564,5447140.0]]],[[[565720.0,5447400.0],[565720.0,5447360.0],[565703.880374306347221,5447360.0],[565703.88031651370693,5447360.623219585046172],[565703.880229351343587,5447374.623001924715936],[565706.880882017314434,5447396.622933141887188],[565709.132384956814349,5447400.0],[565720.0,5447400.0]]],[[[565820.0,5447480.0],[565820.0,5447460.0],[565818.957431697752327,5447460.0],[565814.881104492233135,5447463.623909718357027],[565800.0,5447478.504530463367701],[565800.0,5447480.0],[565820.0,5447480.0]]],[[[565780.0,5447520.0],[565780.0,5447500.0],[565777.589001054875553,5447500.0],[565775.880991291021928,5447501.622536479495466],[565760.0,5447519.268472203984857],[565760.0,5447520.0],[565780.0,5447520.0]]],[[[565760.0,5447540.0],[565760.0,5447520.0],[565759.341639528633095,5447520.0],[565757.880931636085734,5447521.623044626787305],[565740.0,5447539.50432216282934],[565740.0,5447540.0],[565760.0,5447540.0]]],[[[565880.0,5447500.0],[565880.0,5447520.0],[565860.0,5447520.0],[565860.0,5447540.0],[565840.0,5447540.0],[565840.0,5447560.0],[565800.0,5447560.0],[565800.0,5447600.0],[565840.0,5447600.0],[565840.0,5447620.0],[565920.0,5447620.0],[565920.0,5447600.0],[565880.0,5447600.0],[565880.0,5447540.0],[565900.0,5447540.0],[565900.0,5447520.0],[565920.0,5447520.0],[565920.0,5447500.0],[565880.0,5447500.0]]],[[[565740.0,5447580.0],[565740.0,5447560.0],[565725.316087945248,5447560.0],[565724.880228710360825,5447560.622596305795014],[565720.0,5447567.755686707794666],[565720.0,5447580.0],[565740.0,5447580.0]]],[[[565711.673415108933114,5447580.0],[565700.880486044450663,5447599.623582351952791],[565700.0,5447601.73668519500643],[565700.0,5447620.0],[565720.0,5447620.0],[565720.0,5447580.0],[565711.673415108933114,5447580.0]]],[[[565420.0,5447640.0],[565420.0,5447660.0],[565460.0,5447660.0],[565460.0,5447640.0],[565480.0,5447640.0],[565480.0,5447580.0],[565460.0,5447580.0],[565460.0,5447600.0],[565440.0,5447600.0],[565440.0,5447640.0],[565420.0,5447640.0]]],[[[565840.0,5447640.0],[565840.0,5447620.0],[565780.0,5447620.0],[565780.0,5447640.0],[565840.0,5447640.0]]],[[[565700.0,5447660.0],[565700.0,5447620.0],[565693.088409716961905,5447620.0],[565687.881254074978642,5447635.622603829950094],[565683.881849044468254,5447648.622790879569948],[565680.0,5447657.937960984185338],[565680.0,5447660.0],[565700.0,5447660.0]]],[[[565820.0,5447680.0],[565820.0,5447660.0],[565780.0,5447660.0],[565780.0,5447680.0],[565820.0,5447680.0]]],[[[565680.0,5447700.0],[565680.0,5447680.0],[565672.42205994494725,5447680.0],[565671.880822862964123,5447681.623720519244671],[565661.855629467172548,5447700.0],[565680.0,5447700.0]]],[[[565780.0,5447680.0],[565740.0,5447680.0],[565740.0,5447720.0],[565780.0,5447720.0],[565780.0,5447680.0]]],[[[565860.0,5447700.0],[565840.0,5447700.0],[565840.0,5447720.0],[565860.0,5447720.0],[565860.0,5447700.0]]],[[[565700.0,5448200.0],[565700.0,5448220.0],[565940.0,5448220.0],[565940.0,5448180.0],[565920.0,5448180.0],[565920.0,5448200.0],[565840.0,5448200.0],[565840.0,5448180.0],[565820.0,5448180.0],[565820.0,5448200.0],[565700.0,5448200.0]]],[[[565620.0,5448220.0],[565620.0,5448240.0],[565580.0,5448240.0],[565580.0,5448260.0],[565640.0,5448260.0],[565640.0,5448240.0],[565700.0,5448240.0],[565700.0,5448220.0],[565620.0,5448220.0]]],[[[565480.0,5448300.0],[565480.0,5448280.0],[565380.0,5448280.0],[565380.0,5448300.0],[565480.0,5448300.0]]],[[[565340.0,5448300.0],[565340.0,5448320.0],[565380.0,5448320.0],[565380.0,5448300.0],[565340.0,5448300.0]]],[[[565600.0,5448360.0],[565600.0,5448380.0],[565580.0,5448380.0],[565580.0,5448420.0],[565640.0,5448420.0],[565640.0,5448400.0],[565660.0,5448400.0],[565660.0,5448380.0],[565700.0,5448380.0],[565700.0,5448360.0],[565600.0,5448360.0]],[[565620.0,5448380.0],[565620.0,5448400.0],[565600.0,5448400.0],[565600.0,5448380.0],[565620.0,5448380.0]]],[[[566480.0,5443540.0],[566460.0,5443540.0],[566460.0,5443540.39108295366168],[566464.880893899477087,5443540.623854657635093],[566480.0,5443544.059788934886456],[566480.0,5443540.0]]],[[[566660.0,5443620.0],[566680.0,5443620.0],[566680.0,5443600.0],[566660.0,5443600.0],[566660.0,5443560.0],[566640.0,5443560.0],[566640.0,5443640.0],[566660.0,5443640.0],[566660.0,5443620.0]]],[[[566680.0,5443660.0],[566680.0,5443640.0],[566660.0,5443640.0],[566660.0,5443660.0],[566680.0,5443660.0]]],[[[566780.0,5443820.0],[566753.410925713833421,5443820.0],[566760.882342556375079,5443824.62530619930476],[566778.882051997235976,5443835.624336944893003],[566780.0,5443835.624281753785908],[566780.0,5443820.0]]],[[[566860.0,5446740.0],[566860.0,5446720.0],[566800.0,5446720.0],[566800.0,5446700.0],[566740.0,5446700.0],[566740.0,5446720.0],[566780.0,5446720.0],[566780.0,5446740.0],[566860.0,5446740.0]]],[[[565900.0,5446920.0],[565900.0,5446900.0],[565880.0,5446900.0],[565880.0,5446880.0],[565820.0,5446880.0],[565820.0,5446900.0],[565780.0,5446900.0],[565780.0,5446960.0],[565940.0,5446960.0],[565940.0,5446940.0],[565960.0,5446940.0],[565960.0,5446960.0],[565980.0,5446960.0],[565980.0,5446900.0],[565940.0,5446900.0],[565940.0,5446920.0],[565900.0,5446920.0]]],[[[566480.0,5447040.0],[566440.0,5447040.0],[566440.0,5447049.302683170884848],[566451.879946359433234,5447050.622834229841828],[566475.879148074658588,5447051.623600149527192],[566480.0,5447051.623421831056476],[566480.0,5447040.0]]],[[[566220.0,5447280.0],[566220.0,5447260.0],[566219.545839155325666,5447260.0],[566216.880787386675365,5447261.622094571590424],[566200.881415071664378,5447270.623275524936616],[566200.0,5447270.962261443957686],[566200.0,5447280.0],[566220.0,5447280.0]]],[[[566140.0,5447260.0],[566120.0,5447260.0],[566120.0,5447274.004279464483261],[566140.0,5447268.171643082052469],[566140.0,5447260.0]]],[[[566060.0,5447280.0],[566040.0,5447280.0],[566040.0,5447296.880280174314976],[566050.880818236037157,5447292.622546108439565],[566060.0,5447289.84764595143497],[566060.0,5447280.0]]],[[[566100.0,5447320.0],[566100.0,5447300.0],[566090.061516196699813,5447300.0],[566073.881092890398577,5447304.62359815184027],[566066.880824533640407,5447308.623097073286772],[566060.0,5447310.589387351647019],[566060.0,5447320.0],[566100.0,5447320.0]]],[[[566000.0,5447300.0],[565980.0,5447300.0],[565980.0,5447317.367827160283923],[565989.880696152802557,5447314.622538829222322],[566000.0,5447312.092939225956798],[566000.0,5447300.0]]],[[[565960.0,5447380.0],[565960.0,5447360.528465280309319],[565954.880366493598558,5447362.622519380412996],[565940.880478980019689,5447367.623577523045242],[565940.0,5447367.917025808244944],[565940.0,5447380.0],[565960.0,5447380.0]]],[[[565920.0,5447400.0],[565920.0,5447380.0],[565918.082473376765847,5447380.0],[565903.880753913195804,5447392.622603840194643],[565900.0,5447396.046801017597318],[565900.0,5447400.0],[565920.0,5447400.0]]],[[[566840.0,5447416.029870978556573],[566826.879990632180125,5447404.622625750489533],[566822.257449490949512,5447400.0],[566820.0,5447400.0],[566820.0,5447420.0],[566840.0,5447420.0],[566840.0,5447416.029870978556573]]],[[[566840.0,5447420.0],[566840.0,5447440.0],[566860.0,5447440.0],[566860.0,5447435.303696873597801],[566849.8815570109291,5447424.621430702507496],[566844.566232154145837,5447420.0],[566840.0,5447420.0]]],[[[566876.069337035063654,5447460.0],[566867.880371462320909,5447443.623180966824293],[566864.448426455259323,5447440.0],[566860.0,5447440.0],[566860.0,5447460.0],[566876.069337035063654,5447460.0]]],[[[566900.0,5447500.0],[566900.0,5447492.521705020219088],[566889.982060515787452,5447480.0],[566880.0,5447480.0],[566880.0,5447500.0],[566900.0,5447500.0]]],[[[566200.0,5447520.0],[566200.0,5447500.0],[566220.0,5447500.0],[566220.0,5447480.0],[566160.0,5447480.0],[566160.0,5447500.0],[566120.0,5447500.0],[566120.0,5447520.0],[566200.0,5447520.0]]],[[[566920.0,5447520.0],[566920.0,5447518.856284709647298],[566912.880899250507355,5447508.622860931791365],[566905.982654245686717,5447500.0],[566900.0,5447500.0],[566900.0,5447520.0],[566920.0,5447520.0]]],[[[566960.0,5447580.0],[566960.0,5447570.13227573223412],[566950.993032397003844,5447560.0],[566940.0,5447560.0],[566940.0,5447580.0],[566960.0,5447580.0]]],[[[566980.0,5447594.742166731506586],[566977.881440620403737,5447592.623538904823363],[566968.880937739508227,5447582.622923429124057],[566967.382065493031405,5447580.0],[566960.0,5447580.0],[566960.0,5447600.0],[566980.0,5447600.0],[566980.0,5447594.742166731506586]]],[[[566980.0,5447620.0],[567000.0,5447620.0],[567000.0,5447614.095064016059041],[566992.88098685850855,5447607.623569753952324],[566985.257663401775062,5447600.0],[566980.0,5447600.0],[566980.0,5447620.0]]],[[[566180.0,5447600.0],[566180.0,5447620.0],[566160.0,5447620.0],[566160.0,5447640.0],[566240.0,5447640.0],[566240.0,5447600.0],[566180.0,5447600.0]]],[[[567020.0,5447633.011333605274558],[567014.88111708406359,5447627.622650202363729],[567006.495766690117307,5447620.0],[567000.0,5447620.0],[567000.0,5447640.0],[567020.0,5447640.0],[567020.0,5447633.011333605274558]]],[[[566060.0,5447620.0],[565940.0,5447620.0],[565940.0,5447640.0],[566060.0,5447640.0],[566060.0,5447620.0]]],[[[565960.0,5447680.0],[565960.0,5447660.0],[565940.0,5447660.0],[565940.0,5447680.0],[565960.0,5447680.0]]],[[[566180.0,5447780.0],[566180.0,5447760.0],[566160.0,5447760.0],[566160.0,5447780.0],[566180.0,5447780.0]]],[[[566440.0,5447820.0],[566440.0,5447800.0],[566420.0,5447800.0],[566420.0,5447820.0],[566440.0,5447820.0]]],[[[566640.0,5447880.0],[566640.0,5447860.0],[566620.0,5447860.0],[566620.0,5447880.0],[566640.0,5447880.0]]],[[[566740.0,5447900.0],[566720.0,5447900.0],[566720.0,5447920.0],[566740.0,5447920.0],[566740.0,5447900.0]]],[[[566740.0,5447940.0],[566760.0,5447940.0],[566760.0,5447920.0],[566740.0,5447920.0],[566740.0,5447940.0]]],[[[566220.0,5448140.0],[566220.0,5448160.0],[566320.0,5448160.0],[566320.0,5448180.0],[566400.0,5448180.0],[566400.0,5448160.0],[566360.0,5448160.0],[566360.0,5448140.0],[566300.0,5448140.0],[566300.0,5448120.0],[566140.0,5448120.0],[566140.0,5448140.0],[566220.0,5448140.0]]],[[[566580.0,5448160.0],[566520.0,5448160.0],[566520.0,5448140.0],[566500.0,5448140.0],[566500.0,5448160.0],[566460.0,5448160.0],[566460.0,5448180.0],[566580.0,5448180.0],[566580.0,5448160.0]]],[[[565960.0,5448440.0],[565940.0,5448440.0],[565940.0,5448460.0],[565960.0,5448460.0],[565960.0,5448440.0]]],[[[565880.0,5448480.0],[565880.0,5448482.365647754631937],[565920.0,5448483.752127457410097],[565920.0,5448480.0],[565940.0,5448480.0],[565940.0,5448460.0],[565900.0,5448460.0],[565900.0,5448480.0],[565880.0,5448480.0]]],[[[567020.0,5443440.0],[567015.439242180786096,5443440.0],[567020.0,5443444.78314018715173],[567020.0,5443440.0]]],[[[567400.0,5445360.0],[567400.0,5445380.0],[567420.0,5445380.0],[567420.0,5445420.0],[567460.0,5445420.0],[567460.0,5445400.0],[567440.0,5445400.0],[567440.0,5445360.0],[567420.0,5445360.0],[567420.0,5445340.0],[567400.0,5445340.0],[567400.0,5445320.0],[567380.0,5445320.0],[567380.0,5445360.0],[567400.0,5445360.0]]],[[[567480.0,5445460.0],[567480.0,5445480.0],[567500.0,5445480.0],[567500.0,5445440.0],[567480.0,5445440.0],[567480.0,5445420.0],[567460.0,5445420.0],[567460.0,5445460.0],[567480.0,5445460.0]]],[[[567840.0,5445720.0],[567840.0,5445660.0],[567823.58613691770006,5445660.0],[567823.623521693050861,5445660.963316300883889],[567823.700065985671245,5445663.177661230787635],[567823.773638153448701,5445665.485288991592824],[567823.852144361939281,5445667.837777148932219],[567823.937591062975116,5445670.188962504267693],[567824.035975365666673,5445672.492508752271533],[567824.152253577602096,5445674.701123088598251],[567824.288389023276977,5445676.767642549239099],[567824.45189408888109,5445678.657684967853129],[567824.640336540876888,5445680.384377392940223],[567824.856703798286617,5445681.970628311857581],[567825.099124375497922,5445683.442561957985163],[567825.36763583519496,5445684.824216428212821],[567825.662275751703419,5445686.139629830606282],[567825.986117811407894,5445687.4137102086097],[567826.335208933451213,5445688.67066877707839],[567826.710411812295206,5445689.930501221679151],[567827.114109981688671,5445691.202119029127061],[567827.5431810580194,5445692.482652694918215],[567827.995845387573354,5445693.777187690138817],[567828.4741414320888,5445695.086637238040566],[567828.976117004291154,5445696.41208768542856],[567829.500903840758838,5445697.756581659428775],[567830.047547424561344,5445699.121162218973041],[567830.617217955645174,5445700.50978522375226],[567831.210476182866842,5445701.935447853058577],[567831.832784897764213,5445703.408931350335479],[567832.485918192891404,5445704.948188534006476],[567833.1713482105406,5445706.564173741266131],[567833.893669486395083,5445708.270710832439363],[567834.655567503883503,5445710.083709782920778],[567835.460639145807363,5445712.017037720419466],[567836.309013811871409,5445714.073693993501365],[567837.188552595674992,5445716.227160490117967],[567838.087553489953279,5445718.437878643162549],[567838.722177063580602,5445720.0],[567840.0,5445720.0]]],[[[567840.0,5445820.0],[567840.0,5445800.0],[567825.518796439981088,5445800.0],[567825.457138957455754,5445801.924771597608924],[567825.368694250239059,5445804.438752822577953],[567825.275585436611436,5445806.867795727215707],[567825.180687248473987,5445809.16269457526505],[567825.086394364479929,5445811.286284310743213],[567824.99309499701485,5445813.247562991455197],[567824.897790583781898,5445815.069698738865554],[567824.799348492873833,5445816.772773767821491],[567824.699672207701951,5445818.377740240655839],[567824.594679238740355,5445819.905809990130365],[567824.587623459636234,5445820.0],[567840.0,5445820.0]]],[[[567840.0,5446000.0],[567823.835791720892303,5446000.0],[567820.486620410578325,5446011.269417989999056],[567821.22943136037793,5446020.0],[567860.0,5446020.0],[567860.0,5445987.689238214865327],[567852.545672593754716,5445982.35734124854207],[567852.409581012791023,5445982.261076372116804],[567851.675659585976973,5445982.417118393816054],[567840.0,5445984.910832713358104],[567840.0,5446000.0]]],[[[567040.0,5447660.0],[567040.0,5447656.095665353350341],[567033.88068796612788,5447647.623629704117775],[567026.638757993234321,5447640.0],[567020.0,5447640.0],[567020.0,5447660.0],[567040.0,5447660.0]]],[[[567057.663122687139548,5447680.0],[567046.881586431525648,5447665.623050988651812],[567042.820082796853967,5447660.0],[567040.0,5447660.0],[567040.0,5447680.0],[567057.663122687139548,5447680.0]]],[[[567458.29597156541422,5447860.0],[567455.880539752310142,5447863.622876717709005],[567450.88125608919654,5447866.623213839717209],[567438.880585734732449,5447866.622823050245643],[567417.880952795501798,5447866.623069516383111],[567411.880943268653937,5447868.623107833787799],[567401.880518023041077,5447875.623479515314102],[567400.0,5447882.205237861722708],[567400.0,5447900.0],[567500.0,5447900.0],[567500.0,5447880.0],[567507.14128052489832,5447880.0],[567508.881533350097016,5447873.623243902809918],[567511.880689381505363,5447870.622506385669112],[567515.880756681202911,5447869.62268153578043],[567518.880568292806856,5447870.622416364960372],[567520.0,5447873.756875195540488],[567520.0,5447860.0],[567500.0,5447860.0],[567500.0,5447840.0],[567460.0,5447840.0],[567460.0,5447849.520934673026204],[567460.88226708653383,5447850.623182940296829],[567460.0,5447856.78983479551971],[567460.0,5447860.0],[567458.29597156541422,5447860.0]]],[[[567240.0,5447919.123578964732587],[567226.8800210270565,5447904.623523915186524],[567222.950223860098049,5447900.0],[567220.0,5447900.0],[567220.0,5447920.0],[567240.0,5447920.0],[567240.0,5447919.123578964732587]]],[[[567240.0,5447920.0],[567240.0,5447940.0],[567260.0,5447940.0],[567260.0,5447934.800526386126876],[567245.880800753133371,5447925.622974644415081],[567240.793005648301914,5447920.0],[567240.0,5447920.0]]],[[[567280.0,5447960.0],[567280.0,5447947.607987217605114],[567268.04454295465257,5447940.0],[567260.0,5447940.0],[567260.0,5447960.0],[567280.0,5447960.0]]],[[[567420.0,5448096.868059415370226],[567406.88120489846915,5448084.623270093463361],[567402.643267307546921,5448080.0],[567400.0,5448080.0],[567400.0,5448100.0],[567420.0,5448100.0],[567420.0,5448096.868059415370226]]],[[[567420.0,5448120.0],[567440.0,5448120.0],[567440.0,5448117.258593373000622],[567438.880914624081925,5448115.623043844476342],[567423.257293504662812,5448100.0],[567420.0,5448100.0],[567420.0,5448120.0]]],[[[567580.0,5448160.0],[567580.0,5448141.646981759928167],[567574.880736328428611,5448140.622990539297462],[567571.765436912886798,5448140.0],[567540.0,5448140.0],[567540.0,5448160.0],[567580.0,5448160.0]]],[[[567720.0,5448180.0],[567720.0,5448160.0],[567700.0,5448160.0],[567700.0,5448160.139208099804819],[567704.880640612449497,5448167.622753269970417],[567713.131953947828151,5448180.0],[567720.0,5448180.0]]],[[[567760.0,5448240.0],[567760.0,5448220.0],[567741.251182425068691,5448220.0],[567746.880635876674205,5448226.622773990035057],[567758.251633083447814,5448240.0],[567760.0,5448240.0]]],[[[567640.0,5448360.0],[567640.0,5448420.0],[567660.0,5448420.0],[567660.0,5448460.0],[567680.0,5448460.0],[567680.0,5448480.0],[567700.0,5448480.0],[567700.0,5448461.565768036060035],[567685.880471440730616,5448444.621259897947311],[567681.988727821037173,5448440.0],[567680.0,5448440.0],[567680.0,5448437.638480582274497],[567669.881518480367959,5448425.623266465961933],[567669.88095830893144,5448422.621431712061167],[567673.880814454401843,5448413.622670925222337],[567680.0,5448408.616023194044828],[567680.0,5448380.0],[567690.880877215531655,5448380.0],[567690.881467371014878,5448364.622199906036258],[567690.881040334235877,5448355.622643517330289],[567693.880967222386971,5448344.622929729521275],[567696.070838933577761,5448340.0],[567660.0,5448340.0],[567660.0,5448360.0],[567640.0,5448360.0]]],[[[567840.0,5448400.0],[567825.694228356005624,5448400.0],[567828.881417069933377,5448410.623119840398431],[567835.500147229875438,5448420.0],[567840.0,5448420.0],[567840.0,5448400.0]]],[[[567860.0,5448420.0],[567840.0,5448420.0],[567840.0,5448426.375026498921216],[567840.880918676732108,5448427.623040644451976],[567860.0,5448439.095338500104845],[567860.0,5448420.0]]],[[[567720.0,5448495.741735040210187],[567719.880846284097061,5448495.622562604956329],[567708.880530993221328,5448488.622555241920054],[567704.880337782436982,5448482.623057700693607],[567704.678632461000234,5448480.0],[567700.0,5448480.0],[567700.0,5448500.0],[567720.0,5448500.0],[567720.0,5448495.741735040210187]]],[[[567737.979078998090699,5448520.0],[567733.880476710852236,5448512.622874517925084],[567726.880964905605651,5448502.623780990019441],[567724.257596063660458,5448500.0],[567720.0,5448500.0],[567720.0,5448520.0],[567737.979078998090699,5448520.0]]],[[[567900.0,5448540.0],[567900.0,5448500.0],[567897.476468740263954,5448500.0],[567886.880808508722112,5448513.623331916518509],[567880.0,5448520.933789631351829],[567880.0,5448540.0],[567900.0,5448540.0]]],[[[567880.0,5448560.0],[567880.0,5448540.0],[567852.254287421703339,5448540.0],[567848.880618692142889,5448545.623599911108613],[567849.880612596869469,5448554.622854980640113],[567852.953528823563829,5448560.0],[567880.0,5448560.0]]],[[[567820.0,5448580.0],[567820.0,5448569.233048601076007],[567818.881408002227545,5448568.622819978743792],[567815.880714207305573,5448568.622754639945924],[567811.880323530174792,5448567.623361404053867],[567807.881220867391676,5448568.623145364224911],[567785.880659192684107,5448567.623181378468871],[567780.0,5448563.07888301089406],[567780.0,5448580.0],[567820.0,5448580.0]]],[[[567920.0,5448560.0],[567920.0,5448675.860692056827247],[567922.069725348381326,5448680.0],[567940.0,5448680.0],[567940.0,5448695.182767651975155],[567949.634166988776997,5448700.0],[567960.0,5448700.0],[567960.0,5448706.88559066131711],[567975.880583593505435,5448718.623855276964605],[567977.44021826912649,5448720.0],[567980.0,5448720.0],[567980.0,5448722.258625160902739],[567992.87962830089964,5448733.622974003665149],[568000.0,5448739.851014138199389],[568000.0,5448700.0],[567980.0,5448700.0],[567980.0,5448680.0],[567960.0,5448680.0],[567960.0,5448620.0],[567940.0,5448620.0],[567940.0,5448560.0],[567920.0,5448560.0]]],[[[567875.065127441077493,5448720.0],[567875.880673029227182,5448710.623187754303217],[567875.88085568358656,5448705.623101240023971],[567872.133138683857396,5448700.0],[567860.0,5448700.0],[567860.0,5448720.0],[567875.065127441077493,5448720.0]]],[[[568020.0,5448760.0],[568020.0,5448740.0],[568000.17033202922903,5448740.0],[568000.882295458810404,5448740.62273951433599],[568016.881325997412205,5448758.623002933338284],[568017.512449996545911,5448760.0],[568020.0,5448760.0]]],[[[567895.475703592062928,5448780.0],[567891.880681692273356,5448765.623198815621436],[567888.625567438430153,5448760.0],[567880.0,5448760.0],[567880.0,5448780.0],[567895.475703592062928,5448780.0]]],[[[568060.0,5448840.0],[568060.0,5448820.0],[568040.232129075448029,5448820.0],[568040.88127131795045,5448821.622461728751659],[568047.651868778979406,5448840.0],[568060.0,5448840.0]]],[[[567896.095556604559533,5448940.0],[567894.880747853079811,5448933.623443811200559],[567889.881099554593675,5448916.622513216920197],[567890.88043290679343,5448896.622975014150143],[567892.880981655209325,5448874.622849048115313],[567895.423741769744083,5448860.0],[567880.0,5448860.0],[567880.0,5448940.0],[567896.095556604559533,5448940.0]]],[[[567916.569842209923081,5449020.0],[567906.881455846945755,5449000.622835083864629],[567906.711589618469588,5449000.0],[567900.0,5449000.0],[567900.0,5449020.0],[567916.569842209923081,5449020.0]]],[[[568440.0,5446260.0],[568440.0,5446360.0],[568460.0,5446360.0],[568460.0,5446380.0],[568480.0,5446380.0],[568480.0,5446340.0],[568500.0,5446340.0],[568500.0,5446320.0],[568480.0,5446320.0],[568480.0,5446280.0],[568460.0,5446280.0],[568460.0,5446260.0],[568440.0,5446260.0]]],[[[568320.0,5448340.0],[568320.0,5448320.0],[568340.0,5448320.0],[568340.0,5448340.0],[568380.0,5448340.0],[568380.0,5448320.0],[568360.0,5448320.0],[568360.0,5448300.0],[568280.0,5448300.0],[568280.0,5448320.0],[568200.0,5448320.0],[568200.0,5448340.0],[567960.0,5448340.0],[567960.0,5448360.0],[567980.0,5448360.0],[567980.0,5448380.0],[568020.0,5448380.0],[568020.0,5448400.0],[568060.0,5448400.0],[568060.0,5448420.0],[568100.0,5448420.0],[568100.0,5448400.0],[568120.0,5448400.0],[568120.0,5448380.0],[568140.0,5448380.0],[568140.0,5448360.0],[568280.0,5448360.0],[568280.0,5448340.0],[568320.0,5448340.0]]],[[[568080.0,5448860.0],[568060.211686856113374,5448860.0],[568061.880979905719869,5448862.62328583933413],[568075.396266213268973,5448880.0],[568080.0,5448880.0],[568080.0,5448860.0]]],[[[568080.0,5448885.919054264202714],[568089.880808823159896,5448898.622881582006812],[568091.040459299809299,5448900.0],[568100.0,5448900.0],[568100.0,5448880.0],[568080.0,5448880.0],[568080.0,5448885.919054264202714]]],[[[568120.0,5448920.0],[568120.0,5448900.0],[568100.0,5448900.0],[568100.0,5448910.639713226817548],[568105.881077466765419,5448917.623662495054305],[568108.382603459409438,5448920.0],[568120.0,5448920.0]]],[[[568180.0,5448980.0],[568160.0,5448980.0],[568160.0,5448983.13234243914485],[568164.881396245909855,5448988.623211186379194],[568173.881664907094091,5448995.622743094339967],[568176.881613579811528,5448996.624445374123752],[568179.88073342165444,5448999.622403103858232],[568180.0,5448999.677067700773478],[568180.0,5448980.0]]],[[[568740.0,5449000.0],[568720.0,5449000.0],[568720.0,5449016.691742254421115],[568729.880700213718228,5449012.62355921510607],[568740.0,5449008.195907222107053],[568740.0,5449000.0]]],[[[568260.0,5449020.0],[568240.0,5449020.0],[568240.0,5449029.681045927107334],[568243.881499806884676,5449031.621416235342622],[568260.0,5449037.763131611049175],[568260.0,5449020.0]]],[[[568320.0,5449040.0],[568280.0,5449040.0],[568280.0,5449047.182443495839834],[568284.880960345850326,5449049.62291228864342],[568294.881007880438119,5449051.623070077970624],[568317.881165576633066,5449057.623684045858681],[568320.0,5449058.329953349195421],[568320.0,5449040.0]]],[[[568680.0,5449060.0],[568660.0,5449060.0],[568660.0,5449080.0],[568660.962746046134271,5449080.0],[568661.881166863488033,5449078.622228466905653],[568680.0,5449062.316229501739144],[568680.0,5449060.0]]],[[[568659.064404570381157,5449100.0],[568655.880672111059539,5449095.622536953538656],[568657.88095189537853,5449084.623162031173706],[568660.0,5449081.444266147911549],[568660.0,5449080.0],[568640.0,5449080.0],[568640.0,5449100.0],[568659.064404570381157,5449100.0]]],[[[568740.0,5449120.0],[568740.0,5449112.867609433829784],[568737.385579484398477,5449115.143908653408289],[568731.678707473911345,5449120.0],[568740.0,5449120.0]]],[[[568500.0,5449120.0],[568500.0,5449126.930289946496487],[568511.880503094405867,5449137.622928514145315],[568515.000469852355309,5449140.0],[568520.0,5449140.0],[568520.0,5449143.809092044830322],[568532.881254156585783,5449153.623190825805068],[568537.880444525973871,5449155.622901728376746],[568547.880361367715523,5449156.623422479256988],[568560.880603969562799,5449155.622773076407611],[568566.881240359973162,5449156.62349961232394],[568577.881322138244286,5449155.622473358176649],[568601.88157868583221,5449152.623183844611049],[568620.0,5449147.681295923888683],[568620.0,5449140.0],[568580.0,5449140.0],[568580.0,5449120.0],[568600.0,5449120.0],[568600.0,5449100.0],[568480.0,5449100.0],[568480.0,5449113.682964093051851],[568491.881010006414726,5449119.623071990907192],[568492.299811628647149,5449120.0],[568500.0,5449120.0]]],[[[568620.0,5449120.0],[568620.0,5449140.0],[568635.236548927496187,5449140.0],[568635.881833483697847,5449139.623657736927271],[568649.88046521670185,5449131.623466135933995],[568654.880931427236646,5449123.622990910895169],[568656.692959367181174,5449120.0],[568620.0,5449120.0]]],[[[569420.0,5443360.0],[569520.0,5443360.0],[569520.0,5443300.0],[569500.0,5443300.0],[569500.0,5443280.0],[569400.0,5443280.0],[569400.0,5443260.0],[569360.0,5443260.0],[569360.0,5443340.0],[569420.0,5443340.0],[569420.0,5443360.0]]],[[[569192.328659670078196,5444380.0],[569193.880852543981746,5444381.622721410356462],[569200.0,5444387.741987789049745],[569200.0,5444380.0],[569192.328659670078196,5444380.0]]],[[[569220.0,5444400.0],[569212.257773986202665,5444400.0],[569217.880611646454781,5444405.622946937568486],[569220.0,5444404.604017383418977],[569220.0,5444400.0]]],[[[569860.0,5447120.0],[569820.0,5447120.0],[569820.0,5447100.0],[569800.0,5447100.0],[569800.0,5447120.0],[569740.0,5447120.0],[569740.0,5447100.0],[569720.0,5447100.0],[569720.0,5447120.0],[569600.0,5447120.0],[569600.0,5447140.0],[569560.0,5447140.0],[569560.0,5447160.0],[569580.0,5447160.0],[569580.0,5447180.0],[569600.0,5447180.0],[569600.0,5447220.0],[569640.0,5447220.0],[569640.0,5447260.0],[569680.0,5447260.0],[569680.0,5447240.0],[569700.0,5447240.0],[569700.0,5447280.0],[569720.0,5447280.0],[569720.0,5447300.0],[569780.0,5447300.0],[569780.0,5447240.0],[569800.0,5447240.0],[569800.0,5447200.0],[569780.0,5447200.0],[569780.0,5447180.0],[569820.0,5447180.0],[569820.0,5447140.0],[569860.0,5447140.0],[569860.0,5447120.0]]],[[[569460.0,5447340.0],[569460.0,5447320.0],[569440.0,5447320.0],[569440.0,5447340.0],[569460.0,5447340.0]]],[[[569660.0,5447320.0],[569660.0,5447300.0],[569620.0,5447300.0],[569620.0,5447280.0],[569580.0,5447280.0],[569580.0,5447300.0],[569600.0,5447300.0],[569600.0,5447340.0],[569660.0,5447340.0],[569660.0,5447380.0],[569680.0,5447380.0],[569680.0,5447400.0],[569700.0,5447400.0],[569700.0,5447420.0],[569720.0,5447420.0],[569720.0,5447440.0],[569740.0,5447440.0],[569740.0,5447420.0],[569760.0,5447420.0],[569760.0,5447360.0],[569720.0,5447360.0],[569720.0,5447340.0],[569700.0,5447340.0],[569700.0,5447320.0],[569660.0,5447320.0]]],[[[569420.0,5447360.0],[569420.0,5447380.0],[569440.0,5447380.0],[569440.0,5447420.0],[569460.0,5447420.0],[569460.0,5447400.0],[569480.0,5447400.0],[569480.0,5447380.0],[569500.0,5447380.0],[569500.0,5447340.0],[569460.0,5447340.0],[569460.0,5447360.0],[569420.0,5447360.0]]],[[[569320.0,5448600.0],[569320.0,5448580.0],[569360.0,5448580.0],[569360.0,5448560.0],[569340.0,5448560.0],[569340.0,5448540.0],[569300.0,5448540.0],[569300.0,5448600.0],[569320.0,5448600.0]]],[[[568800.0,5448560.0],[568800.0,5448540.0],[568780.0,5448540.0],[568780.0,5448560.0],[568760.0,5448560.0],[568760.0,5448580.0],[568800.0,5448580.0],[568800.0,5448600.0],[568820.0,5448600.0],[568820.0,5448620.0],[568840.0,5448620.0],[568840.0,5448640.0],[568860.0,5448640.0],[568860.0,5448660.0],[568900.0,5448660.0],[568900.0,5448640.0],[568880.0,5448640.0],[568880.0,5448600.0],[568860.0,5448600.0],[568860.0,5448580.0],[568820.0,5448580.0],[568820.0,5448560.0],[568800.0,5448560.0]]],[[[569680.0,5448820.0],[569660.0,5448820.0],[569660.0,5448837.250139086507261],[569679.881595402839594,5448830.623674210160971],[569680.0,5448830.591376670636237],[569680.0,5448820.0]]],[[[569300.0,5448820.0],[569260.0,5448820.0],[569260.0,5448827.902662045322359],[569262.881338234990835,5448828.622838224284351],[569286.881140743149444,5448834.623879506252706],[569300.0,5448838.37128275167197],[569300.0,5448820.0]]],[[[569802.378937360248528,5448820.0],[569791.881355353281833,5448829.623589122667909],[569788.881640557548963,5448829.62355587631464],[569780.0,5448831.103526007384062],[569780.0,5448840.0],[569846.823244285769761,5448840.0],[569845.881042407243513,5448839.623145095072687],[569823.879784888937138,5448830.622823067940772],[569806.176199207198806,5448820.0],[569802.378937360248528,5448820.0]]],[[[569360.0,5448840.0],[569340.0,5448840.0],[569340.0,5448848.275752036832273],[569350.880611943546683,5448851.621897642500699],[569360.0,5448854.793989953584969],[569360.0,5448840.0]]],[[[569920.13957516499795,5448860.0],[569899.881070252973586,5448856.622981430962682],[569876.880795195698738,5448850.622815757989883],[569865.880937229143456,5448847.62255438696593],[569860.0,5448845.270340820774436],[569860.0,5448860.0],[569920.13957516499795,5448860.0]]],[[[569940.0,5448860.0],[569940.0,5448857.761838405393064],[569934.880658773821779,5448859.623377443291247],[569930.738737896899693,5448860.0],[569940.0,5448860.0]]],[[[569740.0,5448880.0],[569740.0,5448840.843356902711093],[569720.880775732221082,5448845.623652214184403],[569720.0,5448845.843838913366199],[569720.0,5448880.0],[569740.0,5448880.0]]],[[[569420.0,5448860.0],[569400.0,5448860.0],[569400.0,5448869.404066652059555],[569416.880640428746119,5448875.622522994875908],[569420.0,5448876.454466347582638],[569420.0,5448860.0]]],[[[569640.0,5448900.0],[569640.0,5448882.519932671450078],[569639.881290659774095,5448882.622812107205391],[569621.881430957233533,5448895.623671915382147],[569620.0,5448896.429712349548936],[569620.0,5448900.0],[569640.0,5448900.0]]],[[[569580.0,5448940.0],[569580.0,5448920.0],[569573.081612086622044,5448920.0],[569563.880746734794229,5448925.622990204952657],[569539.881222769035958,5448926.623341201804578],[569535.881114829913713,5448927.62325428519398],[569529.881514891865663,5448926.623557559214532],[569520.0,5448926.623311644420028],[569520.0,5448940.0],[569580.0,5448940.0]]],[[[568920.0,5448980.0],[568920.0,5448961.821773204952478],[568908.881041942862794,5448967.622775917872787],[568900.0,5448972.803593159653246],[568900.0,5448980.0],[568920.0,5448980.0]]],[[[568780.0,5448980.0],[568760.0,5448980.0],[568760.0,5448998.899882375262678],[568766.880884004640393,5448995.623546684160829],[568780.0,5448985.591287249699235],[568780.0,5448980.0]]],[[[568760.0,5449088.263462075032294],[568756.264309910009615,5449098.832920162938535],[568754.862076618475839,5449100.0],[568760.0,5449100.0],[568760.0,5449088.263462075032294]]]]}}
]
}
