{"type":"FeatureCollection","crs":{"type":"name","properties":{"name":"EPSG:32610"}},"features":[{"type":"Feature","id":8800477,"geometry":{"type":"Polygon","coordinates":[[[568032.88382912544,5447885.6687731864],[568035.96027758636,5447884.5988047076],[568050.82844752562,5447889.6902017081],[568066.85327920888,5447909.6817324292],[568079.84096427599,5447926.6268319804],[568090.90437775082,5447945.6075694598],[568093.82349173247,5447949.6016449556],[568089.89687785273,5447955.5703948289],[568083.8668183923,5447965.6308868909],[568080.81051385123,5447964.642638295],[568061.94556498795,5447942.5577131389],[568045.85887545883,5447918.6074314741],[568030.94515486527,5447898.6298041958],[568029.88842667558,5447888.6403238494],[568032.88382912544,5447885.6687731864]]]},"properties":{"WATERBODY_POLY_ID":700091667,"WATERSHED_GROUP_ID":63,"WATERBODY_TYPE":"L","WATERBODY_KEY":329178385,"AREA_HA":0.19032980279403799,"GNIS_ID_1":null,"GNIS_NAME_1":null,"GNIS_ID_2":null,"GNIS_NAME_2":null,"GNIS_ID_3":null,"GNIS_NAME_3":null,"BLUE_LINE_KEY":356330954,"WATERSHED_KEY":356330954,"FWA_WATERSHED_CODE":"100-067925-000000-000000-000000-000000-000000-000000-000000-000000-000000-000000-000000-000000-000000-000000-000000-000000-000000-000000-000000","LOCAL_WATERSHED_CODE":null,"WATERSHED_GROUP_CODE":"HARR","LEFT_RIGHT_TRIBUTARY":"RIGHT","WATERBODY_KEY_50K":null,"WATERSHED_GROUP_CODE_50K":null,"WATERBODY_KEY_GROUP_CODE_50K":null,"WATERSHED_CODE_50K":null,"FEATURE_CODE":"GB15300000","OBJECTID":8800477,"GEOMETRY.AREA":0,"GEOMETRY.LEN":0,"FEATURE_AREA_SQM":1903.298,"FEATURE_LENGTH_M":212.0667}},{"type":"Feature","id":8800315,"geometry":{"type":"Polygon","coordinates":[[[568333.93877232133,5448552.5548980422],[568316.90800997184,5448547.5934381727],[568293.90173510113,5448537.6486945227],[568270.9338011432,5448523.5886213901],[568267.91749991698,5448523.5511892783],[568248.81976802961,5448509.6968328832],[568247.86420687113,5448499.5507887043],[568251.91083353187,5448492.6333397226],[568260.86183627602,5448491.6350785382],[568265.86337396002,5448493.5976522909],[568287.89835060621,5448505.5877831373],[568306.83602449915,5448515.6399075659],[568329.90320572269,5448529.5444221236],[568344.80958856293,5448535.5876345318],[568361.88211908622,5448546.5670219762],[568364.90016234783,5448551.6715776892],[568363.8499576652,5448555.6174479164],[568353.90578500472,5448555.6521721799],[568333.93877232133,5448552.5548980422]]]},"properties":{"WATERBODY_POLY_ID":700091600,"WATERSHED_GROUP_ID":63,"WATERBODY_TYPE":"L","WATERBODY_KEY":329178327,"AREA_HA":0.26963127584908197,"GNIS_ID_1":null,"GNIS_NAME_1":null,"GNIS_ID_2":null,"GNIS_NAME_2":null,"GNIS_ID_3":null,"GNIS_NAME_3":null,"BLUE_LINE_KEY":356080775,"WATERSHED_KEY":356080775,"FWA_WATERSHED_CODE":"999-999999-999999-999999-999999-999999-999999-999999-999999-999999-999999-999999-999999-999999-999999-999999-999999-999999-999999-999999-999999","LOCAL_WATERSHED_CODE":null,"WATERSHED_GROUP_CODE":"HARR","LEFT_RIGHT_TRIBUTARY":"UNKNOWN","WATERBODY_KEY_50K":null,"WATERSHED_GROUP_CODE_50K":null,"WATERBODY_KEY_GROUP_CODE_50K":null,"WATERSHED_CODE_50K":null,"FEATURE_CODE":"GB15300000","OBJECTID":8800315,"GEOMETRY.AREA":0,"GEOMETRY.LEN":0,"FEATURE_AREA_SQM":2696.3128000000002,"FEATURE_LENGTH_M":279.17169999999999}},{"type":"Feature","id":8800609,"geometry":{"type":"Polygon","coordinates":[[[568617.8151147794,5449272.6090259142],[568610.80921610165,5449274.5806280356],[568604.89455107367,5449273.5571444873],[568601.8381907373,5449272.5689240778],[568598.8806868752,5449272.6902089389],[568591.874035432,5449269.5946813105],[568577.92131018767,5449268.6294168048],[568569.92152994126,5449264.5713492176],[568559.85842489172,5449256.6864790237],[568540.94164428953,5449244.5752468733],[568540.92175375659,5449241.5662616808],[568543.83742687653,5449231.6269755149],[568551.85559285758,5449228.5597723043],[568566.94028255588,5449232.5468835663],[568589.94558650267,5449247.5597116454],[568594.84802256792,5449249.6798022836],[568606.93552875787,5449251.5713383537],[568618.90478363098,5449255.6795646697],[568621.92292182567,5449264.5841908902],[568617.8151147794,5449272.6090259142]]]},"properties":{"WATERBODY_POLY_ID":700091672,"WATERSHED_GROUP_ID":63,"WATERBODY_TYPE":"L","WATERBODY_KEY":329178389,"AREA_HA":0.18351836240083799,"GNIS_ID_1":null,"GNIS_NAME_1":null,"GNIS_ID_2":null,"GNIS_NAME_2":null,"GNIS_ID_3":null,"GNIS_NAME_3":null,"BLUE_LINE_KEY":356242998,"WATERSHED_KEY":356242998,"FWA_WATERSHED_CODE":"999-999999-999999-999999-999999-999999-999999-999999-999999-999999-999999-999999-999999-999999-999999-999999-999999-999999-999999-999999-999999","LOCAL_WATERSHED_CODE":null,"WATERSHED_GROUP_CODE":"HARR","LEFT_RIGHT_TRIBUTARY":"UNKNOWN","WATERBODY_KEY_50K":null,"WATERSHED_GROUP_CODE_50K":null,"WATERBODY_KEY_GROUP_CODE_50K":null,"WATERSHED_CODE_50K":null,"FEATURE_CODE":"GB15300140","OBJECTID":8800609,"GEOMETRY.AREA":0,"GEOMETRY.LEN":0,"FEATURE_AREA_SQM":1835.1836000000001,"FEATURE_LENGTH_M":199.14610000000002}},{"type":"Feature","id":8799344,"geometry":{"type":"Polygon","coordinates":[[[569803.91539277218,5448818.619983674],[569791.89068865182,5448829.552669947],[569788.93319707527,5448829.6740037818],[569764.81899591116,5448833.6442071619],[569744.91336442786,5448839.5682251966],[569720.93907256844,5448845.598686072],[569708.9524244928,5448848.6138916975],[569685.81129147217,5448855.6057989579],[569674.81682708149,5448859.5845712051],[569654.87296129484,5448869.6248781709],[569639.8118004268,5448882.578350801],[569621.95212152111,5448895.6542587886],[569614.82720152929,5448898.5726593966],[569594.84232407098,5448907.6631835755],[569581.80451223324,5448914.6242862428],[569563.80490955838,5448925.6399030657],[569539.82981550682,5448926.6041372623],[569535.95926398644,5448927.6645353884],[569529.8854939678,5448926.6370069217],[569506.82350118156,5448926.6631559152],[569486.95501652779,5448924.6716860244],[569473.89546234161,5448923.5566514339],[569453.82891473966,5448920.6122130258],[569434.87449030997,5448917.6816130327],[569419.80954567622,5448916.6996614663],[569396.9448200654,5448912.6115807844],[569373.84184227954,5448911.6879309881],[569358.95504360297,5448908.6499264045],[569343.9503029224,5448906.5615636818],[569324.87590664451,5448904.5796687361],[569317.9290322637,5448901.6418589354],[569309.95011462842,5448900.5918086497],[569286.8863847584,5448895.5517785233],[569266.8389783079,5448890.5491366712],[569243.85420312069,5448883.6096028928],[569224.91796910553,5448878.621839474],[569211.81843694276,5448876.5569584034],[569199.92993359687,5448875.6164328679],[569179.88333115447,5448875.680926742],[569156.88061265869,5448874.6016197335],[569132.86459625151,5448874.6169695072],[569118.91183323099,5448873.6498078937],[569104.84012706508,5448873.6323313667],[569082.88837505609,5448873.674290047],[569068.81662653468,5448873.6558071999],[569054.9039444254,5448873.6404365795],[569042.91632562946,5448876.6565763131],[569022.81354757177,5448886.6985892234],[569004.91313343972,5448897.5585187171],[568986.87534522742,5448912.6932996316],[568967.82458532474,5448927.6566727934],[568949.84590511001,5448941.6830862379],[568931.80739428615,5448955.5508272098],[568908.8261186427,5448967.6147419307],[568896.89946205833,5448974.5916074114],[568875.9243429302,5448991.5895784311],[568852.82483058306,5449009.669300613],[568835.89841142076,5449023.5508550461],[568819.84406533185,5449035.5435815109],[568800.8521191543,5449050.6665900275],[568792.8949078006,5449057.6935801413],[568769.83462738816,5449071.6569155846],[568760.8052782903,5449079.619846723],[568744.94996631518,5449092.5654616412],[568724.84686968848,5449107.6745397942],[568705.91505626624,5449121.6901148707],[568702.93776436942,5449122.6035394389],[568696.84494801774,5449123.6360944062],[568689.81816932932,5449122.5987624237],[568669.8309569594,5449112.6904586786],[568663.91450328869,5449106.5988841457],[568655.83495468611,5449095.573037195],[568657.91745592712,5449084.6722601904],[568661.94528861088,5449078.5469298149],[568681.92829421081,5449060.585463115],[568682.89795286313,5449044.604682602],[568684.96041740431,5449039.5632194402],[568693.94969370787,5449030.6484935442],[568703.81314861786,5449023.6459888285],[568712.90238159325,5449019.6418540711],[568729.85077346,5449012.569367948],[568745.90588930133,5449005.6438041348],[568766.80379552348,5448995.6114661023],[568783.92923048092,5448982.6818400351],[568795.89592818369,5448976.6557955472],[568819.8883748668,5448959.6952147093],[568840.94351764175,5448944.5978563931],[568862.87249839515,5448932.6787723182],[568876.8825021151,5448923.6693856595],[568896.84640884143,5448911.5671069091],[568919.88653942372,5448899.66289353],[568941.85553288693,5448888.6945793545],[568961.93841159379,5448875.6435885755],[568975.92931032903,5448868.6933295494],[568997.91741800809,5448855.6668372769],[569019.88639136008,5448844.6984916376],[569038.91711808846,5448835.594426685],[569058.82186399878,5448824.6004393026],[569079.81864321022,5448815.6794929719],[569092.81746949092,5448811.5667669037],[569115.91928396851,5448808.6893981798],[569127.80877289071,5448809.629892542],[569139.93528047577,5448808.6740507521],[569158.90969664545,5448809.5445215516],[569176.93176811526,5448811.6712739822],[569198.86342883343,5448813.6884865351],[569219.92202660802,5448817.5945686325],[569232.90356226533,5448820.6080939965],[569246.87719257816,5448824.5831956742],[569262.91508621629,5448828.5849149348],[569286.81295053207,5448834.5863728318],[569300.94461218046,5448838.5636226423],[569324.84248352027,5448844.565068882],[569337.82402930886,5448847.5785768153],[569350.90444303781,5448851.7015941683],[569373.92926163215,5448859.5919020064],[569397.84707022877,5448868.6023292858],[569416.92226804991,5448875.6513662729],[569431.84906105045,5448879.6391636664],[569453.9398209491,5448881.6594197024],[569467.89259655646,5448882.6265213871],[569479.94017518486,5448883.5701200673],[569496.87027301383,5448883.624756474],[569509.82995508937,5448883.63031884],[569522.83063287253,5448884.5856391508],[569535.95033643197,5448884.5932679465],[569547.91783504561,5448883.6352497432],[569571.95011418732,5448872.6953958813],[569595.8045780455,5448862.5455135684],[569618.86563341366,5448853.6520281322],[569636.88514558377,5448845.6453908477],[569658.87411511806,5448837.6888536392],[569679.95102417329,5448830.6713433601],[569701.86104987038,5448824.6142856311],[569714.9197716607,5448820.6621149117],[569728.83172012377,5448815.6121980175],[569742.90169246437,5448810.564434954],[569753.89718878444,5448806.5866055666],[569775.84613944427,5448797.6802231502],[569794.87687977613,5448788.5779514574],[569815.89278773428,5448777.6006257702],[569835.95563689398,5448766.6125677451],[569859.82987063378,5448755.6714405091],[569880.9258966581,5448746.5967002623],[569903.80598023848,5448734.6930694208],[569922.91666735825,5448723.6922134338],[569944.9247759236,5448713.6794100767],[569965.84077573637,5448701.5925567392],[569983.91830238421,5448688.6793441949],[570000.84577623312,5448678.6015519388],[570012.95052583003,5448669.5704178549],[570018.84432060225,5448667.5868257601],[570036.95999305218,5448650.5562633695],[570041.86164080328,5448647.6100975592],[570043.90495533182,5448644.6277244575],[570049.87879902183,5448644.5447424334],[570063.95161416708,5448644.5649964632],[570065.87679982814,5448647.5984966513],[570066.83178394288,5448652.6783541972],[570061.91003757389,5448657.6827297565],[570038.93272232625,5448678.6092682416],[570021.90722054697,5448692.6447325246],[570004.92175978562,5448707.6309955614],[569986.80422811781,5448719.594404039],[569964.85710989148,5448733.566992783],[569946.81849852274,5448743.6308888784],[569928.93790837529,5448753.6969353585],[569910.83946234104,5448763.6021543946],[569887.91932582797,5448774.5549771814],[569879.92021575721,5448775.5611900939],[569858.84516317397,5448787.6458910406],[569847.81062571204,5448790.67288954],[569832.86760977807,5448797.6095597288],[569825.82351025345,5448803.6966151278],[569810.86038477975,5448812.6914826408],[569803.91539277218,5448818.619983674]]]},"properties":{"WATERBODY_POLY_ID":700000672,"WATERSHED_GROUP_ID":63,"WATERBODY_TYPE":"L","WATERBODY_KEY":328970808,"AREA_HA":7.0085270772443202,"GNIS_ID_1":30466,"GNIS_NAME_1":"Zaitscullachan Slough","GNIS_ID_2":null,"GNIS_NAME_2":null,"GNIS_ID_3":null,"GNIS_NAME_3":null,"BLUE_LINE_KEY":356264912,"WATERSHED_KEY":356264912,"FWA_WATERSHED_CODE":"100-070298-000000-000000-000000-000000-000000-000000-000000-000000-000000-000000-000000-000000-000000-000000-000000-000000-000000-000000-000000","LOCAL_WATERSHED_CODE":null,"WATERSHED_GROUP_CODE":"HARR","LEFT_RIGHT_TRIBUTARY":"RIGHT","WATERBODY_KEY_50K":null,"WATERSHED_GROUP_CODE_50K":null,"WATERBODY_KEY_GROUP_CODE_50K":null,"WATERSHED_CODE_50K":null,"FEATURE_CODE":"GB15300000","OBJECTID":8799344,"GEOMETRY.AREA":0,"GEOMETRY.LEN":0,"FEATURE_AREA_SQM":70085.270799999998,"FEATURE_LENGTH_M":3174.2748000000001}},{"type":"Feature","id":9068974,"geometry":{"type":"Polygon","coordinates":[[[569007.82234721188,5447121.5501425667],[569015.93919311999,5447119.593312759],[569023.87789620133,5447119.6925667049],[569036.92201774206,5447126.6639046073],[569040.87534735957,5447132.5723197972],[569046.85186175164,5447137.5565750683],[569049.95297409443,5447144.5627055541],[569054.88966328441,5447168.6933559673],[569057.81471678847,5447181.5556983966],[569064.83375422086,5447203.6548037874],[569069.92010115716,5447212.5860775225],[569073.83619049808,5447222.6108365217],[569083.94973070174,5447241.5807531681],[569095.9465640157,5447257.5661952002],[569103.92910841003,5447263.6833910616],[569110.89870836539,5447269.6291875355],[569115.92315609299,5447274.6016573673],[569129.86894536112,5447296.6275401153],[569130.84298380918,5447299.6492864816],[569138.8084990232,5447311.624797429],[569153.9415947583,5447326.6988624064],[569177.87056759896,5447349.6427383544],[569199.92954607017,5447364.6466321731],[569218.92839130759,5447373.5941882515],[569238.82116403314,5447383.6608419558],[569262.90050927107,5447392.6723903846],[569285.90979482082,5447402.6208216306],[569289.80300117121,5447409.6366254166],[569287.95975406235,5447413.5719145779],[569284.88433194999,5447414.6419011001],[569277.85764034116,5447413.6036223769],[569256.91746924259,5447412.5490896329],[569242.90583500732,5447412.6903435346],[569223.89274570032,5447414.6682726834],[569200.88939168188,5447413.5880650003],[569180.91933793656,5447406.6869272934],[569171.82567160425,5447400.5558593925],[569162.84890371643,5447389.6759626139],[569143.82256056461,5447367.5850973083],[569131.82570310356,5447351.5996803641],[569115.83759552659,5447332.5561641175],[569111.94615940598,5447330.60655744],[569107.9576971489,5447332.6156279296],[569105.93734324176,5447338.6079514995],[569106.93325122644,5447344.637667953],[569112.91253329522,5447354.6880730717],[569118.83578249696,5447369.6469294941],[569117.82567094802,5447374.5436946154],[569116.9543291661,5447377.6996016912],[569110.92076136009,5447377.6238587061],[569105.95546702482,5447371.5440206239],[569093.89671058743,5447351.5998083781],[569080.92587210063,5447332.593636659],[569065.80983178306,5447311.6612406373],[569049.94073142658,5447291.6689986037],[569034.90194800962,5447267.5700617982],[569024.86736467248,5447246.7006178387],[569019.87152261462,5447223.6773641417],[569016.92764112144,5447211.606138193],[569010.8416158508,5447191.5780046666],[569004.85366426921,5447167.5921383863],[568998.90475385298,5447144.557130985],[568998.9180145656,5447133.6316660363],[569000.82038354233,5447128.5879954649],[569007.82234721188,5447121.5501425667]]]},"properties":{"WATERBODY_POLY_ID":700091281,"WATERSHED_GROUP_ID":63,"WATERBODY_TYPE":"L","WATERBODY_KEY":329178044,"AREA_HA":1.9270199047408698,"GNIS_ID_1":null,"GNIS_NAME_1":null,"GNIS_ID_2":null,"GNIS_NAME_2":null,"GNIS_ID_3":null,"GNIS_NAME_3":null,"BLUE_LINE_KEY":356261090,"WATERSHED_KEY":356261090,"FWA_WATERSHED_CODE":"100-069033-000000-000000-000000-000000-000000-000000-000000-000000-000000-000000-000000-000000-000000-000000-000000-000000-000000-000000-000000","LOCAL_WATERSHED_CODE":null,"WATERSHED_GROUP_CODE":"HARR","LEFT_RIGHT_TRIBUTARY":"RIGHT","WATERBODY_KEY_50K":null,"WATERSHED_GROUP_CODE_50K":null,"WATERBODY_KEY_GROUP_CODE_50K":null,"WATERSHED_CODE_50K":null,"FEATURE_CODE":"GB15300000","OBJECTID":9068974,"GEOMETRY.AREA":0,"GEOMETRY.LEN":0,"FEATURE_AREA_SQM":19270.199000000001,"FEATURE_LENGTH_M":994.72570000000007}},{"type":"Feature","id":8800459,"geometry":{"type":"Polygon","coordinates":[[[569079.83813998732,5447104.5575260995],[569079.91329632443,5447097.5908577051],[569081.91556368454,5447093.6576733217],[569091.83390947222,5447085.5477096029],[569111.8340723213,5447075.6630738406],[569116.814680323,5447074.617591707],[569124.87444748729,5447077.5682620481],[569144.88336684904,5447081.6200730624],[569151.81291826069,5447086.6150537431],[569150.92279323796,5447090.5630847644],[569136.89418170135,5447096.5626643728],[569133.8406857549,5447100.641630725],[569132.83432935807,5447110.6045496659],[569129.80174984643,5447117.6925379373],[569122.87807419442,5447121.5648275586],[569100.94770645781,5447124.615885566],[569086.95141332911,5447117.6307841381],[569079.83813998732,5447104.5575260995]]]},"properties":{"WATERBODY_POLY_ID":700091638,"WATERSHED_GROUP_ID":63,"WATERBODY_TYPE":"L","WATERBODY_KEY":329178359,"AREA_HA":0.229680880199743,"GNIS_ID_1":null,"GNIS_NAME_1":null,"GNIS_ID_2":null,"GNIS_NAME_2":null,"GNIS_ID_3":null,"GNIS_NAME_3":null,"BLUE_LINE_KEY":356007284,"WATERSHED_KEY":356007284,"FWA_WATERSHED_CODE":"999-999999-999999-999999-999999-999999-999999-999999-999999-999999-999999-999999-999999-999999-999999-999999-999999-999999-999999-999999-999999","LOCAL_WATERSHED_CODE":null,"WATERSHED_GROUP_CODE":"HARR","LEFT_RIGHT_TRIBUTARY":"UNKNOWN","WATERBODY_KEY_50K":null,"WATERSHED_GROUP_CODE_50K":null,"WATERBODY_KEY_GROUP_CODE_50K":null,"WATERSHED_CODE_50K":null,"FEATURE_CODE":"GB15300000","OBJECTID":8800459,"GEOMETRY.AREA":0,"GEOMETRY.LEN":0,"FEATURE_AREA_SQM":2296.8088000000002,"FEATURE_LENGTH_M":191.9786}},{"type":"Feature","id":8799971,"geometry":{"type":"Polygon","coordinates":[[[569645.8919142019,5447421.5623638285],[569639.95820632786,5447422.5961494008],[569618.87691004341,5447415.6792397574],[569595.86570157332,5447400.6626939857],[569577.8921316365,5447379.6921340711],[569559.87963470106,5447361.570914872],[569551.83114481624,5447342.626633836],[569541.87641265756,5447323.6568979835],[569530.86977906642,5447303.5668991525],[569519.82488535705,5447287.5922892252],[569501.83820647246,5447277.5481465301],[569492.91951445083,5447265.5599351171],[569476.83209058619,5447246.672018162],[569458.93766910292,5447227.6030883882],[569460.8970675607,5447217.6518997848],[569464.84452157526,5447214.6930267531],[569471.93035430415,5447214.6239122348],[569489.81810358539,5447223.5575338453],[569505.92253602506,5447236.5871233437],[569526.8113467854,5447252.6854416849],[569530.92274215771,5447258.5959857795],[569547.86410928692,5447277.6531699672],[569566.81266072404,5447301.6444585836],[569576.80739634868,5447321.5640182272],[569578.89251114347,5447324.5986425178],[569592.95655114704,5447345.6787831113],[569611.92324206268,5447367.6118929312],[569617.81972607062,5447370.6944559542],[569628.82078551303,5447380.6510953614],[569645.88128956198,5447402.5597415846],[569648.86635476374,5447415.5827070838],[569645.8919142019,5447421.5623638285]]]},"properties":{"WATERBODY_POLY_ID":700091403,"WATERSHED_GROUP_ID":63,"WATERBODY_TYPE":"L","WATERBODY_KEY":329178149,"AREA_HA":0.83029976430464303,"GNIS_ID_1":null,"GNIS_NAME_1":null,"GNIS_ID_2":null,"GNIS_NAME_2":null,"GNIS_ID_3":null,"GNIS_NAME_3":null,"BLUE_LINE_KEY":356317491,"WATERSHED_KEY":356317491,"FWA_WATERSHED_CODE":"999-999999-999999-999999-999999-999999-999999-999999-999999-999999-999999-999999-999999-999999-999999-999999-999999-999999-999999-999999-999999","LOCAL_WATERSHED_CODE":null,"WATERSHED_GROUP_CODE":"HARR","LEFT_RIGHT_TRIBUTARY":"UNKNOWN","WATERBODY_KEY_50K":480,"WATERSHED_GROUP_CODE_50K":"HARR","WATERBODY_KEY_GROUP_CODE_50K":"00480HARR","WATERSHED_CODE_50K":"999999999999999999999999999999999999999999999","FEATURE_CODE":"GB15300000","OBJECTID":8799971,"GEOMETRY.AREA":0,"GEOMETRY.LEN":0,"FEATURE_AREA_SQM":8302.9976000000006,"FEATURE_LENGTH_M":581.97210000000007}},{"type":"Feature","id":9093172,"geometry":{"type":"Polygon","coordinates":[[[569566.8544549346,5447676.6165656541],[569574.85237245029,5447675.6083998317],[569591.90699289506,5447688.6497704191],[569607.91248481697,5447705.6370313996],[569616.94826237159,5447716.6775581921],[569635.89210704435,5447735.6016606875],[569647.92323739431,5447743.6705529504],[569669.82065811555,5447753.6070100181],[569692.88515255332,5447758.6479068277],[569706.87883138051,5447760.5667226147],[569715.82888769545,5447759.5713111926],[569730.95167084574,5447755.6456647301],[569745.87550294271,5447754.5672811382],[569762.82452468004,5447752.5646377616],[569785.88329165522,5447743.6720181443],[569794.87438880664,5447743.6273702299],[569798.92388719413,5447745.5790944714],[569797.81461311644,5447750.6324050603],[569781.80634719459,5447768.6394098289],[569768.94969525561,5447778.6117427386],[569759.88066013542,5447780.5558627499],[569746.92014937324,5447780.5504122116],[569734.91272416234,5447780.5566831743],[569710.85687602777,5447779.6194464359],[569696.90423520107,5447778.6514041144],[569672.94754172687,5447777.5566025907],[569648.83076355967,5447772.6605288526],[569644.86135460751,5447772.6104299277],[569633.9441073474,5447769.6215653736],[569613.85307590896,5447758.6010668427],[569605.94933518639,5447750.5834290395],[569600.864893605,5447741.652148881],[569592.95441102679,5447719.7000635397],[569580.83756812406,5447699.5952336099],[569567.88944366435,5447683.5971173802],[569565.92225924786,5447679.6128448872],[569566.8544549346,5447676.6165656541]]]},"properties":{"WATERBODY_POLY_ID":700091453,"WATERSHED_GROUP_ID":63,"WATERBODY_TYPE":"L","WATERBODY_KEY":329178191,"AREA_HA":0.611189866852478,"GNIS_ID_1":null,"GNIS_NAME_1":null,"GNIS_ID_2":null,"GNIS_NAME_2":null,"GNIS_ID_3":null,"GNIS_NAME_3":null,"BLUE_LINE_KEY":356261090,"WATERSHED_KEY":356261090,"FWA_WATERSHED_CODE":"100-069033-000000-000000-000000-000000-000000-000000-000000-000000-000000-000000-000000-000000-000000-000000-000000-000000-000000-000000-000000","LOCAL_WATERSHED_CODE":null,"WATERSHED_GROUP_CODE":"HARR","LEFT_RIGHT_TRIBUTARY":"RIGHT","WATERBODY_KEY_50K":null,"WATERSHED_GROUP_CODE_50K":null,"WATERBODY_KEY_GROUP_CODE_50K":null,"WATERSHED_CODE_50K":null,"FEATURE_CODE":"GB15300000","OBJECTID":9093172,"GEOMETRY.AREA":0,"GEOMETRY.LEN":0,"FEATURE_AREA_SQM":6111.8987000000006,"FEATURE_LENGTH_M":566.63490000000002}},{"type":"Feature","id":9093192,"geometry":{"type":"Polygon","coordinates":[[[569585.90594946139,5448022.6923085693],[569589.95359186933,5448019.5758676901],[569595.94721259468,5448018.7017662693],[569600.84989458811,5448019.5547422264],[569607.91673059762,5448021.5448052241],[569617.94070358819,5448024.6796102943],[569635.82486586773,5448028.5470543755],[569656.94425415399,5448032.6146491813],[569678.89771201764,5448037.6416629069],[569691.89830544707,5448038.5979441861],[569704.83974734112,5448040.6615891689],[569708.88925694721,5448042.6133129969],[569718.81436596264,5448044.638582496],[569740.92589989782,5448049.6687353775],[569758.90999005106,5448054.6466303775],[569780.92265771341,5448058.5672494546],[569790.84860558785,5448065.6597235575],[569789.95749729872,5448069.6077612033],[569782.91158870282,5448070.6267062118],[569764.80951340357,5448066.5974732349],[569741.84475407994,5448062.6650823746],[569727.95017541666,5448060.5887195207],[569715.90270901832,5448059.6451681294],[569697.83968709514,5448056.5667759348],[569674.87493615213,5448052.634365527],[569652.80345077021,5448048.5550072873],[569638.8097691267,5448046.6371808695],[569628.88566078665,5448044.6118580708],[569609.94849623926,5448039.6222079657],[569595.9348414609,5448034.6943392418],[569592.91755367198,5448034.6570047336],[569588.90809018759,5448033.6560881324],[569583.92460817052,5448029.6344536133],[569583.9036774647,5448026.6254617479],[569585.90594946139,5448022.6923085693]]]},"properties":{"WATERBODY_POLY_ID":700091582,"WATERSHED_GROUP_ID":63,"WATERBODY_TYPE":"L","WATERBODY_KEY":329178311,"AREA_HA":0.30537408860313398,"GNIS_ID_1":null,"GNIS_NAME_1":null,"GNIS_ID_2":null,"GNIS_NAME_2":null,"GNIS_ID_3":null,"GNIS_NAME_3":null,"BLUE_LINE_KEY":356122802,"WATERSHED_KEY":356122802,"FWA_WATERSHED_CODE":"999-999999-999999-999999-999999-999999-999999-999999-999999-999999-999999-999999-999999-999999-999999-999999-999999-999999-999999-999999-999999","LOCAL_WATERSHED_CODE":null,"WATERSHED_GROUP_CODE":"HARR","LEFT_RIGHT_TRIBUTARY":"UNKNOWN","WATERBODY_KEY_50K":null,"WATERSHED_GROUP_CODE_50K":null,"WATERBODY_KEY_GROUP_CODE_50K":null,"WATERSHED_CODE_50K":null,"FEATURE_CODE":"GB15300000","OBJECTID":9093192,"GEOMETRY.AREA":0,"GEOMETRY.LEN":0,"FEATURE_AREA_SQM":3053.7409000000002,"FEATURE_LENGTH_M":436.38280000000003}},{"type":"Feature","id":8800295,"geometry":{"type":"Polygon","coordinates":[[[569742.92526628601,5446988.5936505059],[569747.82194476598,5446980.579323574],[569768.8679763691,5446991.6135002989],[569783.91347879253,5446994.6535590049],[569797.88892762619,5446998.6305188043],[569811.86442126636,5447002.6084758444],[569824.82764862454,5447007.6810895428],[569844.91674286139,5447013.6353742974],[569850.85430055181,5447017.6697117407],[569849.80514657323,5447021.6146467263],[569831.90703713684,5447028.6727775345],[569823.94918602379,5447030.6308132699],[569819.90467572061,5447037.5464129858],[569816.8693182125,5447039.5672536772],[569797.93231927697,5447034.576622569],[569784.9099411465,5447030.6113854367],[569764.90093915677,5447026.5587359769],[569757.94932381145,5447018.552816079],[569744.88311833434,5447008.5705984831],[569739.93374150549,5446996.6314642057],[569739.8717590241,5446992.6716517424],[569742.92526628601,5446988.5936505059]]]},"properties":{"WATERBODY_POLY_ID":700091564,"WATERSHED_GROUP_ID":63,"WATERBODY_TYPE":"L","WATERBODY_KEY":329178294,"AREA_HA":0.31731724389883698,"GNIS_ID_1":null,"GNIS_NAME_1":null,"GNIS_ID_2":null,"GNIS_NAME_2":null,"GNIS_ID_3":null,"GNIS_NAME_3":null,"BLUE_LINE_KEY":356291466,"WATERSHED_KEY":356291466,"FWA_WATERSHED_CODE":"100-069460-000000-000000-000000-000000-000000-000000-000000-000000-000000-000000-000000-000000-000000-000000-000000-000000-000000-000000-000000","LOCAL_WATERSHED_CODE":null,"WATERSHED_GROUP_CODE":"HARR","LEFT_RIGHT_TRIBUTARY":"RIGHT","WATERBODY_KEY_50K":null,"WATERSHED_GROUP_CODE_50K":null,"WATERBODY_KEY_GROUP_CODE_50K":null,"WATERSHED_CODE_50K":null,"FEATURE_CODE":"GB15300000","OBJECTID":8800295,"GEOMETRY.AREA":0,"GEOMETRY.LEN":0,"FEATURE_AREA_SQM":3173.1723999999999,"FEATURE_LENGTH_M":265.65680000000003}},{"type":"Feature","id":9117467,"geometry":{"type":"Polygon","coordinates":[[[569922.92762684345,5447739.54818244],[569926.93312110635,5447731.681780247],[569932.8859527196,5447728.5897915848],[569938.91959799442,5447728.6664735368],[569949.83685629896,5447731.6552971518],[569957.85576798348,5447733.657096738],[569976.87303246441,5447740.5493058199],[569986.91713358322,5447741.626839336],[570002.89396771742,5447741.6706086248],[570023.93542887876,5447747.6385858562],[570034.93559281714,5447757.5951799266],[570043.85435796145,5447774.6525536571],[570041.85211374983,5447778.5857349224],[570033.85414277692,5447779.5929476302],[570014.91691473103,5447774.6013871497],[569999.95014158392,5447769.6608593296],[569979.92095396772,5447762.5982265258],[569968.88471587538,5447760.5581112951],[569957.92640836979,5447756.6185173672],[569939.92141922296,5447748.6316549964],[569933.88777246955,5447748.5549729187],[569923.8425507691,5447743.6772782002],[569922.92762684345,5447739.54818244]]]},"properties":{"WATERBODY_POLY_ID":700091595,"WATERSHED_GROUP_ID":63,"WATERBODY_TYPE":"L","WATERBODY_KEY":329178323,"AREA_HA":0.273780414446743,"GNIS_ID_1":null,"GNIS_NAME_1":null,"GNIS_ID_2":null,"GNIS_NAME_2":null,"GNIS_ID_3":null,"GNIS_NAME_3":null,"BLUE_LINE_KEY":356151507,"WATERSHED_KEY":356151507,"FWA_WATERSHED_CODE":"999-999999-999999-999999-999999-999999-999999-999999-999999-999999-999999-999999-999999-999999-999999-999999-999999-999999-999999-999999-999999","LOCAL_WATERSHED_CODE":null,"WATERSHED_GROUP_CODE":"HARR","LEFT_RIGHT_TRIBUTARY":"UNKNOWN","WATERBODY_KEY_50K":null,"WATERSHED_GROUP_CODE_50K":null,"WATERBODY_KEY_GROUP_CODE_50K":null,"WATERSHED_CODE_50K":null,"FEATURE_CODE":"GB15300000","OBJECTID":9117467,"GEOMETRY.AREA":0,"GEOMETRY.LEN":0,"FEATURE_AREA_SQM":2737.8041000000003,"FEATURE_LENGTH_M":276.7389}},{"type":"Feature","id":8799954,"geometry":{"type":"Polygon","coordinates":[[[570163.95796829381,5448627.6261466164],[570180.88243011769,5448608.6810458349],[570202.89052709483,5448598.6691449834],[570205.84701393859,5448598.5478368551],[570209.89543434384,5448596.6994102215],[570222.86952493642,5448575.6460473593],[570236.93563199649,5448556.6647186745],[570253.95921490807,5448537.5620283205],[570270.86458514992,5448520.676049944],[570287.86810301174,5448503.6325541539],[570300.82878219092,5448503.6389307994],[570301.93994483456,5448503.6538041029],[570304.83832437568,5448504.6408091914],[570304.91924469371,5448511.6086174818],[570305.93910772249,5448534.5827259962],[570294.90847049293,5448551.5442598052],[570275.86163834715,5448571.5701295678],[570257.82490796607,5448586.7002725415],[570239.90542254923,5448599.6147315195],[570220.93567901559,5448612.6749299336],[570200.81489210669,5448628.5705972807],[570182.89728495781,5448646.553171657],[570162.85811287141,5448670.6836365703],[570151.82742740423,5448687.6451144395],[570135.85608134302,5448706.6029070923],[570116.80717993435,5448726.6287748562],[570102.91913812538,5448743.5539835515],[570096.84626075812,5448747.5946727302],[570086.8838060142,5448749.6847373545],[570072.83107133151,5448747.6062787939],[570071.85798274481,5448744.5845464692],[570072.92825363483,5448738.5814435231],[570080.88245474279,5448722.6890299506],[570083.91891441273,5448720.6691852706],[570084.85106452298,5448717.671936932],[570097.80610640254,5448698.6767980522],[570113.93563131546,5448674.6539465087],[570132.80535676877,5448656.6831610855],[570154.81157770054,5448641.6031449419],[570163.95796829381,5448627.6261466164]]]},"properties":{"WATERBODY_POLY_ID":700091368,"WATERSHED_GROUP_ID":63,"WATERBODY_TYPE":"L","WATERBODY_KEY":329178117,"AREA_HA":1.0130147109500998,"GNIS_ID_1":30466,"GNIS_NAME_1":"Zaitscullachan Slough","GNIS_ID_2":null,"GNIS_NAME_2":null,"GNIS_ID_3":null,"GNIS_NAME_3":null,"BLUE_LINE_KEY":356264912,"WATERSHED_KEY":356264912,"FWA_WATERSHED_CODE":"100-070298-000000-000000-000000-000000-000000-000000-000000-000000-000000-000000-000000-000000-000000-000000-000000-000000-000000-000000-000000","LOCAL_WATERSHED_CODE":null,"WATERSHED_GROUP_CODE":"HARR","LEFT_RIGHT_TRIBUTARY":"RIGHT","WATERBODY_KEY_50K":null,"WATERSHED_GROUP_CODE_50K":null,"WATERBODY_KEY_GROUP_CODE_50K":null,"WATERSHED_CODE_50K":null,"FEATURE_CODE":"GB15300000","OBJECTID":8799954,"GEOMETRY.AREA":0,"GEOMETRY.LEN":0,"FEATURE_AREA_SQM":10130.1471,"FEATURE_LENGTH_M":706.54820000000007}},{"type":"Feature","id":8800631,"geometry":{"type":"Polygon","coordinates":[[[570107.95923196431,5447246.5780058894],[570114.82409756049,5447242.5479168762],[570119.82067866076,5447235.6440780116],[570124.92030576861,5447233.6508213421],[570128.9307387548,5447234.6516714813],[570149.92918076087,5447234.6016281918],[570171.83969896671,5447233.6135166567],[570174.89705314906,5447234.6026470922],[570196.8836323726,5447226.6478121448],[570203.90941862087,5447227.6880513672],[570206.84875759401,5447229.6248483891],[570205.87658426538,5447231.671332798],[570201.88910155813,5447233.6794242356],[570193.8160780943,5447241.6523411693],[570190.83882299496,5447242.5648573078],[570184.94899333967,5447249.6156512834],[570181.87254412868,5447250.6847221032],[570158.9090223409,5447250.5506280567],[570155.85270870011,5447249.5624535745],[570137.8924782112,5447252.6588304052],[570125.88512293505,5447252.6651742952],[570108.93326438905,5447249.5987473261],[570107.95923196431,5447246.5780058894]]]},"properties":{"WATERBODY_POLY_ID":700091702,"WATERSHED_GROUP_ID":63,"WATERBODY_TYPE":"L","WATERBODY_KEY":329178417,"AREA_HA":0.14534612295205199,"GNIS_ID_1":null,"GNIS_NAME_1":null,"GNIS_ID_2":null,"GNIS_NAME_2":null,"GNIS_ID_3":null,"GNIS_NAME_3":null,"BLUE_LINE_KEY":356348966,"WATERSHED_KEY":356348966,"FWA_WATERSHED_CODE":"100-069460-715142-000000-000000-000000-000000-000000-000000-000000-000000-000000-000000-000000-000000-000000-000000-000000-000000-000000-000000","LOCAL_WATERSHED_CODE":null,"WATERSHED_GROUP_CODE":"HARR","LEFT_RIGHT_TRIBUTARY":"RIGHT","WATERBODY_KEY_50K":null,"WATERSHED_GROUP_CODE_50K":null,"WATERBODY_KEY_GROUP_CODE_50K":null,"WATERSHED_CODE_50K":null,"FEATURE_CODE":"GB15300000","OBJECTID":8800631,"GEOMETRY.AREA":0,"GEOMETRY.LEN":0,"FEATURE_AREA_SQM":1453.4612,"FEATURE_LENGTH_M":216.917}},{"type":"Feature","id":8799961,"geometry":{"type":"Polygon","coordinates":[[[566291.94678538817,5445872.625045944],[566292.89522103325,5445867.5696650669],[566301.89537686401,5445856.5929877628],[566310.90119423671,5445850.6844098251],[566334.84921466024,5445841.6298209988],[566354.89447287424,5445841.5539600374],[566377.89868479292,5445842.621887112],[566397.94494216074,5445842.5459716581],[566416.93903047661,5445842.6168409605],[566429.89878023136,5445842.6138102477],[566445.8757214169,5445842.6482244404],[566454.8491182049,5445844.656072041],[566461.89362479537,5445843.6324267937],[566483.84500230744,5445843.5800544834],[566503.83211559115,5445844.6124979891],[566522.95182224212,5445852.6019492839],[566526.84398293484,5445854.5486603417],[566529.86477090628,5445859.6522947941],[566523.87611464062,5445865.5973443314],[566501.85699398885,5445877.6834816197],[566477.82629470516,5445883.5694803912],[566460.87914124003,5445885.5824439982],[566446.92532137292,5445884.6229267707],[566425.8271240571,5445883.5765429717],[566406.83670035005,5445888.573861802],[566382.88504135318,5445892.5612803819],[566361.8457081716,5445891.674593729],[566340.90557471116,5445890.6313494053],[566317.86134556972,5445888.6125761354],[566294.90869501338,5445877.5689715883],[566291.94678538817,5445872.625045944]]]},"properties":{"WATERBODY_POLY_ID":700091379,"WATERSHED_GROUP_ID":63,"WATERBODY_TYPE":"L","WATERBODY_KEY":329178129,"AREA_HA":0.93741872405138105,"GNIS_ID_1":null,"GNIS_NAME_1":null,"GNIS_ID_2":null,"GNIS_NAME_2":null,"GNIS_ID_3":null,"GNIS_NAME_3":null,"BLUE_LINE_KEY":356355311,"WATERSHED_KEY":356355311,"FWA_WATERSHED_CODE":"100-065735-000000-000000-000000-000000-000000-000000-000000-000000-000000-000000-000000-000000-000000-000000-000000-000000-000000-000000-000000","LOCAL_WATERSHED_CODE":null,"WATERSHED_GROUP_CODE":"HARR","LEFT_RIGHT_TRIBUTARY":"RIGHT","WATERBODY_KEY_50K":null,"WATERSHED_GROUP_CODE_50K":null,"WATERBODY_KEY_GROUP_CODE_50K":null,"WATERSHED_CODE_50K":null,"FEATURE_CODE":"GB15300140","OBJECTID":8799961,"GEOMETRY.AREA":0,"GEOMETRY.LEN":0,"FEATURE_AREA_SQM":9374.1872000000003,"FEATURE_LENGTH_M":507.43360000000001}},{"type":"Feature","id":8799952,"geometry":{"type":"Polygon","coordinates":[[[564054.84403390624,5446451.5708638458],[564046.83576914656,5446438.6521660741],[564040.8726807083,5446426.5483285384],[564025.88913657761,5446402.6233641086],[564025.82643081562,5446398.6636019358],[564029.83305904851,5446394.5936298911],[564035.92542708979,5446393.5553907631],[564042.95160916157,5446394.5871413434],[564047.89200758329,5446392.5861585224],[564048.9013558497,5446387.6884871628],[564047.9038801454,5446381.6597766941],[564046.82201025309,5446368.6633206736],[564038.85468694905,5446356.6943931617],[564034.84462262015,5446355.6982301688],[564019.91183523519,5446346.6573991738],[564000.94825730333,5446333.6113743531],[563977.95090069366,5446316.5602811361],[563960.85143897135,5446302.5860891975],[563954.85191443516,5446294.5995421428],[563954.90725294373,5446289.6911167856],[563958.89115324197,5446282.6122019887],[563964.80281182157,5446278.5638567219],[563971.82893945742,5446279.594613987],[563987.83276561578,5446287.6975935819],[564011.8995876516,5446302.5448201951],[564033.90295630007,5446318.6343312701],[564046.90697971091,5446324.644638258],[564063.8884223809,5446339.5674680956],[564081.92272384348,5446355.6115818722],[564103.89152655739,5446379.6185126277],[564121.86947505083,5446400.5700754477],[564124.93454033765,5446411.6906696204],[564123.94046221324,5446435.588746855],[564119.85677338473,5446441.5581610408],[564108.8047570989,5446446.6555886539],[564097.90922613093,5446446.6869634306],[564077.92150079971,5446445.6639245739],[564073.85953954491,5446454.6423134068],[564070.82521652535,5446456.6658797683],[564061.93292861932,5446456.5623724777],[564054.84403390624,5446451.5708638458]]]},"properties":{"WATERBODY_POLY_ID":700091365,"WATERSHED_GROUP_ID":63,"WATERBODY_TYPE":"L","WATERBODY_KEY":329178114,"AREA_HA":1.03731593664866,"GNIS_ID_1":null,"GNIS_NAME_1":null,"GNIS_ID_2":null,"GNIS_NAME_2":null,"GNIS_ID_3":null,"GNIS_NAME_3":null,"BLUE_LINE_KEY":356108673,"WATERSHED_KEY":356108673,"FWA_WATERSHED_CODE":"999-999999-999999-999999-999999-999999-999999-999999-999999-999999-999999-999999-999999-999999-999999-999999-999999-999999-999999-999999-999999","LOCAL_WATERSHED_CODE":null,"WATERSHED_GROUP_CODE":"HARR","LEFT_RIGHT_TRIBUTARY":"UNKNOWN","WATERBODY_KEY_50K":493,"WATERSHED_GROUP_CODE_50K":"HARR","WATERBODY_KEY_GROUP_CODE_50K":"00493HARR","WATERSHED_CODE_50K":"999999999999999999999999999999999999999999999","FEATURE_CODE":"GB15300000","OBJECTID":8799952,"GEOMETRY.AREA":0,"GEOMETRY.LEN":0,"FEATURE_AREA_SQM":10373.1594,"FEATURE_LENGTH_M":568.1114}},{"type":"Feature","id":8799019,"geometry":{"type":"Polygon","coordinates":[[[567354.83671398915,5446433.6906125639],[567351.81953962904,5446433.6541980468],[567343.8181883241,5446429.597998892],[567340.87895685621,5446427.6610877998],[567335.81010641856,5446416.6735250596],[567335.94258952455,5446408.5995269408],[567341.88757764956,5446396.6374571389],[567345.85681828298,5446396.6856662016],[567348.95502341806,5446398.6236958373],[567354.95881823392,5446411.68217823],[567359.91335543257,5446428.6855710354],[567358.82412172412,5446431.6806544876],[567354.83671398915,5446433.6906125639]]]},"properties":{"WATERBODY_POLY_ID":700091801,"WATERSHED_GROUP_ID":63,"WATERBODY_TYPE":"L","WATERBODY_KEY":329178511,"AREA_HA":0.058710757802503996,"GNIS_ID_1":null,"GNIS_NAME_1":null,"GNIS_ID_2":null,"GNIS_NAME_2":null,"GNIS_ID_3":null,"GNIS_NAME_3":null,"BLUE_LINE_KEY":356206696,"WATERSHED_KEY":356206696,"FWA_WATERSHED_CODE":"999-999999-999999-999999-999999-999999-999999-999999-999999-999999-999999-999999-999999-999999-999999-999999-999999-999999-999999-999999-999999","LOCAL_WATERSHED_CODE":null,"WATERSHED_GROUP_CODE":"HARR","LEFT_RIGHT_TRIBUTARY":"UNKNOWN","WATERBODY_KEY_50K":null,"WATERSHED_GROUP_CODE_50K":null,"WATERBODY_KEY_GROUP_CODE_50K":null,"WATERSHED_CODE_50K":null,"FEATURE_CODE":"GB15300000","OBJECTID":8799019,"GEOMETRY.AREA":0,"GEOMETRY.LEN":0,"FEATURE_AREA_SQM":587.10760000000005,"FEATURE_LENGTH_M":96.400300000000001}},{"type":"Feature","id":9068998,"geometry":{"type":"Polygon","coordinates":[[[564908.80409019697,5446853.6136648124],[564911.81769184454,5446848.582062914],[564921.95738050155,5446845.692623741],[564940.92610341706,5446837.6818085136],[564961.85908576683,5446828.5852243314],[564982.89290973963,5446820.5990816792],[565003.92573251028,5446812.6129751485],[565024.95855175552,5446804.6268614912],[565047.9374042321,5446797.6131234486],[565060.83543604461,5446793.6485537114],[565071.86832219502,5446790.6112004919],[565095.91826398915,5446782.6605694583],[565118.93714052159,5446776.5986285526],[565128.88074875541,5446776.557292222],[565134.93578607065,5446779.6373143448],[565138.83049745997,5446786.6512393467],[565137.90019797429,5446789.6483883467],[565131.86947816168,5446794.6445013657],[565124.90491101972,5446797.5706421779],[565104.94315323955,5446804.618909305],[565081.94607831235,5446813.6908125579],[565068.94823773962,5446816.5458921017],[565056.90306931059,5446820.6788329883],[565037.85631836636,5446830.58915768],[565016.80526798102,5446840.6334189903],[564992.9360854351,5446851.5951073151],[564968.88611639955,5446859.5456951084],[564946.82027698215,5446865.6193615375],[564933.85952528217,5446865.6251609316],[564909.88156685757,5446861.5429813405],[564908.80409019697,5446853.6136648124]]]},"properties":{"WATERBODY_POLY_ID":700091447,"WATERSHED_GROUP_ID":63,"WATERBODY_TYPE":"L","WATERBODY_KEY":329178186,"AREA_HA":0.62399150774886991,"GNIS_ID_1":null,"GNIS_NAME_1":null,"GNIS_ID_2":null,"GNIS_NAME_2":null,"GNIS_ID_3":null,"GNIS_NAME_3":null,"BLUE_LINE_KEY":356213813,"WATERSHED_KEY":356213813,"FWA_WATERSHED_CODE":"999-999999-999999-999999-999999-999999-999999-999999-999999-999999-999999-999999-999999-999999-999999-999999-999999-999999-999999-999999-999999","LOCAL_WATERSHED_CODE":null,"WATERSHED_GROUP_CODE":"HARR","LEFT_RIGHT_TRIBUTARY":"UNKNOWN","WATERBODY_KEY_50K":487,"WATERSHED_GROUP_CODE_50K":"HARR","WATERBODY_KEY_GROUP_CODE_50K":"00487HARR","WATERSHED_CODE_50K":"999999999999999999999999999999999999999999999","FEATURE_CODE":"GB15300000","OBJECTID":9068998,"GEOMETRY.AREA":0,"GEOMETRY.LEN":0,"FEATURE_AREA_SQM":6239.9151000000002,"FEATURE_LENGTH_M":505.73390000000001}},{"type":"Feature","id":8798846,"geometry":{"type":"Polygon","coordinates":[[[564404.82476616418,5447285.6944983006],[564388.86613605579,5447283.6084841266],[564386.93929462857,5447280.5769130141],[564378.86867845186,5447258.6313818116],[564381.95438608585,5447241.5661536669],[564384.88807001954,5447234.6329706265],[564387.88347587781,5447231.6595544014],[564390.9005788276,5447231.6940895589],[564395.82469016092,5447235.5523429932],[564404.86471315601,5447251.6504369173],[564410.84951837722,5447270.5632727137],[564410.87376124423,5447278.6393498648],[564408.81218612264,5447283.6827311926],[564404.82476616418,5447285.6944983006]]]},"properties":{"WATERBODY_POLY_ID":700091740,"WATERSHED_GROUP_ID":63,"WATERBODY_TYPE":"L","WATERBODY_KEY":329178452,"AREA_HA":0.118822355998335,"GNIS_ID_1":null,"GNIS_NAME_1":null,"GNIS_ID_2":null,"GNIS_NAME_2":null,"GNIS_ID_3":null,"GNIS_NAME_3":null,"BLUE_LINE_KEY":356188985,"WATERSHED_KEY":356188985,"FWA_WATERSHED_CODE":"999-999999-999999-999999-999999-999999-999999-999999-999999-999999-999999-999999-999999-999999-999999-999999-999999-999999-999999-999999-999999","LOCAL_WATERSHED_CODE":null,"WATERSHED_GROUP_CODE":"HARR","LEFT_RIGHT_TRIBUTARY":"UNKNOWN","WATERBODY_KEY_50K":483,"WATERSHED_GROUP_CODE_50K":"HARR","WATERBODY_KEY_GROUP_CODE_50K":"00483HARR","WATERSHED_CODE_50K":"999999999999999999999999999999999999999999999","FEATURE_CODE":"GB15300000","OBJECTID":8798846,"GEOMETRY.AREA":0,"GEOMETRY.LEN":0,"FEATURE_AREA_SQM":1188.2236,"FEATURE_LENGTH_M":137.7141}},{"type":"Feature","id":9069022,"geometry":{"type":"Polygon","coordinates":[[[566492.83606290084,5447321.5444348287],[566472.8330306469,5447327.6372380117],[566469.81682548497,5447327.6007412262],[566462.90576641553,5447320.5504129352],[566443.844925471,5447307.6524807056],[566438.88260925002,5447306.6426376039],[566431.83435069013,5447302.5991442483],[566407.85125367867,5447289.6431752369],[566406.85554856528,5447283.6134492401],[566408.85789834091,5447279.6793633373],[566414.91044797678,5447277.6931330813],[566431.96071766445,5447280.5908081606],[566452.92202708917,5447284.6430645296],[566473.80437606492,5447290.5958307954],[566483.90980130003,5447295.6255920259],[566487.94090362545,5447299.6336283181],[566492.86880382139,5447308.5598590346],[566494.87837347854,5447318.5601658328],[566492.83606290084,5447321.5444348287]]]},"properties":{"WATERBODY_POLY_ID":700091642,"WATERSHED_GROUP_ID":63,"WATERBODY_TYPE":"L","WATERBODY_KEY":329178363,"AREA_HA":0.219056418497065,"GNIS_ID_1":null,"GNIS_NAME_1":null,"GNIS_ID_2":null,"GNIS_NAME_2":null,"GNIS_ID_3":null,"GNIS_NAME_3":null,"BLUE_LINE_KEY":356144442,"WATERSHED_KEY":356144442,"FWA_WATERSHED_CODE":"999-999999-999999-999999-999999-999999-999999-999999-999999-999999-999999-999999-999999-999999-999999-999999-999999-999999-999999-999999-999999","LOCAL_WATERSHED_CODE":null,"WATERSHED_GROUP_CODE":"HARR","LEFT_RIGHT_TRIBUTARY":"UNKNOWN","WATERBODY_KEY_50K":null,"WATERSHED_GROUP_CODE_50K":null,"WATERBODY_KEY_GROUP_CODE_50K":null,"WATERSHED_CODE_50K":null,"FEATURE_CODE":"GB15300000","OBJECTID":9069022,"GEOMETRY.AREA":0,"GEOMETRY.LEN":0,"FEATURE_AREA_SQM":2190.5642000000003,"FEATURE_LENGTH_M":215.67780000000002}},{"type":"Feature","id":8800611,"geometry":{"type":"Polygon","coordinates":[[[564809.89206046669,5447394.62910516],[564813.88047606987,5447392.6172758164],[564816.93761715922,5447393.6036095787],[564820.86681631638,5447392.6991410451],[564836.88379297883,5447393.6797487903],[564849.84458325733,5447393.6729778741],[564871.93581444828,5447395.6744285002],[564875.80777072837,5447399.6794108078],[564876.80873268365,5447414.5753044086],[564869.92472272646,5447420.6700507784],[564856.86661009816,5447424.6334624887],[564835.90917742648,5447425.6538610226],[564828.86109114252,5447421.6122359103],[564809.92075085209,5447411.5723900646],[564807.89472978364,5447408.6983777676],[564807.91043594247,5447401.573122696],[564809.89206046669,5447394.62910516]]]},"properties":{"WATERBODY_POLY_ID":700091674,"WATERSHED_GROUP_ID":63,"WATERBODY_TYPE":"L","WATERBODY_KEY":329178391,"AREA_HA":0.18343508724884799,"GNIS_ID_1":null,"GNIS_NAME_1":null,"GNIS_ID_2":null,"GNIS_NAME_2":null,"GNIS_ID_3":null,"GNIS_NAME_3":null,"BLUE_LINE_KEY":356066027,"WATERSHED_KEY":356066027,"FWA_WATERSHED_CODE":"999-999999-999999-999999-999999-999999-999999-999999-999999-999999-999999-999999-999999-999999-999999-999999-999999-999999-999999-999999-999999","LOCAL_WATERSHED_CODE":null,"WATERSHED_GROUP_CODE":"HARR","LEFT_RIGHT_TRIBUTARY":"UNKNOWN","WATERBODY_KEY_50K":481,"WATERSHED_GROUP_CODE_50K":"HARR","WATERBODY_KEY_GROUP_CODE_50K":"00481HARR","WATERSHED_CODE_50K":"999999999999999999999999999999999999999999999","FEATURE_CODE":"GB15300000","OBJECTID":8800611,"GEOMETRY.AREA":0,"GEOMETRY.LEN":0,"FEATURE_AREA_SQM":1834.3509000000001,"FEATURE_LENGTH_M":174.79260000000002}},{"type":"Feature","id":8800441,"geometry":{"type":"Polygon","coordinates":[[[564969.87024272047,5447483.6009507431],[564978.82091456722,5447482.5980500421],[564998.80810371879,5447483.6249209605],[565004.92140098289,5447485.5976162851],[565023.8800565087,5447493.5802796157],[565045.89582188718,5447502.5482625663],[565048.93374706258,5447505.5927608116],[565050.84139564284,5447510.6824851576],[565049.83204248769,5447515.5791092981],[565045.90533511783,5447521.5497056535],[565039.95263789478,5447524.6472973749],[565025.84069437603,5447523.6883363659],[565011.8087731112,5447524.6319995234],[564997.85589286371,5447523.676156221],[564976.87309501413,5447516.6195714688],[564969.80422986869,5447509.5689744949],[564966.91990406078,5447497.6594333556],[564967.88862840727,5447490.5449664816],[564969.87024272047,5447483.6009507431]]]},"properties":{"WATERBODY_POLY_ID":700091610,"WATERSHED_GROUP_ID":63,"WATERBODY_TYPE":"L","WATERBODY_KEY":329178335,"AREA_HA":0.25946237524605698,"GNIS_ID_1":null,"GNIS_NAME_1":null,"GNIS_ID_2":null,"GNIS_NAME_2":null,"GNIS_ID_3":null,"GNIS_NAME_3":null,"BLUE_LINE_KEY":356042942,"WATERSHED_KEY":356042942,"FWA_WATERSHED_CODE":"999-999999-999999-999999-999999-999999-999999-999999-999999-999999-999999-999999-999999-999999-999999-999999-999999-999999-999999-999999-999999","LOCAL_WATERSHED_CODE":null,"WATERSHED_GROUP_CODE":"HARR","LEFT_RIGHT_TRIBUTARY":"UNKNOWN","WATERBODY_KEY_50K":null,"WATERSHED_GROUP_CODE_50K":null,"WATERBODY_KEY_GROUP_CODE_50K":null,"WATERSHED_CODE_50K":null,"FEATURE_CODE":"GB15300140","OBJECTID":8800441,"GEOMETRY.AREA":0,"GEOMETRY.LEN":0,"FEATURE_AREA_SQM":2594.6238000000003,"FEATURE_LENGTH_M":209.52120000000002}},{"type":"Feature","id":9069000,"geometry":{"type":"Polygon","coordinates":[[[564993.88899577048,5447647.614920944],[564989.83628505212,5447640.599891617],[564989.93355451187,5447636.6422632318],[564992.81092433596,5447634.6174828298],[564996.83933777304,5447633.5564631093],[565019.93746102438,5447625.5941484813],[565036.80328558991,5447616.6088240473],[565049.86146751267,5447612.6463939156],[565066.88626307307,5447603.6621838436],[565081.86777824443,5447597.6642243415],[565103.85228846176,5447584.6218170477],[565123.93426921265,5447576.6249108845],[565147.8046999987,5447565.6642628489],[565167.86490505957,5447554.6583988229],[565188.9156234106,5447539.5480027962],[565195.92120049114,5447537.5716618523],[565213.9431795025,5447539.6852790415],[565223.81139401312,5447546.6105228979],[565220.91581037547,5447550.6934457133],[565204.84402870119,5447559.6874795267],[565181.82583255868,5447569.5494880984],[565161.88365587301,5447579.6067064954],[565151.8244647237,5447585.6637945017],[565129.93907721934,5447598.5476703756],[565116.80350573757,5447605.6766031347],[565100.90640567115,5447607.5474880338],[565088.86111824261,5447611.68037776],[565083.94142836682,5447616.6903749276],[565081.9198290651,5447622.6835708367],[565074.81947536173,5447633.6836388512],[565057.87560797005,5447644.568427939],[565033.8051807892,5447654.5771405119],[565013.81790561962,5447653.5492750928],[564993.88899577048,5447647.614920944]]]},"properties":{"WATERBODY_POLY_ID":700091465,"WATERSHED_GROUP_ID":63,"WATERBODY_TYPE":"L","WATERBODY_KEY":329178203,"AREA_HA":0.58086916770633001,"GNIS_ID_1":null,"GNIS_NAME_1":null,"GNIS_ID_2":null,"GNIS_NAME_2":null,"GNIS_ID_3":null,"GNIS_NAME_3":null,"BLUE_LINE_KEY":356268664,"WATERSHED_KEY":356268664,"FWA_WATERSHED_CODE":"999-999999-999999-999999-999999-999999-999999-999999-999999-999999-999999-999999-999999-999999-999999-999999-999999-999999-999999-999999-999999","LOCAL_WATERSHED_CODE":null,"WATERSHED_GROUP_CODE":"HARR","LEFT_RIGHT_TRIBUTARY":"UNKNOWN","WATERBODY_KEY_50K":474,"WATERSHED_GROUP_CODE_50K":"HARR","WATERBODY_KEY_GROUP_CODE_50K":"00474HARR","WATERSHED_CODE_50K":"999999999999999999999999999999999999999999999","FEATURE_CODE":"GB15300140","OBJECTID":9069000,"GEOMETRY.AREA":0,"GEOMETRY.LEN":0,"FEATURE_AREA_SQM":5808.6917000000003,"FEATURE_LENGTH_M":537.60590000000002}},{"type":"Feature","id":8800291,"geometry":{"type":"Polygon","coordinates":[[[564345.81333455222,5447740.5682427231],[564340.83187791146,5447741.6184344394],[564322.88813243085,5447737.6091610268],[564298.81089932716,5447733.6863467023],[564274.89019797475,5447724.6985514481],[564270.8212039927,5447723.5426951246],[564257.89704713633,5447715.6339555895],[564245.82509002916,5447706.6255685883],[564227.83889102191,5447696.5983630056],[564223.94531078322,5447689.5864308728],[564228.80582703045,5447685.6838568756],[564247.84087021346,5447686.697091721],[564269.9320594524,5447688.6967177186],[564290.83309524902,5447692.5818757135],[564300.9372743275,5447697.6089311503],[564320.86953105091,5447708.608512993],[564341.88961389102,5447711.5449711559],[564346.8325849456,5447714.6111110654],[564348.92779996758,5447736.6461633435],[564345.81333455222,5447740.5682427231]]]},"properties":{"WATERBODY_POLY_ID":700091552,"WATERSHED_GROUP_ID":63,"WATERBODY_TYPE":"L","WATERBODY_KEY":329178281,"AREA_HA":0.35304388250782104,"GNIS_ID_1":null,"GNIS_NAME_1":null,"GNIS_ID_2":null,"GNIS_NAME_2":null,"GNIS_ID_3":null,"GNIS_NAME_3":null,"BLUE_LINE_KEY":356119423,"WATERSHED_KEY":356119423,"FWA_WATERSHED_CODE":"999-999999-999999-999999-999999-999999-999999-999999-999999-999999-999999-999999-999999-999999-999999-999999-999999-999999-999999-999999-999999","LOCAL_WATERSHED_CODE":null,"WATERSHED_GROUP_CODE":"HARR","LEFT_RIGHT_TRIBUTARY":"UNKNOWN","WATERBODY_KEY_50K":null,"WATERSHED_GROUP_CODE_50K":null,"WATERBODY_KEY_GROUP_CODE_50K":null,"WATERSHED_CODE_50K":null,"FEATURE_CODE":"GB15300000","OBJECTID":8800291,"GEOMETRY.AREA":0,"GEOMETRY.LEN":0,"FEATURE_AREA_SQM":3530.4388000000004,"FEATURE_LENGTH_M":293.73220000000003}},{"type":"Feature","id":8799783,"geometry":{"type":"Polygon","coordinates":[[[565776.93889254541,5447705.6647882974],[565791.95433255692,5447686.6841498595],[565815.82068530691,5447665.5920267645],[565833.80122221482,5447661.6895295056],[565846.8204084615,5447660.5782787623],[565870.83526062255,5447660.54790527],[565884.90734185046,5447660.557900995],[565897.80912118626,5447661.6613191804],[565909.85706826206,5447662.5974165983],[565933.83456011943,5447666.6843268843],[565945.90326426516,5447670.6284052478],[565969.92175952892,5447675.6660740711],[565984.80870348634,5447678.6946870312],[566006.94024861651,5447681.6506313551],[566028.89366281219,5447686.6646212423],[566041.89465256233,5447687.6114680544],[566065.87220600015,5447691.6993376864],[566086.93170665985,5447695.5931821018],[566104.91583639767,5447700.5588682313],[566119.88180852286,5447701.6879509352],[566129.86563161656,5447702.5993137639],[566148.91825838014,5447701.5609932728],[566170.90813803545,5447698.6585093606],[566191.84507368552,5447694.6337702386],[566214.82799002633,5447692.6928535728],[566228.94008735404,5447693.6536000744],[566232.81213031476,5447697.658510996],[566235.83295144723,5447706.5632232698],[566235.89633271564,5447715.58913875],[566234.80608347943,5447718.5851937588],[566231.81067385606,5447721.5576715516],[566217.84556568507,5447736.5915353382],[566194.94426043832,5447741.7000602623],[566171.92492630158,5447751.5583972856],[566164.8818624916,5447757.6491240645],[566161.8464896793,5447759.6717848349],[566141.88077212917,5447761.6491498062],[566130.88504157378,5447760.5673081446],[566106.92732238281,5447755.688315074],[566083.86182684137,5447750.6614584029],[566059.80429534696,5447744.6729702102],[566047.85549051547,5447743.5793478498],[566035.9447483971,5447739.6364512099],[566013.83234285808,5447734.6213431926],[565998.92622984317,5447733.6519080382],[565987.86870930239,5447728.6102932207],[565973.93483491591,5447725.5934515027],[565965.85357729765,5447719.6385389799],[565945.82711553655,5447717.6570578394],[565938.91867102275,5447715.6738313241],[565916.8063240276,5447710.6596954912],[565904.85757166205,5447709.5670512067],[565891.83837724035,5447710.6783101084],[565871.85192080506,5447709.6476223776],[565867.92266853363,5447710.551140856],[565850.9523861499,5447709.5559702059],[565837.9332351489,5447710.6682196315],[565824.89417867607,5447712.5706107523],[565804.90935546171,5447716.6080610519],[565782.93683476583,5447713.6541810343],[565776.8016624765,5447708.6716075465],[565776.93889254541,5447705.6647882974]]]},"properties":{"WATERBODY_POLY_ID":700091250,"WATERSHED_GROUP_ID":63,"WATERBODY_TYPE":"L","WATERBODY_KEY":329178017,"AREA_HA":2.2429155788473198,"GNIS_ID_1":null,"GNIS_NAME_1":null,"GNIS_ID_2":null,"GNIS_NAME_2":null,"GNIS_ID_3":null,"GNIS_NAME_3":null,"BLUE_LINE_KEY":356363481,"WATERSHED_KEY":356363481,"FWA_WATERSHED_CODE":"100-067883-000000-000000-000000-000000-000000-000000-000000-000000-000000-000000-000000-000000-000000-000000-000000-000000-000000-000000-000000","LOCAL_WATERSHED_CODE":null,"WATERSHED_GROUP_CODE":"HARR","LEFT_RIGHT_TRIBUTARY":"RIGHT","WATERBODY_KEY_50K":471,"WATERSHED_GROUP_CODE_50K":"HARR","WATERBODY_KEY_GROUP_CODE_50K":"00471HARR","WATERSHED_CODE_50K":"999999999999999999999999999999999999999999999","FEATURE_CODE":"GB15300000","OBJECTID":8799783,"GEOMETRY.AREA":0,"GEOMETRY.LEN":0,"FEATURE_AREA_SQM":22429.1558,"FEATURE_LENGTH_M":987.40650000000005}},{"type":"Feature","id":8799798,"geometry":{"type":"Polygon","coordinates":[[[566297.86794162635,5447817.6765317433],[566308.91403720563,5447798.6485314025],[566313.89557283383,5447797.6002093712],[566319.8109957244,5447798.6218245383],[566343.82599125872,5447798.5933087347],[566366.82975199982,5447799.6613364434],[566379.87086123787,5447801.5609393483],[566392.81172933988,5447803.6161316326],[566400.87130467966,5447806.5640582033],[566424.92893413093,5447812.5534411948],[566440.80905858136,5447816.5455430523],[566464.92655749142,5447822.6945816623],[566487.95315101312,5447830.5726406248],[566499.94198852323,5447832.6170077808],[566505.89742433489,5447834.5894205282],[566524.91179887962,5447837.6693547061],[566545.95326937782,5447843.6232026964],[566555.95798399497,5447847.5444944231],[566579.91652738152,5447853.6923770607],[566592.93846822472,5447857.6501157302],[566605.84135472879,5447862.5555440094],[566624.91757044033,5447869.5952044306],[566643.83576722385,5447876.6326969778],[566667.87434529571,5447884.6821747338],[566685.91948573734,5447893.6095172176],[566697.85116063501,5447900.562294961],[566718.87516801502,5447913.6424169792],[566739.95837416383,5447925.6151729757],[566763.9398025499,5447938.573058662],[566785.81877472263,5447955.6235908493],[566785.88056721259,5447959.5823382726],[566786.87530640129,5447965.6120581841],[566785.94305194297,5447968.6092773052],[566781.8365441435,5447971.5678458204],[566760.83598111791,5447966.5638317298],[566748.80706082878,5447963.5676946053],[566725.81867672445,5447951.5713793803],[566708.88462386804,5447942.6579743493],[566686.84833697323,5447930.6734507317],[566670.94834668795,5447923.6723764781],[566646.88793615706,5447912.613964254],[566633.92517618649,5447907.5488765957],[566609.82744601136,5447900.6077489043],[566595.81340602133,5447895.687397101],[566571.91471142299,5447889.6991884233],[566549.82290637144,5447887.6902151061],[566529.87003466371,5447873.6731631961],[566519.80812799605,5447874.6603098568],[566497.91539976036,5447873.6052529635],[566483.80421743856,5447872.6435099551],[566460.93759366055,5447868.5676971469],[566442.93511870364,5447865.6582235917],[566428.88213750406,5447863.5891547939],[566413.95508591051,5447859.6088164132],[566405.95474397345,5447855.5545328427],[566397.87597291265,5447854.6647783266],[566387.81149150641,5447850.5857988819],[566366.86823784059,5447840.6742365099],[566353.90551152173,5447835.6091013933],[566332.86410611693,5447829.656202375],[566318.93015197362,5447826.6384227937],[566303.84413764754,5447822.6569423405],[566299.89402808016,5447820.5504993731],[566297.86794162635,5447817.6765317433]]]},"properties":{"WATERBODY_POLY_ID":700091286,"WATERSHED_GROUP_ID":63,"WATERBODY_TYPE":"L","WATERBODY_KEY":329178049,"AREA_HA":1.8381897072971098,"GNIS_ID_1":null,"GNIS_NAME_1":null,"GNIS_ID_2":null,"GNIS_NAME_2":null,"GNIS_ID_3":null,"GNIS_NAME_3":null,"BLUE_LINE_KEY":356361323,"WATERSHED_KEY":356361323,"FWA_WATERSHED_CODE":"100-067883-571091-000000-000000-000000-000000-000000-000000-000000-000000-000000-000000-000000-000000-000000-000000-000000-000000-000000-000000","LOCAL_WATERSHED_CODE":null,"WATERSHED_GROUP_CODE":"HARR","LEFT_RIGHT_TRIBUTARY":"LEFT","WATERBODY_KEY_50K":475,"WATERSHED_GROUP_CODE_50K":"HARR","WATERBODY_KEY_GROUP_CODE_50K":"00475HARR","WATERSHED_CODE_50K":"999999999999999999999999999999999999999999999","FEATURE_CODE":"GB15300000","OBJECTID":8799798,"GEOMETRY.AREA":0,"GEOMETRY.LEN":0,"FEATURE_AREA_SQM":18381.897100000002,"FEATURE_LENGTH_M":1066.2057}},{"type":"Feature","id":8800288,"geometry":{"type":"Polygon","coordinates":[[[565760.87176445953,5447995.5651404783],[565760.85101704078,5447992.5571668213],[565762.83516396058,5447990.6802603314],[565777.85934014781,5447990.7011003718],[565798.89805846382,5447991.5850451393],[565819.95664052875,5447991.6778432019],[565830.8717384222,5447989.5910882689],[565851.80871268781,5447985.5654693283],[565866.91195555031,5447983.687794718],[565877.92527835676,5447977.6433702176],[565897.80845924746,5447968.6973715788],[565909.85640796262,5447969.6324722311],[565909.87720403378,5447972.6414472302],[565903.88797896565,5447983.6544924974],[565891.86689231906,5447999.6616725],[565871.88551933412,5448012.5663256384],[565852.91545152117,5448020.5742739737],[565841.90048991982,5448021.5505541153],[565838.84330922249,5448020.5642635496],[565823.81812850712,5448020.5434778826],[565803.87066882302,5448016.6634608461],[565781.87469539209,5448005.633512958],[565769.80595435179,5448001.6894190051],[565760.87176445953,5447995.5651404783]]]},"properties":{"WATERBODY_POLY_ID":700091544,"WATERSHED_GROUP_ID":63,"WATERBODY_TYPE":"L","WATERBODY_KEY":329178273,"AREA_HA":0.36932737525218601,"GNIS_ID_1":null,"GNIS_NAME_1":null,"GNIS_ID_2":null,"GNIS_NAME_2":null,"GNIS_ID_3":null,"GNIS_NAME_3":null,"BLUE_LINE_KEY":356363481,"WATERSHED_KEY":356363481,"FWA_WATERSHED_CODE":"100-067883-000000-000000-000000-000000-000000-000000-000000-000000-000000-000000-000000-000000-000000-000000-000000-000000-000000-000000-000000","LOCAL_WATERSHED_CODE":null,"WATERSHED_GROUP_CODE":"HARR","LEFT_RIGHT_TRIBUTARY":"RIGHT","WATERBODY_KEY_50K":null,"WATERSHED_GROUP_CODE_50K":null,"WATERBODY_KEY_GROUP_CODE_50K":null,"WATERSHED_CODE_50K":null,"FEATURE_CODE":"GB15300140","OBJECTID":8800288,"GEOMETRY.AREA":0,"GEOMETRY.LEN":0,"FEATURE_AREA_SQM":3693.2738000000004,"FEATURE_LENGTH_M":335.01530000000002}},{"type":"Feature","id":8798858,"geometry":{"type":"Polygon","coordinates":[[[564683.90753339813,5448375.6915633548],[564687.89448644395,5448368.6126665799],[564694.94012820104,5448367.5872063953],[564712.86233091028,5448368.5884728208],[564723.87720533786,5448367.6093676658],[564729.93233560666,5448370.6893764418],[564729.93473097705,5448379.5565716308],[564723.88519198436,5448391.6788337715],[564705.90464073792,5448395.5850056438],[564699.90932570538,5448392.6636638576],[564694.90556531376,5448385.63780744],[564683.90753339813,5448375.6915633548]]]},"properties":{"WATERBODY_POLY_ID":700091756,"WATERSHED_GROUP_ID":63,"WATERBODY_TYPE":"L","WATERBODY_KEY":329178468,"AREA_HA":0.094295669351144001,"GNIS_ID_1":null,"GNIS_NAME_1":null,"GNIS_ID_2":null,"GNIS_NAME_2":null,"GNIS_ID_3":null,"GNIS_NAME_3":null,"BLUE_LINE_KEY":356230182,"WATERSHED_KEY":356230182,"FWA_WATERSHED_CODE":"100-067243-119835-000000-000000-000000-000000-000000-000000-000000-000000-000000-000000-000000-000000-000000-000000-000000-000000-000000-000000","LOCAL_WATERSHED_CODE":null,"WATERSHED_GROUP_CODE":"HARR","LEFT_RIGHT_TRIBUTARY":"RIGHT","WATERBODY_KEY_50K":464,"WATERSHED_GROUP_CODE_50K":"HARR","WATERBODY_KEY_GROUP_CODE_50K":"00464HARR","WATERSHED_CODE_50K":"100066500000000000000000000000000000000000000","FEATURE_CODE":"GB15300000","OBJECTID":8798858,"GEOMETRY.AREA":0,"GEOMETRY.LEN":0,"FEATURE_AREA_SQM":942.95670000000007,"FEATURE_LENGTH_M":122.06630000000001}},{"type":"Feature","id":9093148,"geometry":{"type":"Polygon","coordinates":[[[565348.81994639698,5448506.5646502478],[565339.866658321,5448498.6993757375],[565335.9110233417,5448477.5924994396],[565338.86645609315,5448473.66828987],[565349.83988579339,5448466.6731889909],[565359.90273070068,5448465.6831723787],[565373.89581768156,5448467.5907652676],[565392.95666188153,5448490.6191342063],[565408.9187734935,5448506.6432843301],[565412.9280106558,5448507.6404097285],[565435.94940931129,5448501.5794803808],[565446.84536343941,5448501.5509545496],[565469.80911159655,5448501.6644661417],[565493.82515122753,5448501.6332029579],[565506.82521188096,5448502.5791919138],[565530.94006769115,5448503.6574307205],[565543.90017805714,5448503.6536104465],[565557.81333257258,5448503.6605647048],[565570.8143932044,5448504.6064997483],[565584.88557205175,5448504.6156145148],[565598.95774888922,5448504.6246834723],[565612.87090470642,5448504.6316278093],[565625.83101678907,5448504.6277937731],[565638.83207966178,5448505.5737174666],[565650.83910521399,5448505.5581037831],[565668.92056843021,5448506.5652729906],[565674.81677405513,5448509.6440866087],[565678.88679838681,5448514.6009554863],[565680.87507566274,5448526.6593638267],[565681.95026218146,5448539.6567980153],[565678.83577713463,5448543.5778979333],[565674.86810456845,5448548.5986916665],[565651.86582709046,5448552.5995400548],[565630.86696758354,5448552.6663430631],[565618.91814570024,5448551.5746482685],[565605.95802634151,5448551.5784800733],[565581.90297060623,5448550.6589305652],[565573.90422724455,5448551.6726926118],[565549.82930708723,5448551.5442683008],[565536.80902545853,5448552.6564788576],[565517.8570646398,5448558.6071629673],[565511.82418569014,5448563.6022695107],[565508.8287623974,5448566.5756801041],[565505.91137387499,5448567.6496519437],[565501.94264964911,5448572.6694771145],[565496.88306955295,5448575.6181664988],[565477.8885473531,5448575.5509799877],[565459.80711957626,5448574.5447647003],[565448.85194533225,5448575.6806377852],[565436.84239856107,5448570.6301621832],[565414.90915292583,5448563.5608358169],[565399.92240740021,5448555.6235265257],[565395.84984456014,5448545.5995902643],[565378.87647165777,5448530.671969384],[565358.92589987512,5448516.6596423406],[565348.81994639698,5448506.5646502478]]]},"properties":{"WATERBODY_POLY_ID":700091284,"WATERSHED_GROUP_ID":63,"WATERBODY_TYPE":"L","WATERBODY_KEY":329178047,"AREA_HA":1.8664181520929399,"GNIS_ID_1":null,"GNIS_NAME_1":null,"GNIS_ID_2":null,"GNIS_NAME_2":null,"GNIS_ID_3":null,"GNIS_NAME_3":null,"BLUE_LINE_KEY":356358095,"WATERSHED_KEY":356358095,"FWA_WATERSHED_CODE":"100-067243-284920-000000-000000-000000-000000-000000-000000-000000-000000-000000-000000-000000-000000-000000-000000-000000-000000-000000-000000","LOCAL_WATERSHED_CODE":null,"WATERSHED_GROUP_CODE":"HARR","LEFT_RIGHT_TRIBUTARY":"RIGHT","WATERBODY_KEY_50K":461,"WATERSHED_GROUP_CODE_50K":"HARR","WATERBODY_KEY_GROUP_CODE_50K":"00461HARR","WATERSHED_CODE_50K":"100066500000000000000000000000000000000000000","FEATURE_CODE":"GB15300000","OBJECTID":9093148,"GEOMETRY.AREA":0,"GEOMETRY.LEN":0,"FEATURE_AREA_SQM":18664.181499999999,"FEATURE_LENGTH_M":798.74110000000007}},{"type":"Feature","id":9023817,"geometry":{"type":"Polygon","coordinates":[[[567359.8812349753,5443124.6085295957],[567362.88437988155,5443142.6959060431],[567358.94015314453,5443145.6567057911],[567353.83417545422,5443142.585669063],[567330.80905673548,5443127.5785891376],[567312.91377770226,5443118.651571854],[567290.93042965163,5443110.6251096725],[567270.94628244289,5443098.664440155],[567246.91950335144,5443077.628563677],[567232.81993093307,5443058.6131629013],[567209.82218244451,5443035.6895261155],[567196.89084506873,5443015.5806783997],[567179.86643946869,5442992.5721970489],[567168.81452671811,5442981.6704530492],[567149.95858970727,5442967.6644388335],[567130.80952900555,5442956.6641758252],[567124.8857515644,5442950.5754527077],[567122.84901762172,5442942.6332757277],[567123.81820881285,5442940.5868568374],[567131.90867574501,5442935.6181226661],[567148.92016276647,5442937.5667079771],[567169.9094071798,5442944.6306458525],[567181.91677056847,5442944.6176290819],[567195.81306480279,5442946.6873161094],[567210.92719434667,5442953.6795532228],[567232.89937938214,5442967.565398437],[567241.92224485055,5442975.5921657784],[567257.86294384953,5442990.6702161357],[567276.95995103172,5443006.579970466],[567294.87158769392,5443025.6413613763],[567302.88931620959,5443038.5648938389],[567316.85574471252,5443060.5871173991],[567327.93924283073,5443079.5650631869],[567345.87376765115,5443101.6355039077],[567359.85637878813,5443121.5995421456],[567359.8812349753,5443124.6085295957]]]},"properties":{"WATERBODY_POLY_ID":700050820,"WATERSHED_GROUP_ID":28,"WATERBODY_TYPE":"L","WATERBODY_KEY":329083395,"AREA_HA":1.4932408043386698,"GNIS_ID_1":null,"GNIS_NAME_1":null,"GNIS_ID_2":null,"GNIS_NAME_2":null,"GNIS_ID_3":null,"GNIS_NAME_3":null,"BLUE_LINE_KEY":356196958,"WATERSHED_KEY":356196958,"FWA_WATERSHED_CODE":"100-064535-055273-449207-000000-000000-000000-000000-000000-000000-000000-000000-000000-000000-000000-000000-000000-000000-000000-000000-000000","LOCAL_WATERSHED_CODE":null,"WATERSHED_GROUP_CODE":"CHWK","LEFT_RIGHT_TRIBUTARY":"RIGHT","WATERBODY_KEY_50K":507,"WATERSHED_GROUP_CODE_50K":"HARR","WATERBODY_KEY_GROUP_CODE_50K":"00507HARR","WATERSHED_CODE_50K":"100067400000000000000000000000000000000000000","FEATURE_CODE":"GB15300000","OBJECTID":9023817,"GEOMETRY.AREA":0,"GEOMETRY.LEN":0,"FEATURE_AREA_SQM":14932.407999999999,"FEATURE_LENGTH_M":665.96840000000009}},{"type":"Feature","id":9160180,"geometry":{"type":"Polygon","coordinates":[[[567481.81214355235,5443091.5762042105],[567477.93619449891,5443087.5703270035],[567476.95830686064,5443084.5495933546],[567476.95503223524,5443068.5568068558],[567464.83643472975,5443047.6654814417],[567464.80386980809,5443039.5892902585],[567468.85937323817,5443030.612527499],[567471.85160512698,5443027.6409288114],[567478.89590638457,5443026.6181170056],[567494.95544385572,5443028.555839235],[567503.87153152598,5443031.673932476],[567508.85851963819,5443035.6937146829],[567511.82345830009,5443040.6386306491],[567507.84150362341,5443058.6414109087],[567500.82633826742,5443078.6659601424],[567496.92209707736,5443082.5766384322],[567485.82224335836,5443092.5752087058],[567481.81214355235,5443091.5762042105]]]},"properties":{"WATERBODY_POLY_ID":700050914,"WATERSHED_GROUP_ID":28,"WATERBODY_TYPE":"L","WATERBODY_KEY":329083468,"AREA_HA":0.20607153235138601,"GNIS_ID_1":null,"GNIS_NAME_1":null,"GNIS_ID_2":null,"GNIS_NAME_2":null,"GNIS_ID_3":null,"GNIS_NAME_3":null,"BLUE_LINE_KEY":356280589,"WATERSHED_KEY":356280589,"FWA_WATERSHED_CODE":"999-999999-999999-999999-999999-999999-999999-999999-999999-999999-999999-999999-999999-999999-999999-999999-999999-999999-999999-999999-999999","LOCAL_WATERSHED_CODE":null,"WATERSHED_GROUP_CODE":"CHWK","LEFT_RIGHT_TRIBUTARY":"UNKNOWN","WATERBODY_KEY_50K":507,"WATERSHED_GROUP_CODE_50K":"HARR","WATERBODY_KEY_GROUP_CODE_50K":"00507HARR","WATERSHED_CODE_50K":"100067400000000000000000000000000000000000000","FEATURE_CODE":"GB15300000","OBJECTID":9160180,"GEOMETRY.AREA":0,"GEOMETRY.LEN":0,"FEATURE_AREA_SQM":2060.7153000000003,"FEATURE_LENGTH_M":180.21460000000002}},{"type":"Feature","id":8800126,"geometry":{"type":"Polygon","coordinates":[[[566836.9574101707,5443361.6369609525],[566831.80381002114,5443352.5488591352],[566823.85198227782,5443343.5851305872],[566804.92461081513,5443320.5540278582],[566804.81779785163,5443315.6444084477],[566807.8682029139,5443311.5644724285],[566815.9425059841,5443308.6529596513],[566822.85165966919,5443310.637119689],[566832.88468504592,5443317.5673185401],[566843.83639665344,5443328.6256678058],[566863.82714603911,5443345.652634399],[566871.93794736126,5443354.6174775371],[566882.90684068215,5443363.6176186902],[566896.82247674966,5443379.6209153635],[566912.88516977569,5443397.5504691591],[566920.84368399577,5443411.5814006226],[566932.88578391832,5443435.6373254042],[566951.80559163354,5443453.602202761],[566952.80626376299,5443459.6309870463],[566945.94477756543,5443463.6648724843],[566931.93144886731,5443462.544798973],[566925.93334299768,5443459.6226256825],[566903.95551020233,5443440.6715067541],[566887.83394868835,5443422.5822404372],[566864.837300402,5443399.6605574256],[566845.9509156897,5443377.5802973993],[566843.82203638833,5443373.595791501],[566836.9574101707,5443361.6369609525]]]},"properties":{"WATERBODY_POLY_ID":700091460,"WATERSHED_GROUP_ID":63,"WATERBODY_TYPE":"L","WATERBODY_KEY":329178197,"AREA_HA":0.59117187699821205,"GNIS_ID_1":null,"GNIS_NAME_1":null,"GNIS_ID_2":null,"GNIS_NAME_2":null,"GNIS_ID_3":null,"GNIS_NAME_3":null,"BLUE_LINE_KEY":356177198,"WATERSHED_KEY":356177198,"FWA_WATERSHED_CODE":"100-066866-000000-000000-000000-000000-000000-000000-000000-000000-000000-000000-000000-000000-000000-000000-000000-000000-000000-000000-000000","LOCAL_WATERSHED_CODE":null,"WATERSHED_GROUP_CODE":"HARR","LEFT_RIGHT_TRIBUTARY":"LEFT","WATERBODY_KEY_50K":502,"WATERSHED_GROUP_CODE_50K":"HARR","WATERBODY_KEY_GROUP_CODE_50K":"00502HARR","WATERSHED_CODE_50K":"999999999999999999999999999999999999999999999","FEATURE_CODE":"GB15300000","OBJECTID":8800126,"GEOMETRY.AREA":0,"GEOMETRY.LEN":0,"FEATURE_AREA_SQM":5911.7188000000006,"FEATURE_LENGTH_M":440.73660000000001}},{"type":"Feature","id":9112158,"geometry":{"type":"Polygon","coordinates":[[[567714.87990915717,5443349.6829705872],[567706.87582939805,5443345.6268279012],[567699.89399009186,5443334.6147152651],[567697.83332204865,5443323.6635564771],[567699.84193796373,5443312.6039639842],[567704.86665928655,5443301.581798072],[567713.84431898349,5443292.6659605559],[567719.93661089323,5443291.6313478099],[567727.94072955975,5443295.6884909403],[567729.91168226372,5443299.6718221735],[567729.90728261101,5443310.5973846819],[567729.84135243751,5443333.5568431327],[567727.89863007434,5443348.5762368068],[567714.87990915717,5443349.6829705872]]]},"properties":{"WATERBODY_POLY_ID":700050931,"WATERSHED_GROUP_ID":28,"WATERBODY_TYPE":"L","WATERBODY_KEY":329083480,"AREA_HA":0.15004001450424401,"GNIS_ID_1":null,"GNIS_NAME_1":null,"GNIS_ID_2":null,"GNIS_NAME_2":null,"GNIS_ID_3":null,"GNIS_NAME_3":null,"BLUE_LINE_KEY":356114844,"WATERSHED_KEY":356114844,"FWA_WATERSHED_CODE":"999-999999-999999-999999-999999-999999-999999-999999-999999-999999-999999-999999-999999-999999-999999-999999-999999-999999-999999-999999-999999","LOCAL_WATERSHED_CODE":null,"WATERSHED_GROUP_CODE":"CHWK","LEFT_RIGHT_TRIBUTARY":"UNKNOWN","WATERBODY_KEY_50K":null,"WATERSHED_GROUP_CODE_50K":null,"WATERBODY_KEY_GROUP_CODE_50K":null,"WATERSHED_CODE_50K":null,"FEATURE_CODE":"GB15300000","OBJECTID":9112158,"GEOMETRY.AREA":0,"GEOMETRY.LEN":0,"FEATURE_AREA_SQM":1500.4001000000001,"FEATURE_LENGTH_M":150.84530000000001}},{"type":"Feature","id":9025134,"geometry":{"type":"Polygon","coordinates":[[[567607.83297685371,5443341.5637104474],[567594.85969578079,5443332.6956898374],[567587.93504919624,5443320.5762297949],[567587.82918657933,5443315.6665613176],[567589.87779575586,5443305.5568382191],[567593.9000367265,5443300.6974613899],[567601.95456660353,5443298.579049862],[567614.87408586231,5443297.6288931035],[567618.86808621953,5443300.6870498126],[567620.92770236568,5443311.6372556454],[567623.94039203983,5443322.6002026331],[567620.83791711077,5443331.5886846976],[567619.8404497751,5443341.5516330786],[567616.80623542366,5443343.5734468009],[567607.83297685371,5443341.5637104474]]]},"properties":{"WATERBODY_POLY_ID":700050941,"WATERSHED_GROUP_ID":28,"WATERBODY_TYPE":"L","WATERBODY_KEY":329083490,"AREA_HA":0.12327546940053101,"GNIS_ID_1":null,"GNIS_NAME_1":null,"GNIS_ID_2":null,"GNIS_NAME_2":null,"GNIS_ID_3":null,"GNIS_NAME_3":null,"BLUE_LINE_KEY":356123814,"WATERSHED_KEY":356123814,"FWA_WATERSHED_CODE":"999-999999-999999-999999-999999-999999-999999-999999-999999-999999-999999-999999-999999-999999-999999-999999-999999-999999-999999-999999-999999","LOCAL_WATERSHED_CODE":null,"WATERSHED_GROUP_CODE":"CHWK","LEFT_RIGHT_TRIBUTARY":"UNKNOWN","WATERBODY_KEY_50K":506,"WATERSHED_GROUP_CODE_50K":"HARR","WATERBODY_KEY_GROUP_CODE_50K":"00506HARR","WATERSHED_CODE_50K":"999999999999999999999999999999999999999999999","FEATURE_CODE":"GB15300140","OBJECTID":9025134,"GEOMETRY.AREA":0,"GEOMETRY.LEN":0,"FEATURE_AREA_SQM":1232.7547,"FEATURE_LENGTH_M":132.41560000000001}},{"type":"Feature","id":8799780,"geometry":{"type":"Polygon","coordinates":[[[566939.89759062021,5443638.5649827812],[566919.82793170877,5443635.6301117959],[566901.83281426178,5443625.5945073562],[566895.86899848212,5443618.5549510513],[566878.87140842353,5443598.5554476939],[566863.8037288913,5443581.5884535797],[566845.8303254511,5443558.5691279396],[566834.89077086875,5443541.6524562761],[566824.80338044744,5443523.6370390011],[566808.87586178619,5443502.700597995],[566790.80832527112,5443483.6389571819],[566768.93637802149,5443469.5984617816],[566751.9455531321,5443454.6671141908],[566742.89990022872,5443443.6322761299],[566726.87159135879,5443421.5863070199],[566716.8764549573,5443399.6142223338],[566716.8809484262,5443388.6876918282],[566718.95449729497,5443381.5869919546],[566727.8607148088,5443363.6432410711],[566733.88717359817,5443358.6489148056],[566741.88349351543,5443357.63697821],[566762.8240822379,5443358.6820080616],[566770.92725599092,5443362.5806848323],[566793.88634014002,5443373.6250903942],[566803.91936984938,5443380.5552884694],[566820.8282132562,5443393.5859969612],[566831.89693555294,5443403.6956804693],[566835.85484111751,5443409.602212497],[566850.84150467359,5443424.6685596183],[566859.81784677401,5443442.6700804327],[566867.92418216169,5443462.5614396771],[566876.83572394913,5443476.6041167965],[566889.86319638148,5443496.5554764094],[566893.9057657076,5443505.6296469485],[566893.81160526397,5443509.5873618079],[566894.9474883168,5443512.6102461694],[566898.85388943553,5443524.691353648],[566913.82840564486,5443545.6160222078],[566924.82783923799,5443562.692359807],[566932.90936145687,5443579.5747184949],[566939.92157613067,5443598.6620721966],[566946.81674805086,5443618.6970777195],[566946.94641219685,5443626.6157333795],[566939.89759062021,5443638.5649827812]]]},"properties":{"WATERBODY_POLY_ID":700091246,"WATERSHED_GROUP_ID":63,"WATERBODY_TYPE":"L","WATERBODY_KEY":329178013,"AREA_HA":2.32149211799369,"GNIS_ID_1":null,"GNIS_NAME_1":null,"GNIS_ID_2":null,"GNIS_NAME_2":null,"GNIS_ID_3":null,"GNIS_NAME_3":null,"BLUE_LINE_KEY":356177198,"WATERSHED_KEY":356177198,"FWA_WATERSHED_CODE":"100-066866-000000-000000-000000-000000-000000-000000-000000-000000-000000-000000-000000-000000-000000-000000-000000-000000-000000-000000-000000","LOCAL_WATERSHED_CODE":null,"WATERSHED_GROUP_CODE":"HARR","LEFT_RIGHT_TRIBUTARY":"LEFT","WATERBODY_KEY_50K":502,"WATERSHED_GROUP_CODE_50K":"HARR","WATERBODY_KEY_GROUP_CODE_50K":"00502HARR","WATERSHED_CODE_50K":"999999999999999999999999999999999999999999999","FEATURE_CODE":"GB15300000","OBJECTID":8799780,"GEOMETRY.AREA":0,"GEOMETRY.LEN":0,"FEATURE_AREA_SQM":23214.921200000001,"FEATURE_LENGTH_M":762.54380000000003}},{"type":"Feature","id":9024480,"geometry":{"type":"Polygon","coordinates":[[[564881.8868821396,5443514.570371992],[564873.81842406001,5443506.5591364512],[564874.88089395734,5443500.5541142374],[564876.92115456727,5443497.5698302221],[564884.81265904312,5443491.6454144688],[564904.81704959262,5443490.6129906503],[564926.86828845274,5443491.6644686582],[564946.91366833705,5443491.5828505084],[564950.92465255945,5443492.5799389835],[564961.94545779435,5443496.6688412772],[564972.89018525823,5443502.6562101226],[564993.8084434499,5443516.6783975139],[565015.93786052684,5443530.5559210489],[565026.92047058791,5443549.6866230257],[565039.88253106759,5443565.6743996674],[565058.91301862581,5443577.6157814106],[565061.83578369324,5443581.60896884],[565063.85406203347,5443591.6083418103],[565061.85479495046,5443595.5434437189],[565051.87813628267,5443599.7011566311],[565044.90829465981,5443597.5602119537],[565033.94077521912,5443588.5638127262],[565011.8457346264,5443570.5689287819],[564994.87173688936,5443553.5851063523],[564986.92779214808,5443549.6913808994],[564969.83200660092,5443544.5816785293],[564948.94505994918,5443538.6356399721],[564939.88157796313,5443529.6618629601],[564928.95506862912,5443521.6162604736],[564906.82089077495,5443518.6641925555],[564885.83969943225,5443516.6758345133],[564881.8868821396,5443514.570371992]]]},"properties":{"WATERBODY_POLY_ID":700050859,"WATERSHED_GROUP_ID":28,"WATERBODY_TYPE":"L","WATERBODY_KEY":329083425,"AREA_HA":0.631560975595859,"GNIS_ID_1":null,"GNIS_NAME_1":null,"GNIS_ID_2":null,"GNIS_NAME_2":null,"GNIS_ID_3":null,"GNIS_NAME_3":null,"BLUE_LINE_KEY":356280179,"WATERSHED_KEY":356280179,"FWA_WATERSHED_CODE":"100-064535-019510-000000-000000-000000-000000-000000-000000-000000-000000-000000-000000-000000-000000-000000-000000-000000-000000-000000-000000","LOCAL_WATERSHED_CODE":null,"WATERSHED_GROUP_CODE":"CHWK","LEFT_RIGHT_TRIBUTARY":"RIGHT","WATERBODY_KEY_50K":null,"WATERSHED_GROUP_CODE_50K":null,"WATERBODY_KEY_GROUP_CODE_50K":null,"WATERSHED_CODE_50K":null,"FEATURE_CODE":"GB15300140","OBJECTID":9024480,"GEOMETRY.AREA":0,"GEOMETRY.LEN":0,"FEATURE_AREA_SQM":6315.6098000000002,"FEATURE_LENGTH_M":465.2242}},{"type":"Feature","id":8800629,"geometry":{"type":"Polygon","coordinates":[[[566616.94677533768,5443568.6304440005],[566609.9434761256,5443570.6049784832],[566600.88730423688,5443566.6955365594],[566596.93538484082,5443564.5891144909],[566576.90372850862,5443546.6133055771],[566576.80741791218,5443534.577303349],[566577.8105271901,5443513.6878568102],[566579.81474240532,5443513.5538552105],[566588.9058979929,5443514.613008189],[566595.83984429145,5443519.6051547416],[566608.8272378546,5443538.6056815051],[566619.89139658853,5443559.6408842187],[566619.93901298638,5443565.6579059632],[566616.94677533768,5443568.6304440005]]]},"properties":{"WATERBODY_POLY_ID":700091700,"WATERSHED_GROUP_ID":63,"WATERBODY_TYPE":"L","WATERBODY_KEY":329178415,"AREA_HA":0.14656239490096301,"GNIS_ID_1":null,"GNIS_NAME_1":null,"GNIS_ID_2":null,"GNIS_NAME_2":null,"GNIS_ID_3":null,"GNIS_NAME_3":null,"BLUE_LINE_KEY":356331806,"WATERSHED_KEY":356331806,"FWA_WATERSHED_CODE":"100-066573-000000-000000-000000-000000-000000-000000-000000-000000-000000-000000-000000-000000-000000-000000-000000-000000-000000-000000-000000","LOCAL_WATERSHED_CODE":null,"WATERSHED_GROUP_CODE":"HARR","LEFT_RIGHT_TRIBUTARY":"LEFT","WATERBODY_KEY_50K":504,"WATERSHED_GROUP_CODE_50K":"HARR","WATERBODY_KEY_GROUP_CODE_50K":"00504HARR","WATERSHED_CODE_50K":"999999999999999999999999999999999999999999999","FEATURE_CODE":"GB15300000","OBJECTID":8800629,"GEOMETRY.AREA":0,"GEOMETRY.LEN":0,"FEATURE_AREA_SQM":1465.6239,"FEATURE_LENGTH_M":158.23160000000001}}]}