{"type":"FeatureCollection","crs":{"type":"name","properties":{"name":"EPSG:32610"}},"features":[{"type":"Feature","id":6714355,"geometry":{"type":"Polygon","coordinates":[[[565188.90163609874,5443641.6942544105],[565175.80797000451,5443660.6996981418],[565163.86547583085,5443664.6761976294],[565141.8141365872,5443663.6237835372],[565118.88688550133,5443660.6620800616],[565091.83057742252,5443657.6509828893],[565071.85953730647,5443654.5661223875],[565051.8075173659,5443649.5795834148],[565029.90274610533,5443639.6619795822],[565013.82945229532,5443627.5974148028],[564995.8214334785,5443608.7001527743],[564979.86617384804,5443595.6868843306],[564948.94486874295,5443581.547398298],[564925.95944438572,5443579.6930084014],[564899.93822549959,5443578.5962530253],[564873.81781033031,5443577.6560433377],[564849.83681536443,5443573.573990427],[564823.84411513945,5443564.5597402966],[564803.90920929832,5443558.6254855739],[564795.83971512131,5443550.613290011],[564793.86999335,5443546.6318713138],[564792.92176147446,5443535.6946188137],[564805.91364550986,5443515.5787715903],[564815.90912877955,5443510.6289474601],[564827.8688340513,5443504.5943066413],[564840.93953606766,5443498.5726068746],[564859.82049329707,5443488.659957842],[564877.82285334333,5443475.5700082462],[564893.86302492488,5443463.5657822872],[564914.91369439685,5443458.5874738647],[564940.83411675552,5443458.5757260257],[564961.89233000251,5443458.6645562472],[564967.80832701968,5443459.6842398848],[564977.95152978983,5443460.595803638],[565002.95024705492,5443468.6484174542],[565024.8559247409,5443478.5649998197],[565046.84523722983,5443491.6502577877],[565068.891724015,5443503.6271800455],[565086.88827806024,5443513.6571104964],[565110.91211375431,5443534.6835821876],[565130.86710964469,5443554.5532008139],[565148.89302121778,5443572.6593499305],[565152.90401298937,5443573.6564277001],[565168.89277595165,5443582.5543361725],[565175.87979266071,5443582.6360835237],[565195.90807378129,5443584.6145896874],[565199.94284421054,5443588.6206678189],[565199.94940710615,5443593.6878572535],[565186.8044520003,5443617.6007404486],[565188.95702701784,5443624.5942714242],[565188.80557490443,5443629.6592935808],[565188.90163609874,5443641.6942544105]],[[564881.8868821396,5443514.570371992],[564885.83969943225,5443516.6758345133],[564906.82089077495,5443518.6641925555],[564928.95506862912,5443521.6162604736],[564939.88157796313,5443529.6618629601],[564948.94505994918,5443538.6356399721],[564969.83200660092,5443544.5816785293],[564986.92779214808,5443549.6913808994],[564994.87173688936,5443553.5851063523],[565011.8457346264,5443570.5689287819],[565033.94077521912,5443588.5638127262],[565044.90829465981,5443597.5602119537],[565051.87813628267,5443599.7011566311],[565061.85479495046,5443595.5434437189],[565063.85406203347,5443591.6083418103],[565061.83578369324,5443581.60896884],[565058.91301862581,5443577.6157814106],[565039.88253106759,5443565.6743996674],[565026.92047058791,5443549.6866230257],[565015.93786052684,5443530.5559210489],[564993.8084434499,5443516.6783975139],[564972.89018525823,5443502.6562101226],[564961.94545779435,5443496.6688412772],[564950.92465255945,5443492.5799389835],[564946.91366833705,5443491.5828505084],[564926.86828845274,5443491.6644686582],[564904.81704959262,5443490.6129906503],[564884.81265904312,5443491.6454144688],[564876.92115456727,5443497.5698302221],[564874.88089395734,5443500.5541142374],[564873.81842406001,5443506.5591364512],[564881.8868821396,5443514.570371992]]]},"properties":{"WATERBODY_POLY_ID":700050786,"WATERSHED_GROUP_ID":28,"WATERBODY_TYPE":"W","WATERBODY_KEY":329083369,"AREA_HA":3.8451788186758797,"GNIS_ID_1":null,"GNIS_NAME_1":null,"GNIS_ID_2":null,"GNIS_NAME_2":null,"GNIS_ID_3":null,"GNIS_NAME_3":null,"BLUE_LINE_KEY":356280179,"WATERSHED_KEY":356280179,"FWA_WATERSHED_CODE":"100-064535-019510-000000-000000-000000-000000-000000-000000-000000-000000-000000-000000-000000-000000-000000-000000-000000-000000-000000-000000","LOCAL_WATERSHED_CODE":null,"WATERSHED_GROUP_CODE":"CHWK","LEFT_RIGHT_TRIBUTARY":"RIGHT","WATERBODY_KEY_50K":null,"WATERSHED_GROUP_CODE_50K":null,"WATERBODY_KEY_GROUP_CODE_50K":null,"WATERSHED_CODE_50K":null,"FEATURE_CODE":"GC17100000","OBJECTID":6714355,"GEOMETRY.AREA":0,"GEOMETRY.LEN":0,"FEATURE_AREA_SQM":38451.783800000005,"FEATURE_LENGTH_M":1445.0856000000001}}]}