{"type": "FeatureCollection", "crs": {"type": "name", "properties": {"name": "EPSG:32610"}}, "features": [{"type": "Feature", "properties": {"class": 1, "timestamp_utc": "2025-12-19 01:50:14+00:00", "source_product": "Flood_CAN_BC_LowerFraser_20251219_015014"}, "geometry": {"type": "MultiPolygon", "coordinates": [[[[570253.9140485836, 5447145.666296875], [570234.8908697519, 5447158.566134678], [570233.4224662838, 5447159.386536162], [570218.8190893724, 5447167.545463715], [570200.8071864074, 5447180.613929867], [570195.9084671984, 5447188.634680566], [570195.9286187381, 5447191.636955259], [570200.8120540902, 5447194.556442262], [570210.8395111624, 5447197.68602291], [570216.2609893959, 5447196.050162471], [570220.9163120211, 5447194.645478523], [570230.9340454387, 5447187.657222443], [570241.905640351, 5447175.599952667], [570258.9050703906, 5447163.619415444], [570259.0826825824, 5447163.556875041], [570264.7997375728, 5447161.543909679], [570278.8667619808, 5447156.59095788], [570279.941899095, 5447150.58964637], [570276.9406641043, 5447144.6919971155], [570270.8856609479, 5447141.60176862], [570261.9282931342, 5447142.59957389], [570253.9140485836, 5447145.666296875]]], [[[570137.8912128736, 5447252.661887773], [570155.8561417994, 5447249.56587245], [570158.9126302683, 5447250.549791781], [570181.8735834355, 5447250.686066944], [570184.9489703568, 5447249.613313752], [570190.8413122561, 5447242.561397431], [570193.8125444427, 5447241.654052692], [570201.8889528989, 5447233.684855193], [570205.880262285, 5447231.667609802], [570206.8465825919, 5447229.622996641], [570203.9116011636, 5447227.684352445], [570196.8828164006, 5447226.6499135075], [570174.897836956, 5447234.597892078], [570171.841349533, 5447233.613975025], [570149.9302430277, 5447234.602970181], [570128.9277631333, 5447234.647246627], [570124.9238105424, 5447233.651357376], [570119.8247474724, 5447235.643450688], [570114.8237283656, 5447242.551156256], [570110.0, 5447245.379554942], [570110.0, 5447249.79617165], [570125.8849166953, 5447252.664929242], [570137.8912128736, 5447252.661887773]]], [[[570207.9079738135, 5447723.695469142], [570210.803848041, 5447724.677425736], [570233.8668970808, 5447724.659604552], [570240.8939945643, 5447720.624162742], [570242.8976198055, 5447716.691452529], [570230.8248322934, 5447707.67641722], [570224.8728926147, 5447705.699378394], [570215.8212220592, 5447705.5841769995], [570196.8241268129, 5447701.695551119], [570174.9253266236, 5447695.557554729], [570167.8467028195, 5447695.6232105605], [570164.8105803764, 5447697.6415059455], [570163.9147604229, 5447701.599481118], [570167.8516303141, 5447709.565788864], [570174.8998008696, 5447713.613661497], [570196.8880849174, 5447719.586003716], [570207.9079738135, 5447723.695469142]]], [[[570119.7071441726, 5446937.3820346845], [570136.7276417356, 5446944.997922378], [570144.8445327483, 5446951.33098102], [570155.126504503, 5446955.433603465], [570163.1567011692, 5446962.73999228], [570173.5334344736, 5446976.163523756], [570182.2623005025, 5446981.432241064], [570185.6747879381, 5446987.516085779], [570190.1875335894, 5446988.901552452], [570196.7370447697, 5446996.107961064], [570198.1401256969, 5447001.442207598], [570209.2792876951, 5447011.589957766], [570211.1957423531, 5447022.394242469], [570229.0485492952, 5447033.255741478], [570237.1213038802, 5447043.036199628], [570241.1496862414, 5447044.970395554], [570244.4998173245, 5447050.734460356], [570249.4846303193, 5447055.717403535], [570256.3847607918, 5447071.200371526], [570267.1553595368, 5447082.893064203], [570278.2125049384, 5447091.165640701], [570280.315143951, 5447096.831757379], [570287.4313754909, 5447102.5207785005], [570296.2329568492, 5447116.081747495], [570303.4045906324, 5447131.0909626605], [570302.4324334372, 5447139.387883773], [570306.0641652077, 5447146.28000961], [570308.5915548123, 5447160.234223256], [570311.2952591288, 5447165.798432901], [570316.722740561, 5447170.612052784], [570318.5049032453, 5447178.107304502], [570324.740766026, 5447183.029700751], [570326.9390550544, 5447187.429677866], [570327.2620448389, 5447190.986997604], [570335.2463227096, 5447205.543821812], [570345.1058966022, 5447216.37269913], [570345.7348973065, 5447222.0559284305], [570351.3502057162, 5447237.06786262], [570356.1180649265, 5447241.04908709], [570359.2056874788, 5447245.901678146], [570359.3758011074, 5447251.9753801115], [570356.7547364191, 5447258.721856009], [570358.4876034303, 5447264.399358054], [570357.9099916897, 5447271.202162628], [570359.8805563085, 5447280.895308765], [570362.4686556448, 5447283.858455498], [570363.6779688724, 5447290.661575465], [570368.3474610564, 5447297.620860646], [570372.6980788002, 5447300.055990428], [570375.5568091068, 5447303.637311347], [570380.3981929388, 5447314.299793041], [570381.9190750229, 5447322.853584044], [570387.7323985966, 5447327.546164026], [570396.839699406, 5447331.834443108], [570398.6039803147, 5447337.584089705], [570407.2994553959, 5447344.635228167], [570410.5774879255, 5447364.923906734], [570409.8857076335, 5447371.430303869], [570417.973251788, 5447386.861656863], [570420.729612055, 5447394.961049019], [570429.6553619978, 5447403.214526159], [570429.8322997838, 5447409.724411406], [570434.2856115953, 5447415.885574467], [570436.2363456397, 5447424.77643819], [570445.5350554241, 5447434.904306212], [570447.4016338658, 5447439.158862979], [570448.2218599576, 5447441.543031582], [570447.5663365762, 5447445.801089869], [570449.3487901947, 5447450.126831623], [570452.4186979794, 5447453.271207104], [570460.1746010049, 5447455.45130561], [570461.5868040337, 5447458.800663322], [570462.1020962684, 5447465.743951372], [570472.6216564863, 5447474.851676021], [570478.1039642922, 5447487.901677255], [570478.841472633, 5447500.042933603], [570485.7661616771, 5447506.245327942], [570487.2001779896, 5447512.910665843], [570495.3083674397, 5447525.435821658], [570498.4830033728, 5447527.820831134], [570501.7218791514, 5447535.0404852675], [570503.1752699938, 5447541.468591869], [570509.2577531352, 5447548.535904288], [570510.9348449807, 5447555.87831903], [570515.4033096789, 5447560.773086595], [570517.2815763263, 5447566.914086354], [570521.127428126, 5447570.472570466], [570521.3247560483, 5447576.610974943], [570520.302804493, 5447580.474429355], [570521.9264973835, 5447586.01250249], [570534.1882684282, 5447615.958111529], [570545.1506516513, 5447633.891534746], [570549.242066595, 5447646.489348603], [570551.1934713782, 5447649.524487437], [570551.5051098585, 5447654.009951608], [570555.1359055466, 5447657.4545206865], [570557.3152446551, 5447663.296861331], [570557.8255887692, 5447669.04500491], [570563.4820108137, 5447675.573812472], [570570.6244046044, 5447689.650501295], [570578.1410411744, 5447698.906683387], [570580.2462641457, 5447709.147822519], [570588.2386377066, 5447716.035509384], [570586.9499087723, 5447719.29144508], [570587.2704923882, 5447724.62384238], [570597.7846848066, 5447732.256726525], [570598.3939860878, 5447734.669198305], [570597.5657653182, 5447738.288687818], [570599.0885994028, 5447740.0], [571330.4844040484, 5447740.0], [571325.1461585291, 5447732.399859384], [571317.6106959516, 5447728.007083585], [571308.3536202647, 5447716.876292069], [571306.3599350369, 5447717.136032433], [571305.8462491885, 5447719.937387135], [571307.2391193663, 5447724.833870796], [571303.1716223395, 5447729.274358986], [571300.6852351403, 5447738.242176074], [571292.5381518046, 5447734.528460729], [571279.9272741985, 5447734.209347213], [571267.949413022, 5447730.685251816], [571263.5267269327, 5447732.505307562], [571261.3221518745, 5447731.776117976], [571256.3876989515, 5447727.591180215], [571253.4950962169, 5447719.010622767], [571242.4917696635, 5447704.923085192], [571238.7186891232, 5447695.833238426], [571237.193763654, 5447687.89391377], [571238.3899369969, 5447680.894609672], [571234.6086115239, 5447676.773340292], [571230.2240597511, 5447664.687984584], [571220.1407010222, 5447646.983064049], [571210.7623840926, 5447637.959201016], [571209.3713221987, 5447632.4406312965], [571201.9367478837, 5447618.619601181], [571196.1087344469, 5447612.417132127], [571185.4081457285, 5447593.911947692], [571184.0754666834, 5447587.537114723], [571184.5905372754, 5447582.870933803], [571185.33935767, 5447582.651053767], [571187.0426337624, 5447582.150917172], [571188.1472093456, 5447582.578338373], [571195.7337110592, 5447585.514016363], [571210.8253965186, 5447594.1204826115], [571233.102133223, 5447608.071270864], [571248.8159848384, 5447622.711162058], [571251.4206877314, 5447622.250327091], [571252.9594186904, 5447618.1273147175], [571255.0376365389, 5447617.174868362], [571264.8964671685, 5447621.788054722], [571273.1134093825, 5447622.084044325], [571290.4234198974, 5447627.388066329], [571295.8481530498, 5447627.108369925], [571321.050819604, 5447635.305651022], [571353.0869908618, 5447639.075805593], [571360.4914271438, 5447643.352016897], [571388.5512223734, 5447654.145575576], [571428.7038294176, 5447654.31318767], [571430.0, 5447654.166976339], [571430.0, 5447557.285929497], [571423.8716100319, 5447561.575216543], [571423.054566637, 5447558.971694321], [571426.4475277952, 5447553.180627888], [571425.5929301194, 5447550.9240103485], [571417.347283078, 5447551.144886493], [571396.8202119856, 5447546.949472397], [571392.8885778161, 5447540.619611499], [571386.2970772713, 5447536.801207877], [571380.2999096516, 5447537.216133257], [571371.3177500501, 5447533.500384096], [571361.64659393, 5447532.1062991135], [571330.8697900802, 5447536.194170932], [571315.2985857917, 5447533.435826078], [571308.978385038, 5447530.260173351], [571304.7995407534, 5447532.491441775], [571300.89339106, 5447528.889423103], [571293.6326047564, 5447526.045576331], [571274.05643498, 5447522.555886554], [571270.6735678313, 5447516.920220641], [571260.8525783273, 5447513.887598603], [571256.3704334659, 5447510.300943866], [571252.6282180052, 5447510.004060414], [571244.8220985698, 5447505.007454338], [571241.7256845785, 5447501.204556663], [571238.5907310551, 5447501.148816904], [571234.4407685115, 5447496.668369329], [571229.4567085421, 5447499.551030994], [571227.9022704704, 5447498.730718846], [571226.2993806584, 5447493.707245999], [571224.4867767178, 5447492.024991623], [571208.6768955624, 5447487.980798721], [571193.7652979224, 5447481.141865581], [571185.435136409, 5447476.455525408], [571184.3805140693, 5447474.371459612], [571188.5692954016, 5447468.307877353], [571198.5283658467, 5447466.9794793995], [571238.158292131, 5447476.522908389], [571267.8407371691, 5447477.371394961], [571307.719528436, 5447474.994513635], [571329.8081157039, 5447477.882965553], [571339.2405646675, 5447481.412970447], [571345.1031236508, 5447481.88997677], [571350.7175895419, 5447482.3467726], [571373.3598830405, 5447481.180224548], [571379.7142331757, 5447479.006259003], [571408.4909225838, 5447476.451883035], [571430.0, 5447472.279975791], [571430.0, 5447396.043641906], [571414.534741081, 5447393.474496439], [571409.3009618811, 5447391.104455553], [571388.4946547789, 5447387.977894912], [571382.6685049855, 5447384.593912408], [571370.3706423684, 5447383.136767877], [571366.0045621104, 5447381.197126387], [571341.528304743, 5447380.182108532], [571328.6285765799, 5447377.828056006], [571302.7734889368, 5447379.886452961], [571290.8434988585, 5447381.971221676], [571289.0714436133, 5447383.110137787], [571285.7901609867, 5447385.219059669], [571276.6505570007, 5447383.024457254], [571260.8643233615, 5447385.730903715], [571252.2454399162, 5447388.88492604], [571246.6407919324, 5447394.155483859], [571237.5947926475, 5447394.330719477], [571231.6553057812, 5447398.077209813], [571229.2514068007, 5447397.54741205], [571228.2601766152, 5447394.282510211], [571226.2419793592, 5447393.197649188], [571210.9785538781, 5447397.394624507], [571187.1777809898, 5447388.732302319], [571174.7492589594, 5447388.951268765], [571164.1127122144, 5447382.712726078], [571144.4192297332, 5447380.944019441], [571132.4202594105, 5447374.132624594], [571117.2018008506, 5447365.493629077], [571092.3705042197, 5447347.864242209], [571087.0609023073, 5447340.266466419], [571077.8040414425, 5447333.248855656], [571071.1313176716, 5447325.288093804], [571064.8354227621, 5447320.455986109], [571053.2890538968, 5447306.575973951], [571050.4120073238, 5447301.42665486], [571047.6536133676, 5447292.3567350255], [571044.1115604704, 5447288.071332876], [571040.8215057553, 5447279.570995036], [571035.6134192466, 5447271.952252609], [571035.3051170594, 5447266.803548164], [571029.5121319377, 5447261.621444058], [571028.6586601585, 5447258.404449158], [571019.5314519783, 5447247.128985515], [571009.1297566604, 5447227.5068630185], [571002.7654000708, 5447223.7626442], [571000.2643206124, 5447220.533271663], [570996.2044771627, 5447210.612342402], [570990.7398542212, 5447206.9634167375], [570990.3423969792, 5447200.877258224], [570981.8450053212, 5447187.291108609], [570975.4543303332, 5447180.438710866], [570972.220641162, 5447173.474587382], [570962.574339069, 5447161.852336447], [570957.261657398, 5447150.261531414], [570944.7247729346, 5447134.330763229], [570939.135810749, 5447122.577513683], [570922.5191760487, 5447100.1028336175], [570920.634908586, 5447093.179416096], [570910.223300042, 5447080.636779892], [570899.5338671532, 5447063.8620829], [570886.0298777682, 5447036.674678859], [570885.4461252269, 5447032.881491876], [570881.5085818043, 5447028.719123178], [570872.7473117574, 5447012.697806475], [570870.6687562652, 5447004.353676011], [570865.8127661039, 5446996.745108619], [570857.3101327269, 5446976.763824837], [570854.360435585, 5446967.05990547], [570848.3652041692, 5446954.822732587], [570846.8055412164, 5446948.112011742], [570842.2324144304, 5446939.363492085], [570834.6308341289, 5446917.695532718], [570827.340719099, 5446904.531997804], [570825.129848006, 5446892.30338438], [570824.8471234147, 5446884.096273712], [570819.4278763394, 5446878.722392817], [570817.9404127912, 5446875.007664299], [570813.0733682163, 5446852.8823130345], [570809.2067382743, 5446847.240014811], [570807.8565973964, 5446841.119971386], [570802.861366472, 5446834.5098487595], [570799.0146738056, 5446827.390268507], [570792.5263807836, 5446821.723654773], [570792.651204861, 5446811.35038099], [570791.2304470865, 5446807.014138587], [570784.4806495397, 5446804.81574953], [570781.4895656952, 5446801.29076218], [570771.8676179333, 5446796.202894835], [570767.8843630515, 5446786.538762712], [570759.7278122366, 5446778.279979715], [570756.3079488087, 5446771.173525111], [570744.493954343, 5446760.13151703], [570739.6365367017, 5446758.498560461], [570738.611649593, 5446751.959752956], [570725.138455769, 5446743.153016945], [570717.2964707419, 5446740.666503946], [570704.4453525322, 5446727.746314021], [570704.689030452, 5446722.914572093], [570702.8383501933, 5446720.03490513], [570696.5224254744, 5446719.573670825], [570686.8184688736, 5446701.305353556], [570681.5114195523, 5446695.474812007], [570680.2248418501, 5446689.181310317], [570670.2296497403, 5446673.007700265], [570667.5076717809, 5446664.886968755], [570660.8593557316, 5446653.901546862], [570657.552218685, 5446645.13384066], [570656.594928274, 5446637.141072543], [570653.6506626648, 5446631.862015719], [570645.6492826419, 5446623.630558459], [570644.6376160393, 5446620.506326774], [570641.4531512476, 5446616.908489417], [570639.9242380721, 5446611.106815647], [570631.1908716566, 5446598.436292215], [570624.5320522292, 5446583.912675679], [570612.5876057191, 5446563.623768349], [570599.1936469972, 5446548.640367879], [570592.4144303063, 5446538.956476085], [570591.2613153209, 5446533.184917961], [570594.5364863115, 5446524.743525712], [570596.5160150361, 5446509.553797177], [570595.7262451951, 5446492.040726554], [570593.2261707304, 5446474.8404302215], [570593.1997675599, 5446466.765531031], [570594.696338957, 5446459.05889075], [570602.4133801638, 5446456.06408476], [570622.1655257763, 5446458.1027274355], [570626.9453468757, 5446460.11135376], [570645.6850937098, 5446473.727945288], [570664.8055632618, 5446480.268650846], [570671.6685254285, 5446486.271887485], [570688.8086929433, 5446492.4964398295], [570707.6690520273, 5446502.247511045], [570743.9326383478, 5446517.354405328], [570790.2176866925, 5446534.79823853], [570800.8392105254, 5446540.938202203], [570805.6517360219, 5446541.6334388815], [570846.2123711702, 5446569.117863398], [570871.404996265, 5446588.738809644], [570884.7086855045, 5446602.0440816395], [570890.9171467229, 5446612.544097754], [570895.9758708181, 5446615.075404563], [570900.6482058994, 5446612.049248086], [570901.9899924617, 5446612.533028806], [570907.4996460016, 5446622.051462699], [570908.3316244178, 5446623.488779938], [570914.317381741, 5446630.17965024], [570909.1307849374, 5446639.364456803], [570919.4659603236, 5446644.518808256], [570927.0882499787, 5446654.110133151], [570934.912118112, 5446661.272115649], [570936.4055016789, 5446664.886864558], [570940.7795110211, 5446669.801399918], [570959.1631522123, 5446680.858276727], [570966.374832932, 5446687.107047462], [570972.8195639076, 5446692.691354296], [570985.7842929848, 5446703.925233484], [570987.5758854618, 5446705.477594509], [570988.7979649486, 5446706.536651278], [571045.4734127735, 5446750.918140335], [571097.7268364702, 5446801.8574349135], [571118.1465318433, 5446819.120311543], [571129.0947405472, 5446828.375983244], [571140.6273520092, 5446838.125735898], [571169.8055229504, 5446862.31233474], [571188.0465523174, 5446864.881319766], [571198.2826091993, 5446866.322898266], [571225.4612575885, 5446873.812778824], [571231.036371163, 5446872.900003286], [571241.5241627247, 5446875.1469135005], [571258.0596494356, 5446883.201985861], [571270.0753071402, 5446886.1772324545], [571304.7177940953, 5446900.985113767], [571327.1020200179, 5446907.252559457], [571335.8275296914, 5446912.245351541], [571351.5848902665, 5446915.171520431], [571368.207120699, 5446910.352638978], [571381.0575136793, 5446903.365289426], [571391.5967014218, 5446900.962111617], [571408.3044721828, 5446891.601837526], [571413.2147874769, 5446884.100239736], [571416.9415623592, 5446883.165056671], [571430.0, 5446887.440545891], [571430.0, 5446361.987328053], [571423.1857361515, 5446361.379893315], [571416.6187413216, 5446364.905387007], [571408.6768263493, 5446359.942540891], [571400.4223401835, 5446360.843762703], [571389.702349654, 5446357.366089761], [571388.1754124961, 5446354.807024012], [571388.2121764867, 5446350.733384742], [571385.7394225734, 5446343.76008412], [571379.5093458373, 5446338.785551167], [571377.3998265427, 5446331.772412358], [571373.777665965, 5446327.035508773], [571366.6424995544, 5446320.790259958], [571351.7882112403, 5446314.639829082], [571344.2549608077, 5446306.4842293225], [571335.5821957733, 5446301.551496395], [571333.2016565702, 5446291.141269284], [571332.4039984809, 5446281.839660684], [571329.9057045855, 5446277.939105677], [571325.886700288, 5446276.07244345], [571311.9052362726, 5446274.454469194], [571292.3880170602, 5446261.012469519], [571281.7945003116, 5446265.075405129], [571270.5120645664, 5446256.329120076], [571265.5240598895, 5446250.430543325], [571256.5709301382, 5446245.712251945], [571255.2505656774, 5446241.211072212], [571256.5697909935, 5446235.959532585], [571255.9132191448, 5446228.527508012], [571254.1272790276, 5446224.8157824045], [571249.4699142841, 5446220.554000667], [571247.6056370286, 5446210.654890855], [571241.6308619257, 5446202.404780156], [571234.8432388642, 5446186.303821084], [571234.6315392243, 5446179.858649158], [571236.4547885515, 5446177.480414667], [571236.3982166329, 5446175.659229042], [571229.4725305517, 5446171.260205463], [571224.7254990593, 5446172.195014204], [571220.8854158779, 5446170.84280622], [571219.2793271077, 5446167.542061834], [571220.0370400815, 5446163.848942303], [571217.4114809615, 5446160.20148369], [571216.8169838019, 5446154.956481901], [571211.3579642863, 5446153.297161593], [571200.5273224616, 5446143.677755946], [571192.5371181449, 5446133.702408316], [571189.594060469, 5446127.625579421], [571183.8230937158, 5446124.582178574], [571177.3660947692, 5446116.78669673], [571168.2739780073, 5446110.881219433], [571161.1268850195, 5446101.735620778], [571154.7465634447, 5446099.6472914135], [571151.8784951059, 5446096.482609212], [571148.7571810676, 5446089.708282747], [571132.5116351419, 5446074.515067666], [571126.5719542706, 5446072.714695735], [571123.3890881193, 5446069.196144347], [571117.1074397729, 5446068.947587551], [571111.0051325068, 5446066.621591752], [571110.691539924, 5446062.513215242], [571112.8758895163, 5446059.30449464], [571113.3264308707, 5446055.465409911], [571108.2692379255, 5446050.694090224], [571107.6393303149, 5446047.037374572], [571105.2245107308, 5446043.645263508], [571097.9592816189, 5446037.314782488], [571088.7466978552, 5446033.080227552], [571083.5351694582, 5446028.206848807], [571071.964637475, 5446022.672081464], [571065.3656840697, 5446014.767065944], [571060.6877888144, 5446005.530233196], [571041.9912189856, 5446002.131520857], [571030.8136416188, 5445995.561360629], [571009.9834662185, 5445994.963250899], [571004.6249138794, 5445996.145119349], [570995.3143617437, 5445991.357740724], [570989.7218319391, 5445996.914090893], [570980.8501539064, 5446000.002405708], [570974.6925589171, 5445999.082947879], [570970.4655952627, 5446000.813221673], [570963.9575631578, 5445998.457433617], [570952.778983441, 5445999.192592598], [570940.8956258591, 5445991.114724435], [570937.4260407776, 5445986.113437814], [570932.6192990616, 5445983.858132696], [570924.6581602985, 5445967.447528076], [570919.8970880588, 5445963.343791563], [570914.4158282406, 5445965.09221229], [570906.5040104385, 5445975.006757705], [570895.4842983512, 5445974.0999585], [570890.6081596727, 5445976.077485953], [570876.898915248, 5445975.374115819], [570875.5170823368, 5445973.819504575], [570874.0539878225, 5445967.726291811], [570866.5581907231, 5445962.494967058], [570862.3376936952, 5445963.213275316], [570859.8708009248, 5445967.712240841], [570857.5066448182, 5445969.438568925], [570836.8239439988, 5445969.160055553], [570830.473235823, 5445974.453182826], [570825.1337936342, 5445973.175551391], [570819.1741772282, 5445974.079480011], [570798.8075304453, 5445968.307306205], [570796.8935970204, 5445967.356261913], [570793.3970131843, 5445960.775120411], [570785.877075124, 5445955.31931353], [570785.0408691132, 5445950.312492892], [570775.7672686817, 5445947.987541196], [570767.3804761077, 5445935.58001296], [570757.6334899978, 5445929.212141941], [570752.2828743234, 5445923.803099034], [570750.3727266158, 5445919.851972143], [570750.3643458982, 5445912.198742725], [570743.4920401172, 5445908.025684987], [570737.7590117271, 5445898.129256516], [570728.4544078012, 5445892.9635292515], [570723.0754386926, 5445885.45604229], [570716.0848240856, 5445882.658947152], [570710.9703244849, 5445873.69921978], [570697.5501976137, 5445870.747700699], [570684.5430226395, 5445863.954967133], [570677.0634362063, 5445853.31393173], [570670.3537334925, 5445849.543874046], [570665.8431803908, 5445843.550592516], [570660.9549666895, 5445842.087632838], [570657.161543391, 5445838.887370306], [570653.3928034226, 5445829.846275814], [570631.7358174147, 5445824.044413779], [570616.5776236848, 5445810.9247908695], [570606.0671197504, 5445805.673907098], [570597.4570717094, 5445794.975320855], [570585.5791129017, 5445793.375091688], [570582.0997104298, 5445797.760146152], [570574.1075253234, 5445800.283644399], [570569.1438184347, 5445797.580395261], [570563.6465878966, 5445798.036804092], [570552.6026604398, 5445805.095824659], [570546.0808445497, 5445806.769068693], [570540.9573687171, 5445803.166020195], [570536.8608551049, 5445797.59070999], [570531.6877384518, 5445797.913875272], [570520.2449738705, 5445793.434844971], [570513.495529253, 5445788.940409316], [570498.6509168238, 5445786.137099201], [570495.8817565993, 5445784.075579001], [570494.6084560017, 5445780.177337503], [570490.3336786506, 5445778.399556218], [570486.103022045, 5445770.40680047], [570466.5626596446, 5445749.556948542], [570464.8044239096, 5445743.709917223], [570463.4604389056, 5445731.598069876], [570457.0725868543, 5445721.984854766], [570445.0273384211, 5445715.303290622], [570437.01448201, 5445716.091831223], [570428.7379483165, 5445713.713249291], [570420.8128635343, 5445708.453146173], [570417.117151638, 5445705.1362320185], [570403.5631063349, 5445686.5935673565], [570393.3045041705, 5445676.979825969], [570385.5890428468, 5445672.262916443], [570380.7882166635, 5445665.009412025], [570371.5718634464, 5445659.997510125], [570360.4339767178, 5445646.821252362], [570355.6239068365, 5445630.925678636], [570354.8975508079, 5445620.389605844], [570350.8509419491, 5445615.96073039], [570350.0938246418, 5445609.21844231], [570340.2831821939, 5445593.87917012], [570340.3042055687, 5445589.797105917], [570338.2979823935, 5445585.121770919], [570338.1822338726, 5445581.530111299], [570340.3581606811, 5445574.241100073], [570334.0176478775, 5445570.173274848], [570326.7116111029, 5445569.034163972], [570324.8470387158, 5445565.561587995], [570323.4356846317, 5445558.211458849], [570317.980489516, 5445554.012435908], [570313.9915792084, 5445545.432631533], [570309.6972170146, 5445540.820528503], [570308.5034959209, 5445536.4857468195], [570311.4352321032, 5445527.657535866], [570308.9556135428, 5445518.69412702], [570292.5733669249, 5445507.942478505], [570286.8919618961, 5445498.4931561565], [570279.4800196837, 5445494.262869464], [570277.9618520221, 5445490.722717781], [570278.0812334061, 5445487.501768917], [570270.9490434637, 5445481.838559475], [570270.0561399679, 5445479.80815421], [570270.2765079336, 5445474.696210781], [570266.150755464, 5445468.711703247], [570260.6523374266, 5445467.962651228], [570253.4769803116, 5445462.429433951], [570247.3606820393, 5445461.71685908], [570238.1290698543, 5445456.180899109], [570221.9761216361, 5445455.899348121], [570216.3848905473, 5445450.74756936], [570203.1197544477, 5445444.159645698], [570196.6730311874, 5445447.262799367], [570188.6024595216, 5445445.68073985], [570177.333765832, 5445433.098133971], [570172.5093900212, 5445424.1349886535], [570171.1973235692, 5445419.531659334], [570169.1222886238, 5445396.573519247], [570165.8435594185, 5445380.570878887], [570152.6516218693, 5445370.235539575], [570147.7773898611, 5445364.380212162], [570134.589959254, 5445355.448595812], [570111.9016092339, 5445344.614362222], [570110.0, 5445345.073211074], [570110.0, 5446013.328506226], [570111.3032708402, 5446014.011901192], [570124.0189508308, 5446021.737071274], [570132.163111743, 5446026.343410196], [570132.5458579471, 5446026.559896861], [570134.2790228204, 5446027.540139295], [570137.1478984891, 5446029.467479673], [570130.4218148832, 5446018.616265322], [570129.0825076456, 5446013.607354198], [570125.0697012618, 5446004.1018308], [570122.6940319653, 5445995.877736735], [570140.6944724524, 5446010.603392258], [570160.4039187278, 5446020.938747575], [570165.7125075193, 5446026.04864203], [570172.2288907124, 5446033.695097541], [570180.2790018843, 5446040.268485938], [570180.4511086629, 5446042.043489308], [570182.175266904, 5446045.035129772], [570189.5618479128, 5446048.9377259], [570198.0825356711, 5446050.320685751], [570206.7361671615, 5446050.521820923], [570211.6955721778, 5446050.584834965], [570215.8449347271, 5446052.082298632], [570215.1909683733, 5446048.984037657], [570216.8010701697, 5446047.6701648515], [570222.4793554246, 5446054.401245429], [570229.9588070078, 5446054.195681319], [570234.7771405755, 5446056.00152271], [570249.6582845856, 5446066.025254289], [570252.4774098644, 5446070.03525452], [570259.9269470276, 5446074.5891013555], [570261.8373295921, 5446079.122461014], [570266.3968225814, 5446081.629952651], [570265.0195539896, 5446085.820560079], [570266.1156025892, 5446088.091875271], [570279.0230203178, 5446097.32537603], [570287.2911548481, 5446100.517351924], [570294.4318694953, 5446107.092460159], [570297.159715732, 5446113.333791639], [570301.6576215664, 5446119.047379974], [570309.8868129819, 5446122.688301565], [570315.9643814581, 5446128.3847391], [570324.7479270764, 5446140.116782685], [570342.6077829108, 5446154.555387594], [570343.7867466853, 5446160.757592414], [570356.028794964, 5446167.137172607], [570371.0397288225, 5446180.876213181], [570379.0624442231, 5446184.318856443], [570383.2437432413, 5446188.222152873], [570387.5499025347, 5446198.424699299], [570387.8429697496, 5446198.708436069], [570393.6827820619, 5446204.3638151], [570392.5590506829, 5446205.955724071], [570389.9411585472, 5446205.388507818], [570380.3556554485, 5446211.569372682], [570363.4116412934, 5446211.353396945], [570313.3819732019, 5446212.606779838], [570283.1109933223, 5446206.419139998], [570270.6474920111, 5446203.871469205], [570256.0532350413, 5446200.3564772075], [570244.6670435497, 5446194.885498087], [570210.1533612801, 5446184.068792371], [570169.4746050485, 5446164.347244276], [570162.3451720022, 5446160.890928492], [570110.0, 5446140.3824385395], [570110.0, 5446927.150785295], [570119.7071441726, 5446937.3820346845]], [[570462.6456097132, 5446742.601962329], [570467.2583152258, 5446745.5010190355], [570474.0037489968, 5446755.556864546], [570484.373860057, 5446764.190278499], [570493.4053950018, 5446781.433947796], [570494.5952312013, 5446785.258007973], [570495.8638348896, 5446797.80350887], [570500.7650085159, 5446816.688527345], [570509.1337496496, 5446833.948793906], [570516.1187215341, 5446840.09979589], [570520.2722105543, 5446852.521933256], [570524.1518534052, 5446859.6913574925], [570527.2157058824, 5446883.3916446725], [570525.160385006, 5446887.060681737], [570519.5382914571, 5446886.504478283], [570518.7648154956, 5446882.448965688], [570514.0619852776, 5446877.193966458], [570511.3271787548, 5446865.603625401], [570509.3315915873, 5446862.726787348], [570502.9447879309, 5446858.818413896], [570500.0411379035, 5446854.382246183], [570494.4334604323, 5446851.85798349], [570489.7563941295, 5446847.713634515], [570483.9973056174, 5446842.610486286], [570481.2084552182, 5446844.028747912], [570478.2750430339, 5446850.236822078], [570478.3543883376, 5446857.436477515], [570479.6009328872, 5446861.198622971], [570476.4965336897, 5446865.641239332], [570476.2073412158, 5446871.70750469], [570474.5506959456, 5446872.054228565], [570469.8362173446, 5446868.197444884], [570461.67289396, 5446864.568628739], [570458.2073937498, 5446859.051052966], [570452.9290339225, 5446855.1412858525], [570442.5419205631, 5446840.628497732], [570437.6637813507, 5446838.5749198925], [570427.4738911346, 5446829.971708611], [570424.605079622, 5446821.4143679375], [570420.5888079867, 5446818.807837123], [570415.434927087, 5446811.718010789], [570411.0543624654, 5446807.48294797], [570396.7275072797, 5446800.115382258], [570380.4401867968, 5446785.796430646], [570375.7212827338, 5446778.3601714345], [570361.1763204273, 5446765.000340978], [570353.4218430213, 5446753.11253762], [570334.6650021999, 5446734.961510402], [570330.8414367819, 5446728.403903784], [570304.9862804667, 5446700.1299802195], [570290.2295038351, 5446688.716454609], [570268.7080620448, 5446667.658820042], [570260.3448221938, 5446662.439802714], [570255.9812914556, 5446656.266615048], [570245.4260103279, 5446647.995950165], [570231.1792651126, 5446632.6142015075], [570226.8326520689, 5446630.208545155], [570224.8371417717, 5446626.260392124], [570214.8749014669, 5446617.145164587], [570211.622845361, 5446612.108524346], [570204.8812473442, 5446607.97436426], [570196.3672068296, 5446599.623151374], [570189.8297080225, 5446599.901892105], [570185.1319172727, 5446598.0884108255], [570182.5961873997, 5446594.275058631], [570177.0092765447, 5446592.7754505295], [570176.0338928796, 5446587.643674881], [570174.3368464082, 5446584.8535453575], [570173.0909368708, 5446577.671158334], [570179.1169090273, 5446564.242858046], [570179.3879921759, 5446556.228713664], [570178.3303331434, 5446549.559670403], [570175.5757781547, 5446543.306841219], [570165.676548687, 5446532.214281484], [570165.7735922334, 5446529.305256474], [570183.0005519246, 5446529.825458442], [570201.385000474, 5446534.279041813], [570241.4752441756, 5446539.780878659], [570249.7817858757, 5446543.188428941], [570267.4821913887, 5446546.146847971], [570282.6319588389, 5446551.996671719], [570288.5941969614, 5446556.847279027], [570292.9477723878, 5446557.982731932], [570300.2322656667, 5446562.8116611615], [570312.4350627271, 5446566.111328818], [570328.4839959098, 5446578.192596215], [570334.4661360835, 5446580.577399622], [570348.8469234493, 5446592.421236794], [570356.6079005913, 5446599.372861275], [570359.6027348418, 5446607.335193197], [570367.4873683478, 5446615.589429929], [570374.4557052534, 5446625.797010525], [570380.6086975951, 5446634.810257956], [570381.9044940555, 5446638.920154791], [570387.6818528173, 5446643.818949568], [570394.4460222055, 5446654.877590939], [570406.2567580843, 5446663.137203072], [570412.8499193493, 5446672.359693841], [570416.8680613739, 5446675.438815349], [570426.9096373812, 5446691.248827485], [570439.3207976682, 5446698.758997014], [570446.1944219982, 5446713.666031754], [570449.4496676262, 5446716.869609631], [570457.3510006435, 5446730.09071548], [570462.6456097132, 5446742.601962329]], [[571338.9125885532, 5446792.284889086], [571349.542956694, 5446802.26784849], [571357.0226191741, 5446809.29167432], [571362.1261824765, 5446814.084484228], [571366.8172359144, 5446824.643221859], [571373.602148579, 5446839.9149121], [571373.8324833313, 5446840.43324322], [571379.2127713348, 5446850.555803872], [571376.4099959973, 5446865.478475122], [571370.8491183158, 5446874.247339143], [571358.4876027509, 5446881.3110666275], [571352.9979439927, 5446882.706750802], [571330.9490640525, 5446881.886647903], [571314.7913853367, 5446883.199782899], [571303.0990898054, 5446880.5129649285], [571293.1404566562, 5446875.802179373], [571275.2095950032, 5446873.187364894], [571264.6027546853, 5446868.676929316], [571246.9162390569, 5446864.006188913], [571184.8713462292, 5446853.591436305], [571163.4734582757, 5446843.175476515], [571159.9660283612, 5446841.124106083], [571155.4812250655, 5446833.508250806], [571140.6842870497, 5446820.093978993], [571121.4709868716, 5446794.880145511], [571103.9586740221, 5446782.953895261], [571094.3018321707, 5446772.753845816], [571086.4560339228, 5446768.307454622], [571083.4939887398, 5446763.814243207], [571073.4781801291, 5446756.894302664], [571056.3950064335, 5446737.932450671], [571039.9117552008, 5446729.020331662], [571037.2439156342, 5446724.620639619], [571030.7237264977, 5446718.760259417], [571017.1764318005, 5446707.544432063], [571012.1398279562, 5446705.1097616665], [570997.5610300638, 5446691.560059866], [570987.1763383065, 5446680.848119212], [570974.3902972442, 5446663.151972389], [570973.335988772, 5446653.733376021], [570963.6419724296, 5446635.993426525], [570946.8232276884, 5446621.863595791], [570911.6027855045, 5446599.473181343], [570901.0719199751, 5446588.384655952], [570889.6501151196, 5446580.235567889], [570883.3069821479, 5446571.722288373], [570872.7029511164, 5446550.478271127], [570868.6538024056, 5446546.842440186], [570847.1670331338, 5446536.506097681], [570837.3129993988, 5446535.70868713], [570829.3217910262, 5446531.950710402], [570822.8493588625, 5446526.89459317], [570809.7495559687, 5446521.030466248], [570798.6497050406, 5446520.164607383], [570791.5472314709, 5446514.470102419], [570785.1810684614, 5446515.178170874], [570781.1145289221, 5446513.825931877], [570771.5111698615, 5446506.773112028], [570764.4718988398, 5446505.334935054], [570742.1930784851, 5446492.66294787], [570731.2859588604, 5446488.350798625], [570709.4267124243, 5446473.371364454], [570684.1147344057, 5446464.569975179], [570665.9059368458, 5446454.108861921], [570650.0789566764, 5446445.647679873], [570639.9153614148, 5446440.214025028], [570633.4183314455, 5446442.19509173], [570624.4894529602, 5446437.8755660625], [570619.0116051588, 5446437.183650268], [570616.9958526129, 5446431.296609928], [570604.5420697175, 5446424.333194601], [570599.3378396828, 5446424.340347738], [570595.3433407232, 5446427.326965679], [570570.6391974152, 5446418.994406341], [570561.2101109388, 5446413.709578291], [570556.2588227788, 5446414.94840741], [570553.224191467, 5446417.415691195], [570549.3744909213, 5446412.596409818], [570537.2689010294, 5446409.55881793], [570524.7800424765, 5446411.856376075], [570520.4605640856, 5446406.2970036995], [570515.6180022248, 5446405.788661576], [570507.2736573493, 5446397.926795901], [570489.3217708835, 5446389.38275025], [570479.9141110664, 5446383.14372915], [570474.7710537247, 5446376.67755638], [570463.6330015047, 5446373.831043996], [570457.3057048806, 5446367.617920746], [570453.1775318951, 5446365.715474595], [570442.1431200319, 5446354.058151272], [570441.5601824585, 5446353.442282624], [570437.3165442212, 5446343.808718401], [570431.4995088982, 5446336.094911377], [570432.6731822682, 5446333.8422692185], [570442.4912697122, 5446331.143990629], [570453.3454837322, 5446332.395361437], [570460.8881779658, 5446331.068464804], [570475.4339140055, 5446334.624234391], [570507.8411802193, 5446334.53518196], [570508.9989208577, 5446335.38500259], [570535.5472531986, 5446335.025097435], [570571.2016491243, 5446338.155370843], [570596.8181584557, 5446335.9400344705], [570603.7480563918, 5446338.911961369], [570622.8085517602, 5446341.271894562], [570635.5050466915, 5446349.297623462], [570642.1476664345, 5446351.370794792], [570649.7863505427, 5446360.99513344], [570658.125556953, 5446366.152044953], [570660.9086826129, 5446370.1164443465], [570668.2542074879, 5446375.17592278], [570677.5399332626, 5446385.139437882], [570684.8958946875, 5446386.72918772], [570688.2961414983, 5446392.44031169], [570696.6882628412, 5446396.821139093], [570703.8672127676, 5446405.039793131], [570709.9801677405, 5446409.074269316], [570712.3038095451, 5446410.607845528], [570784.0847372789, 5446457.983838952], [570883.1129725518, 5446515.721945404], [570956.9222393188, 5446558.283179811], [570994.3988096237, 5446579.893467723], [571074.4575026088, 5446624.646778349], [571086.3050171123, 5446631.269567489], [571143.5895460967, 5446655.535629142], [571168.1687747438, 5446663.695158178], [571169.4738921663, 5446665.973294885], [571177.221631802, 5446679.497333125], [571241.521466979, 5446717.971765788], [571258.9424957205, 5446722.902286682], [571280.3146915231, 5446740.432194458], [571326.0829420656, 5446780.236832678], [571334.4218091398, 5446788.067583055], [571338.9125885532, 5446792.284889086]]], [[[570110.2540836888, 5446067.053101497], [570118.006195784, 5446069.882214927], [570120.2576778755, 5446067.967331667], [570118.5461497366, 5446064.719840222], [570110.0, 5446058.613476379], [570110.0, 5446066.852905784], [570110.2540836888, 5446067.053101497]]]]}}, {"type": "Feature", "properties": {"class": 2, "timestamp_utc": "2025-12-19 01:50:14+00:00", "source_product": "Flood_CAN_BC_LowerFraser_20251219_015014"}, "geometry": {"type": "MultiPolygon", "coordinates": [[[[570283.1109933223, 5446206.419139998], [570313.3819732019, 5446212.606779838], [570363.4116412934, 5446211.353396945], [570380.3556554485, 5446211.569372682], [570389.9411585472, 5446205.388507818], [570392.5590506829, 5446205.955724071], [570393.6827820619, 5446204.3638151], [570387.8429697496, 5446198.708436069], [570387.5499025347, 5446198.424699299], [570383.2437432413, 5446188.222152873], [570379.0624442231, 5446184.318856443], [570371.0397288225, 5446180.876213181], [570356.028794964, 5446167.137172607], [570343.7867466853, 5446160.757592414], [570342.6077829108, 5446154.555387594], [570324.7479270764, 5446140.116782685], [570315.9643814581, 5446128.3847391], [570309.8868129819, 5446122.688301565], [570301.6576215664, 5446119.047379974], [570297.159715732, 5446113.333791639], [570294.4318694953, 5446107.092460159], [570287.2911548481, 5446100.517351924], [570279.0230203178, 5446097.32537603], [570266.1156025892, 5446088.091875271], [570265.0195539896, 5446085.820560079], [570266.3968225814, 5446081.629952651], [570261.8373295921, 5446079.122461014], [570259.9269470276, 5446074.5891013555], [570252.4774098644, 5446070.03525452], [570249.6582845856, 5446066.025254289], [570234.7771405755, 5446056.00152271], [570229.9588070078, 5446054.195681319], [570222.4793554246, 5446054.401245429], [570216.8010701697, 5446047.6701648515], [570215.1909683733, 5446048.984037657], [570215.8449347271, 5446052.082298632], [570211.6955721778, 5446050.584834965], [570206.7361671615, 5446050.521820923], [570198.0825356711, 5446050.320685751], [570189.5618479128, 5446048.9377259], [570182.175266904, 5446045.035129772], [570180.4511086629, 5446042.043489308], [570180.2790018843, 5446040.268485938], [570172.2288907124, 5446033.695097541], [570165.7125075193, 5446026.04864203], [570160.4039187278, 5446020.938747575], [570140.6944724524, 5446010.603392258], [570122.6940319653, 5445995.877736735], [570125.0697012618, 5446004.1018308], [570129.0825076456, 5446013.607354198], [570130.4218148832, 5446018.616265322], [570137.1478984891, 5446029.467479673], [570134.2790228204, 5446027.540139295], [570132.5458579471, 5446026.559896861], [570132.163111743, 5446026.343410196], [570124.0189508308, 5446021.737071274], [570111.3032708402, 5446014.011901192], [570110.0, 5446013.328506226], [570110.0, 5446058.613476379], [570118.5461497366, 5446064.719840222], [570120.2576778755, 5446067.967331667], [570118.006195784, 5446069.882214927], [570110.2540836888, 5446067.053101497], [570110.0, 5446066.852905784], [570110.0, 5446140.3824385395], [570162.3451720022, 5446160.890928492], [570169.4746050485, 5446164.347244276], [570210.1533612801, 5446184.068792371], [570244.6670435497, 5446194.885498087], [570256.0532350413, 5446200.3564772075], [570270.6474920111, 5446203.871469205], [570283.1109933223, 5446206.419139998]]], [[[570660.9086826129, 5446370.1164443465], [570658.125556953, 5446366.152044953], [570649.7863505427, 5446360.99513344], [570642.1476664345, 5446351.370794792], [570635.5050466915, 5446349.297623462], [570622.8085517602, 5446341.271894562], [570603.7480563918, 5446338.911961369], [570596.8181584557, 5446335.9400344705], [570571.2016491243, 5446338.155370843], [570535.5472531986, 5446335.025097435], [570508.9989208577, 5446335.38500259], [570507.8411802193, 5446334.53518196], [570475.4339140055, 5446334.624234391], [570460.8881779658, 5446331.068464804], [570453.3454837322, 5446332.395361437], [570442.4912697122, 5446331.143990629], [570432.6731822682, 5446333.8422692185], [570431.4995088982, 5446336.094911377], [570437.3165442212, 5446343.808718401], [570441.5601824585, 5446353.442282624], [570442.1431200319, 5446354.058151272], [570447.1946285403, 5446348.738274653], [570525.7436690658, 5446357.893105842], [570588.3908453475, 5446401.021672907], [570632.9660891362, 5446394.274274043], [570764.2852436414, 5446497.156325246], [570956.0824677516, 5446559.315898487], [570956.9222393188, 5446558.283179811], [570883.1129725518, 5446515.721945404], [570784.0847372789, 5446457.983838952], [570712.3038095451, 5446410.607845528], [570709.9801677405, 5446409.074269316], [570703.8672127676, 5446405.039793131], [570696.6882628412, 5446396.821139093], [570688.2961414983, 5446392.44031169], [570684.8958946875, 5446386.72918772], [570677.5399332626, 5446385.139437882], [570668.2542074879, 5446375.17592278], [570660.9086826129, 5446370.1164443465]]], [[[571074.4575026088, 5446624.646778349], [571075.354874017, 5446628.946441917], [571165.9537046172, 5446671.350376828], [571169.4738921663, 5446665.973294885], [571168.1687747438, 5446663.695158178], [571143.5895460967, 5446655.535629142], [571086.3050171123, 5446631.269567489], [571074.4575026088, 5446624.646778349]]], [[[570525.160385006, 5446887.060681737], [570527.2157058824, 5446883.3916446725], [570524.1518534052, 5446859.6913574925], [570520.2722105543, 5446852.521933256], [570516.1187215341, 5446840.09979589], [570509.1337496496, 5446833.948793906], [570500.7650085159, 5446816.688527345], [570495.8638348896, 5446797.80350887], [570494.5952312013, 5446785.258007973], [570493.4053950018, 5446781.433947796], [570484.373860057, 5446764.190278499], [570474.0037489968, 5446755.556864546], [570467.2583152258, 5446745.5010190355], [570462.6456097132, 5446742.601962329], [570457.3510006435, 5446730.09071548], [570449.4496676262, 5446716.869609631], [570446.1944219982, 5446713.666031754], [570439.3207976682, 5446698.758997014], [570426.9096373812, 5446691.248827485], [570416.8680613739, 5446675.438815349], [570412.8499193493, 5446672.359693841], [570406.2567580843, 5446663.137203072], [570394.4460222055, 5446654.877590939], [570387.6818528173, 5446643.818949568], [570381.9044940555, 5446638.920154791], [570380.6086975951, 5446634.810257956], [570374.4557052534, 5446625.797010525], [570493.4638683925, 5446839.792815816], [570489.7563941295, 5446847.713634515], [570494.4334604323, 5446851.85798349], [570500.0411379035, 5446854.382246183], [570502.9447879309, 5446858.818413896], [570509.3315915873, 5446862.726787348], [570511.3271787548, 5446865.603625401], [570514.0619852776, 5446877.193966458], [570518.7648154956, 5446882.448965688], [570519.5382914571, 5446886.504478283], [570525.160385006, 5446887.060681737]]], [[[570230.9340454387, 5447187.657222443], [570220.9163120211, 5447194.645478523], [570216.2609893959, 5447196.050162471], [570212.0341402208, 5447205.080354875], [570234.6839234664, 5447215.682248899], [570259.0826825824, 5447163.556875041], [570258.9050703906, 5447163.619415444], [570241.905640351, 5447175.599952667], [570230.9340454387, 5447187.657222443]]], [[[571237.5947926475, 5447394.330719477], [571246.6407919324, 5447394.155483859], [571252.2454399162, 5447388.88492604], [571260.8643233615, 5447385.730903715], [571276.6505570007, 5447383.024457254], [571285.7901609867, 5447385.219059669], [571289.0714436133, 5447383.110137787], [571132.4202594105, 5447374.132624594], [571144.4192297332, 5447380.944019441], [571164.1127122144, 5447382.712726078], [571174.7492589594, 5447388.951268765], [571187.1777809898, 5447388.732302319], [571210.9785538781, 5447397.394624507], [571226.2419793592, 5447393.197649188], [571228.2601766152, 5447394.282510211], [571229.2514068007, 5447397.54741205], [571231.6553057812, 5447398.077209813], [571237.5947926475, 5447394.330719477]]], [[[571408.4909225838, 5447476.451883035], [571379.7142331757, 5447479.006259003], [571373.3598830405, 5447481.180224548], [571350.7175895419, 5447482.3467726], [571345.1031236508, 5447481.88997677], [571372.0032527375, 5447499.500440406], [571427.9052965484, 5447498.052180549], [571430.0, 5447493.576593134], [571430.0, 5447472.279975791], [571408.4909225838, 5447476.451883035]]], [[[571185.33935767, 5447582.651053767], [571188.1472093456, 5447582.578338373], [571187.0426337624, 5447582.150917172], [571185.33935767, 5447582.651053767]]]]}}, {"type": "Feature", "properties": {"role": "valid_footprint"}, "geometry": {"type": "Polygon", "coordinates": [[[570110.0, 5444740.0, 0.0], [570110.0, 5447740.0, 0.0], [571430.0, 5447740.0, 0.0], [571430.0, 5444740.0, 0.0], [570110.0, 5444740.0, 0.0]]]}}]}