{"type": "FeatureCollection", "crs": {"type": "name", "properties": {"name": "EPSG:32610"}}, "features": [{"type": "Feature", "properties": {"class": 1, "timestamp_utc": "2025-12-15 01:50:37+00:00", "source_product": "Flood_CAN_BC_LowerFraser_20251215_015037"}, "geometry": {"type": "MultiPolygon", "coordinates": [[[[570230.9340454461, 5447187.657222442], [570241.9056403603, 5447175.599952664], [570258.9050703942, 5447163.619415452], [570278.8667619864, 5447156.590957879], [570279.9418990967, 5447150.5896463785], [570276.9406641118, 5447144.6919971155], [570270.8856609516, 5447141.601768625], [570261.9282931379, 5447142.599573896], [570253.914048591, 5447145.666296873], [570234.8908697555, 5447158.566134685], [570218.8190893779, 5447167.545463715], [570200.8071864167, 5447180.613929865], [570195.9084671965, 5447188.634680563], [570195.9286187362, 5447191.636955262], [570200.8120540938, 5447194.556442265], [570210.8395111661, 5447197.686022913], [570220.9163120212, 5447194.64547852], [570230.9340454461, 5447187.657222442]]], [[[570137.8912128719, 5447252.661887768], [570155.8561418048, 5447249.565872449], [570158.9126302738, 5447250.54979178], [570181.8735834411, 5447250.686066944], [570184.9489703643, 5447249.613313751], [570190.8413122616, 5447242.561397431], [570193.8125444464, 5447241.654052695], [570201.8889529064, 5447233.684855191], [570205.8802622813, 5447231.667609803], [570206.8465825955, 5447229.622996646], [570203.9116011673, 5447227.684352449], [570196.8828164024, 5447226.649913514], [570174.8978369597, 5447234.597892082], [570171.8413495405, 5447233.61397502], [570149.9302430314, 5447234.602970187], [570128.9277631408, 5447234.647246627], [570124.9238105387, 5447233.651357379], [570119.8247474798, 5447235.643450685], [570114.8237283692, 5447242.551156262], [570110.0, 5447245.379554948], [570110.0, 5447249.796171648], [570125.8849167009, 5447252.664929241], [570137.8912128719, 5447252.661887768]]], [[[570210.8038480484, 5447724.677425733], [570233.8668970864, 5447724.659604549], [570240.8939945699, 5447720.624162741], [570242.897619813, 5447716.6914525265], [570230.8248322897, 5447707.676417222], [570224.8728926164, 5447705.699378401], [570215.8212220649, 5447705.584176998], [570196.8241268203, 5447701.695551115], [570174.9253266292, 5447695.557554727], [570167.8467028231, 5447695.623210565], [570164.8105803839, 5447697.6415059455], [570163.9147604302, 5447701.599481118], [570167.8516303143, 5447709.565788859], [570174.8998008698, 5447713.613661492], [570196.8880849174, 5447719.586003712], [570207.9079738171, 5447723.695469145], [570210.8038480484, 5447724.677425733]]], [[[570119.7071441801, 5446937.382034681], [570136.727641743, 5446944.997922378], [570144.8445327558, 5446951.330981017], [570155.1265045104, 5446955.433603465], [570163.1567011693, 5446962.739992274], [570173.5334344809, 5446976.163523757], [570182.262300508, 5446981.432241071], [570185.6747879456, 5446987.516085777], [570190.187533593, 5446988.901552458], [570196.7370447698, 5446996.107961059], [570198.1401257005, 5447001.442207606], [570209.2792877007, 5447011.589957766], [570211.1957423605, 5447022.394242471], [570229.0485492933, 5447033.255741471], [570237.121303882, 5447043.036199633], [570241.1496862469, 5447044.970395554], [570244.4998173206, 5447050.734460359], [570249.4846303267, 5447055.717403535], [570256.3847607954, 5447071.20037153], [570267.155359535, 5447082.893064198], [570278.2125049458, 5447091.1656407], [570280.3151439527, 5447096.8317573825], [570287.4313754983, 5447102.520778499], [570296.2329568566, 5447116.081747492], [570303.404590636, 5447131.090962665], [570302.4324334447, 5447139.38788377], [570306.0641652038, 5447146.280009614], [570308.5915548105, 5447160.234223249], [570311.2952591251, 5447165.7984329015], [570316.7227405665, 5447170.612052794], [570318.5049032489, 5447178.10730451], [570324.7407660316, 5447183.029700749], [570326.9390550602, 5447187.429677864], [570327.2620448463, 5447190.9869976025], [570335.2463227152, 5447205.543821809], [570345.1058966022, 5447216.372699127], [570345.7348973067, 5447222.055928426], [570351.3502057218, 5447237.067862617], [570356.1180649339, 5447241.049087089], [570359.2056874788, 5447245.901678139], [570359.3758011148, 5447251.97538011], [570356.7547364247, 5447258.721856009], [570358.4876034358, 5447264.399358052], [570357.973984132, 5447270.448567065], [570357.9099916972, 5447271.202162627], [570359.8805563085, 5447280.89530876], [570362.4686556485, 5447283.858455496], [570363.677968876, 5447290.661575471], [570367.1993137477, 5447295.909695833], [570368.3474610639, 5447297.620860644], [570372.6980788022, 5447300.055990422], [570375.5568091105, 5447303.637311353], [570380.3981929461, 5447314.299793042], [570381.9190750285, 5447322.85358404], [570387.732398604, 5447327.546164025], [570396.8396994096, 5447331.834443117], [570398.603980322, 5447337.584089705], [570407.299455396, 5447344.635228162], [570410.5774879256, 5447364.923906726], [570409.8857076335, 5447371.430303864], [570417.9732517917, 5447386.861656868], [570420.7296120623, 5447394.961049018], [570429.6553619978, 5447403.214526155], [570429.8322997838, 5447409.724411403], [570434.2856116028, 5447415.885574463], [570436.2363456471, 5447424.776438188], [570445.5350554258, 5447434.904306218], [570447.4016338714, 5447439.158862979], [570448.221859965, 5447441.543031581], [570447.5663365799, 5447445.801089874], [570449.3487901965, 5447450.126831628], [570452.4186979812, 5447453.271207112], [570460.1746010012, 5447455.45130561], [570461.5868040412, 5447458.80066332], [570462.1020962702, 5447465.743951378], [570472.6216564882, 5447474.851676024], [570478.1039642959, 5447487.901677253], [570478.8414726387, 5447500.0429336], [570485.7661616845, 5447506.245327938], [570487.2001779951, 5447512.91066584], [570495.308367447, 5447525.435821658], [570498.4830033802, 5447527.820831133], [570501.7218791551, 5447535.040485273], [570503.175269994, 5447541.46859186], [570509.2577531352, 5447548.5359042855], [570510.9348449882, 5447555.878319026], [570515.4033096845, 5447560.773086593], [570517.2815763225, 5447566.914086357], [570521.1274281278, 5447570.472570471], [570521.3247560519, 5447576.61097495], [570520.3028045004, 5447580.474429352], [570521.926497391, 5447586.012502488], [570534.1882684357, 5447615.958111528], [570545.1506516549, 5447633.891534749], [570549.2420666025, 5447646.4893486025], [570551.1934713818, 5447649.524487444], [570551.505109864, 5447654.009951604], [570555.1359055522, 5447657.454520684], [570557.3152446626, 5447663.296861328], [570557.8255887692, 5447669.045004906], [570563.4820108193, 5447675.573812471], [570570.62440461, 5447689.650501293], [570578.14104118, 5447698.906683385], [570580.2462641419, 5447709.147822521], [570588.2386377122, 5447716.035509383], [570586.9499087797, 5447719.291445079], [570587.2704923938, 5447724.62384238], [570597.7846848103, 5447732.256726523], [570598.3939860952, 5447734.669198303], [570597.5657653182, 5447738.28868781], [570599.0885994096, 5447740.0], [571330.4844040531, 5447740.0], [571325.1461585291, 5447732.399859391], [571317.6106959517, 5447728.007083579], [571308.3536202665, 5447716.876292073], [571306.3599350386, 5447717.136032438], [571305.8462491847, 5447719.937387141], [571307.23911937, 5447724.833870801], [571303.1716223377, 5447729.274358984], [571300.6852351459, 5447738.242176072], [571292.5381518083, 5447734.528460733], [571279.927274206, 5447734.20934721], [571267.9494130256, 5447730.685251821], [571263.5267269402, 5447732.505307558], [571261.3221518747, 5447731.77611797], [571256.387698959, 5447727.591180211], [571253.4950962206, 5447719.010622771], [571242.491769671, 5447704.923085189], [571238.7186891286, 5447695.833238423], [571237.1937636577, 5447687.89391377], [571238.3899370006, 5447680.894609677], [571234.6086115313, 5447676.773340292], [571230.2240597547, 5447664.687984586], [571220.1407010258, 5447646.983064054], [571210.762384087, 5447637.959201019], [571209.3713222061, 5447632.440631293], [571201.93674788, 5447618.619601182], [571196.1087344525, 5447612.417132124], [571185.4081457359, 5447593.911947691], [571184.0754666908, 5447587.53711472], [571184.5905372828, 5447582.870933801], [571187.0426337679, 5447582.150917178], [571195.7337110667, 5447585.514016363], [571210.8253965242, 5447594.120482609], [571233.1021332247, 5447608.07127087], [571248.815984842, 5447622.711162059], [571251.420687737, 5447622.250327088], [571251.4443519381, 5447622.186847357], [571252.9594186887, 5447618.127314713], [571255.0376365463, 5447617.174868358], [571264.8964671759, 5447621.78805472], [571273.1134093881, 5447622.084044324], [571290.4234198993, 5447627.388066336], [571295.8481530499, 5447627.108369921], [571321.0508196076, 5447635.3056510305], [571353.086990858, 5447639.075805596], [571360.4914271474, 5447643.3520169], [571364.7550052681, 5447644.992067069], [571388.551222379, 5447654.145575574], [571428.7038294139, 5447654.313187672], [571430.0, 5447654.166976341], [571430.0, 5447557.285929498], [571423.8716100375, 5447561.575216542], [571423.0545666406, 5447558.971694326], [571426.4475278008, 5447553.180627888], [571425.5929301231, 5447550.924010352], [571417.3472830836, 5447551.14488649], [571396.8202119912, 5447546.949472397], [571392.8885778124, 5447540.6196115], [571386.2970772713, 5447536.801207872], [571380.2999096572, 5447537.216133257], [571371.3177500463, 5447533.500384099], [571361.6465939336, 5447532.106299118], [571330.8697900877, 5447536.19417093], [571315.2985857953, 5447533.435826084], [571308.9783850341, 5447530.260173352], [571304.799540759, 5447532.491441775], [571300.8933910562, 5447528.889423105], [571293.63260476, 5447526.04557634], [571274.0564349857, 5447522.555886551], [571270.6735678387, 5447516.920220639], [571260.8525783329, 5447513.8875986], [571256.370433466, 5447510.300943861], [571252.6282180108, 5447510.004060411], [571244.8220985773, 5447505.007454334], [571241.7256845821, 5447501.204556671], [571238.5907310607, 5447501.1488169], [571234.440768519, 5447496.668369327], [571229.4567085457, 5447499.551030998], [571227.9022704705, 5447498.730718843], [571226.299380662, 5447493.707246004], [571224.4867767234, 5447492.024991621], [571208.6768955699, 5447487.98079872], [571193.7652979224, 5447481.1418655785], [571185.4351364108, 5447476.455525413], [571184.3805140749, 5447474.371459612], [571188.5692954017, 5447468.307877346], [571198.5283658503, 5447466.979479406], [571238.158292131, 5447476.522908384], [571267.8407371691, 5447477.3713949565], [571307.7195284378, 5447474.994513637], [571329.8081157113, 5447477.882965551], [571339.2405646711, 5447481.412970451], [571350.7175895494, 5447482.346772596], [571363.4492596576, 5447481.690835747], [571373.3598830441, 5447481.180224554], [571379.7142331813, 5447479.006259001], [571408.4909225913, 5447476.451883033], [571425.7781537907, 5447473.09883758], [571430.0, 5447472.279973515], [571430.0, 5447396.043641902], [571414.5347410865, 5447393.474496436], [571409.3009618866, 5447391.104455549], [571388.4946547882, 5447387.977894909], [571382.6685049818, 5447384.593912411], [571370.3706423759, 5447383.136767875], [571366.0045621179, 5447381.197126385], [571341.5283047431, 5447380.182108526], [571328.6285765854, 5447377.828056005], [571302.7734889312, 5447379.886452962], [571290.8434988621, 5447381.97122168], [571285.7901609923, 5447385.219059668], [571277.8811410014, 5447383.319959069], [571276.6505569988, 5447383.02445725], [571260.8643233579, 5447385.730903714], [571252.2454399217, 5447388.884926038], [571246.6407919398, 5447394.155483856], [571237.594792655, 5447394.330719473], [571231.6553057774, 5447398.077209815], [571229.2514068007, 5447397.547412048], [571229.1635823435, 5447397.258131718], [571228.260176617, 5447394.282510216], [571226.2419793629, 5447393.197649194], [571210.9785538818, 5447397.394624512], [571208.1876753609, 5447396.378874555], [571187.1777809954, 5447388.732302316], [571174.749258965, 5447388.951268762], [571164.1127122199, 5447382.712726083], [571144.4192297405, 5447380.944019441], [571118.1903371706, 5447366.054797586], [571117.2018008524, 5447365.493629082], [571092.3705042159, 5447347.864242211], [571087.0609023017, 5447340.26646642], [571077.8040414499, 5447333.248855652], [571071.1313176734, 5447325.288093809], [571064.8354227584, 5447320.4559861105], [571053.2890539042, 5447306.575973951], [571050.4120073201, 5447301.426654863], [571047.653613375, 5447292.356735024], [571044.1115604723, 5447288.07133288], [571040.8215057442, 5447279.570995034], [571035.6134192559, 5447271.952252607], [571035.305117063, 5447266.803548171], [571029.5121319469, 5447261.621444055], [571028.658660166, 5447258.4044491565], [571019.5314519764, 5447247.128985515], [571009.1297566679, 5447227.506863016], [571002.7654000764, 5447223.762644199], [571000.2643206106, 5447220.533271659], [570996.2044771591, 5447210.612342396], [570990.7398542268, 5447206.963416736], [570990.3423969755, 5447200.877258226], [570981.8450053213, 5447187.291108604], [570975.4543303349, 5447180.438710871], [570972.2206411656, 5447173.4745873865], [570962.5743390764, 5447161.852336443], [570957.2616574053, 5447150.2615314135], [570944.724772942, 5447134.330763227], [570939.1358107491, 5447122.57751368], [570922.519176056, 5447100.102833616], [570920.6349085935, 5447093.179416093], [570910.2233000494, 5447080.636779892], [570899.5338671568, 5447063.862082905], [570886.0298777719, 5447036.674678863], [570885.4461252324, 5447032.88149188], [570881.508581808, 5447028.719123184], [570872.747311763, 5447012.697806471], [570870.6687562708, 5447004.353676009], [570865.8127661002, 5446996.745108621], [570857.3101327344, 5446976.7638248345], [570854.3604355906, 5446967.059905468], [570848.3652041728, 5446954.822732595], [570846.8055412126, 5446948.112011743], [570842.2324144321, 5446939.363492092], [570834.630834129, 5446917.695532713], [570827.3407191026, 5446904.531997809], [570825.1298480096, 5446892.303384388], [570824.8471234184, 5446884.096273717], [570819.427876343, 5446878.722392822], [570817.9404127949, 5446875.007664302], [570813.0733682236, 5446852.8823130345], [570809.2067382799, 5446847.240014811], [570807.8565973965, 5446841.11997138], [570802.8613664774, 5446834.509848759], [570799.014673813, 5446827.390268505], [570792.5263807838, 5446821.723654769], [570792.6512048646, 5446811.350380996], [570791.230447094, 5446807.014138585], [570784.4806495472, 5446804.815749529], [570781.489565697, 5446801.290762186], [570771.8676179408, 5446796.202894834], [570767.8843630478, 5446786.538762714], [570759.7278122442, 5446778.279979711], [570756.3079488087, 5446771.173525107], [570744.4939543486, 5446760.131517028], [570739.636536698, 5446758.498560464], [570738.6116495986, 5446751.959752955], [570725.1384557746, 5446743.1530169435], [570717.2964707492, 5446740.666503945], [570704.4453525378, 5446727.746314018], [570704.6890304558, 5446722.914572097], [570702.8383501951, 5446720.034905136], [570696.52242548, 5446719.573670823], [570686.8184688736, 5446701.305353551], [570681.5114195559, 5446695.474812011], [570680.2248418538, 5446689.181310321], [570670.2296497477, 5446673.0077002635], [570667.5076717791, 5446664.8869687505], [570660.8593557335, 5446653.901546868], [570657.5522186814, 5446645.13384066], [570656.5949282778, 5446637.141072549], [570653.6506626684, 5446631.862015726], [570645.6492826475, 5446623.630558456], [570644.6376160429, 5446620.50632678], [570641.4531512458, 5446616.908489413], [570639.9242380777, 5446611.1068156455], [570631.1908716529, 5446598.436292217], [570624.5320522309, 5446583.9126756815], [570612.5876057172, 5446563.623768343], [570599.1936470047, 5446548.640367876], [570592.4144303044, 5446538.956476081], [570591.2613153246, 5446533.184917967], [570594.536486317, 5446524.743525713], [570596.5160150324, 5446509.55379718], [570595.7262452007, 5446492.040726553], [570593.226170734, 5446474.840430227], [570593.1997675599, 5446466.765531026], [570594.6963389625, 5446459.05889075], [570602.4133801694, 5446456.06408476], [570622.1655257763, 5446458.102727432], [570626.9453468812, 5446460.111353758], [570645.685093706, 5446473.727945291], [570664.8055632655, 5446480.268650854], [570671.6685254322, 5446486.2718874905], [570688.8086929489, 5446492.496439829], [570707.6690520309, 5446502.24751105], [570743.9326383553, 5446517.354405325], [570790.2176866906, 5446534.798238535], [570800.8392105328, 5446540.9382021995], [570805.6517360274, 5446541.633438881], [570846.2123711758, 5446569.117863395], [570871.4049962687, 5446588.73880965], [570884.7086855064, 5446602.044081646], [570890.9171467285, 5446612.544097751], [570895.97587082, 5446615.075404559], [570900.6482058995, 5446612.049248082], [570901.989992458, 5446612.533028806], [570907.4996460072, 5446622.051462697], [570908.3316244179, 5446623.48877993], [570914.3173817485, 5446630.179650239], [570909.1307849447, 5446639.364456803], [570919.4659603237, 5446644.518808254], [570927.0882499843, 5446654.11013315], [570934.9121181194, 5446661.272115645], [570936.4055016825, 5446664.886864564], [570940.7795110286, 5446669.801399917], [570959.1631522179, 5446680.858276725], [570966.3748329394, 5446687.107047461], [570972.819563915, 5446692.691354292], [570985.7842929884, 5446703.925233489], [570987.5758854692, 5446705.477594509], [570988.7979649467, 5446706.536651278], [571045.473412779, 5446750.918140335], [571097.7268364646, 5446801.857434915], [571118.146531847, 5446819.120311549], [571129.0947405472, 5446828.375983238], [571140.6273520148, 5446838.125735899], [571169.8055229577, 5446862.31233474], [571188.0465523137, 5446864.881319767], [571198.282609201, 5446866.322898271], [571225.4612575886, 5446873.81277882], [571231.0363711666, 5446872.90000329], [571241.5241627321, 5446875.146913499], [571258.0596494412, 5446883.20198586], [571270.0753071439, 5446886.17723246], [571304.717794097, 5446900.985113769], [571327.1020200235, 5446907.252559457], [571335.827529697, 5446912.245351539], [571351.584890274, 5446915.171520431], [571368.2071207064, 5446910.352638978], [571381.0575136868, 5446903.365289423], [571391.5967014254, 5446900.962111623], [571408.3044721864, 5446891.601837531], [571413.2147874825, 5446884.100239734], [571416.9415623647, 5446883.165056671], [571430.0, 5446887.440545888], [571430.0, 5446361.987328051], [571423.1857361571, 5446361.379893314], [571416.6187413217, 5446364.905387002], [571408.6768263495, 5446359.942540885], [571400.4223401891, 5446360.8437626995], [571389.7023496542, 5446357.366089755], [571388.1754124978, 5446354.807024016], [571388.212176485, 5446350.733384737], [571385.739422577, 5446343.760084123], [571379.5093458409, 5446338.785551174], [571377.399826539, 5446331.772412359], [571373.7776659725, 5446327.035508773], [571366.642499558, 5446320.790259964], [571351.7882112423, 5446314.639829076], [571344.2549608115, 5446306.484229329], [571335.5821957733, 5446301.551496391], [571333.201656572, 5446291.141269289], [571332.403998479, 5446281.83966068], [571329.9057045891, 5446277.939105683], [571325.8867002935, 5446276.07244345], [571311.9052362689, 5446274.454469197], [571292.3880170658, 5446261.012469518], [571281.7945003152, 5446265.075405135], [571270.512064572, 5446256.329120077], [571265.5240598856, 5446250.43054333], [571256.5709301438, 5446245.712251945], [571255.250565681, 5446241.211072217], [571256.569790999, 5446235.959532584], [571255.913219143, 5446228.527508008], [571254.127279035, 5446224.815782403], [571249.4699142897, 5446220.554000674], [571247.605637036, 5446210.654890853], [571241.6308619293, 5446202.40478016], [571234.8432388717, 5446186.303821081], [571234.6315392299, 5446179.858649155], [571236.4547885533, 5446177.480414674], [571236.3982166366, 5446175.659229044], [571229.4725305553, 5446171.260205468], [571224.7254990668, 5446172.195014204], [571220.8854158835, 5446170.84280622], [571219.2793271134, 5446167.542061831], [571220.0370400832, 5446163.848942307], [571217.4114809597, 5446160.201483683], [571216.8169838055, 5446154.9564819075], [571211.3579642881, 5446153.297161601], [571200.5273224689, 5446143.677755945], [571192.5371181542, 5446133.702408312], [571189.5940604652, 5446127.625579421], [571183.8230937233, 5446124.582178569], [571177.366094771, 5446116.786696736], [571168.2739780147, 5446110.881219428], [571161.1268850288, 5446101.735620774], [571154.7465634503, 5446099.647291411], [571151.8784951115, 5446096.482609211], [571148.757181075, 5446089.708282747], [571132.5116351474, 5446074.515067669], [571126.5719542742, 5446072.714695743], [571123.3890881267, 5446069.196144345], [571117.1074397803, 5446068.947587552], [571111.005132503, 5446066.621591757], [571110.6915399295, 5446062.51321524], [571112.8758895219, 5446059.304494642], [571113.3264308763, 5446055.4654099075], [571108.2692379293, 5446050.694090229], [571107.6393303205, 5446047.037374571], [571105.2245107344, 5446043.645263512], [571097.9592816189, 5446037.314782484], [571088.7466978608, 5446033.08022755], [571083.5351694582, 5446028.206848802], [571071.9646374712, 5446022.672081469], [571065.365684068, 5446014.7670659395], [571060.6877888218, 5446005.530233194], [571041.9912189819, 5446002.131520859], [571030.8136416244, 5445995.5613606265], [571009.983466224, 5445994.963250893], [571004.624913885, 5445996.145119346], [570995.3143617474, 5445991.35774073], [570989.7218319392, 5445996.914090887], [570980.8501539137, 5446000.002405708], [570974.6925589246, 5445999.082947877], [570970.4655952702, 5446000.813221672], [570963.9575631634, 5445998.457433613], [570952.7789834465, 5445999.192592598], [570940.8956258666, 5445991.114724433], [570937.426040785, 5445986.113437811], [570932.6192990653, 5445983.858132696], [570924.6581602986, 5445967.447528072], [570919.8970880643, 5445963.34379156], [570914.4158282479, 5445965.09221229], [570906.5040104459, 5445975.006757704], [570895.4842983568, 5445974.099958499], [570890.6081596744, 5445976.07748596], [570876.8989152536, 5445975.374115817], [570875.5170823443, 5445973.819504572], [570874.0539878318, 5445967.726291806], [570866.5581907287, 5445962.494967056], [570862.3376937008, 5445963.213275315], [570859.8708009303, 5445967.712240841], [570857.5066448164, 5445969.438568922], [570836.8239440024, 5445969.160055559], [570830.4732358304, 5445974.453182825], [570825.1337936417, 5445973.1755513875], [570819.1741772338, 5445974.07948001], [570798.8075304509, 5445968.307306204], [570796.8935970279, 5445967.35626191], [570793.3970131825, 5445960.775120406], [570785.8770751241, 5445955.319313528], [570785.0408691133, 5445950.312492889], [570775.7672686853, 5445947.987541201], [570767.3804761152, 5445935.580012958], [570757.6334900034, 5445929.21214194], [570752.2828743309, 5445923.803099032], [570750.3727266158, 5445919.851972138], [570750.3643459037, 5445912.198742721], [570743.4920401208, 5445908.025684991], [570737.7590117307, 5445898.129256518], [570728.4544078048, 5445892.963529256], [570723.0754386962, 5445885.456042293], [570716.0848240892, 5445882.6589471605], [570710.9703244885, 5445873.699219785], [570697.5501976211, 5445870.747700696], [570684.543022645, 5445863.954967131], [570677.0634362082, 5445853.313931735], [570670.3537334963, 5445849.543874051], [570665.8431803982, 5445843.550592514], [570660.9549666857, 5445842.08763284], [570657.1615433911, 5445838.8873703], [570653.3928034282, 5445829.846275813], [570631.7358174202, 5445824.044413778], [570616.5776236904, 5445810.924790866], [570606.067119756, 5445805.673907097], [570597.4570717169, 5445794.975320856], [570585.5791129054, 5445793.375091688], [570582.0997104261, 5445797.760146155], [570574.1075253197, 5445800.283644401], [570569.1438184347, 5445797.580395258], [570563.6465879041, 5445798.036804089], [570552.6026604454, 5445805.095824656], [570546.0808445534, 5445806.7690686975], [570540.9573687227, 5445803.166020195], [570536.8608551067, 5445797.590709997], [570531.6877384591, 5445797.913875272], [570520.2449738779, 5445793.434844966], [570513.4955292549, 5445788.94040932], [570498.6509168239, 5445786.137099198], [570495.881756601, 5445784.075579008], [570494.6084560073, 5445780.177337503], [570490.3336786581, 5445778.399556215], [570486.1030220411, 5445770.406800473], [570466.5626596502, 5445749.556948542], [570464.8044239152, 5445743.70991722], [570463.4604389112, 5445731.598069876], [570457.0725868599, 5445721.984854765], [570445.0273384267, 5445715.303290622], [570437.0144820156, 5445716.091831223], [570428.7379483201, 5445713.713249298], [570420.8128635418, 5445708.453146169], [570417.1171516399, 5445705.136232025], [570403.5631063423, 5445686.593567355], [570393.304504178, 5445676.979825966], [570385.5890428504, 5445672.262916448], [570380.7882166671, 5445665.009412031], [570371.5718634425, 5445659.997510127], [570360.433976716, 5445646.821252355], [570355.6239068401, 5445630.92567864], [570354.8975508098, 5445620.389605849], [570350.8509419584, 5445615.960730389], [570350.093824638, 5445609.2184423115], [570340.28318219, 5445593.879170121], [570340.3042055689, 5445589.797105913], [570338.2979823936, 5445585.121770912], [570338.1822338763, 5445581.530111302], [570340.3581606847, 5445574.241100078], [570334.0176478811, 5445570.173274854], [570326.711611103, 5445569.034163968], [570324.8470387233, 5445565.561587994], [570323.4356846353, 5445558.211458853], [570317.9804895069, 5445554.012435905], [570313.991579214, 5445545.432631533], [570309.6972170164, 5445540.820528509], [570308.5034959284, 5445536.485746818], [570311.4352321087, 5445527.657535866], [570308.9556135484, 5445518.694127018], [570292.5733669305, 5445507.942478505], [570286.8919619035, 5445498.493156155], [570279.4800196893, 5445494.262869462], [570277.9618520277, 5445490.722717781], [570278.0812334097, 5445487.501768926], [570270.9490434674, 5445481.8385594785], [570270.0561399697, 5445479.808154215], [570270.2765079337, 5445474.6962107755], [570266.1507554601, 5445468.711703252], [570260.652337434, 5445467.962651224], [570253.4769803133, 5445462.429433956], [570247.3606820467, 5445461.716859078], [570238.1290698597, 5445456.180899108], [570221.9761216417, 5445455.899348117], [570216.3848905547, 5445450.747569358], [570203.1197544552, 5445444.159645697], [570196.6730311929, 5445447.262799365], [570188.6024595217, 5445445.680739844], [570177.3337658357, 5445433.098133974], [570172.5093900248, 5445424.134988658], [570171.1973235728, 5445419.531659339], [570169.1222886294, 5445396.573519244], [570165.8435594146, 5445380.57087889], [570152.6516218768, 5445370.235539571], [570147.7773898666, 5445364.380212161], [570134.5899592576, 5445355.448595817], [570111.9016092413, 5445344.61436222], [570110.0, 5445345.073211074], [570110.0, 5446013.328506219], [570111.3032708477, 5446014.01190119], [570124.0189508382, 5446021.737071271], [570132.1631117486, 5446026.343410196], [570132.5458579527, 5446026.55989686], [570134.279022826, 5446027.540139294], [570137.1478984836, 5446029.467479673], [570130.4218148906, 5446018.616265322], [570129.0825076473, 5446013.607354205], [570125.0697012674, 5446004.101830801], [570122.6940319728, 5445995.877736735], [570140.6944724541, 5446010.603392264], [570160.4039187259, 5446020.93874757], [570165.7125075267, 5446026.048642028], [570172.2288907085, 5446033.695097545], [570180.2790018898, 5446040.268485937], [570180.4511086666, 5446042.043489314], [570182.1752669116, 5446045.03512977], [570189.5618479222, 5446048.937725899], [570198.0825356767, 5446050.320685751], [570206.7361671688, 5446050.5218209205], [570211.6955721852, 5446050.584834964], [570215.8449347325, 5446052.082298634], [570215.1909683734, 5446048.984037653], [570216.801070177, 5446047.6701648515], [570222.4793554246, 5446054.401245425], [570229.958807004, 5446054.195681321], [570234.7771405791, 5446056.001522714], [570249.658284593, 5446066.025254291], [570252.477409868, 5446070.035254528], [570259.926947033, 5446074.5891013555], [570261.8373295903, 5446079.122461011], [570266.396822585, 5446081.629952658], [570265.0195539952, 5446085.820560079], [570266.1156025965, 5446088.091875268], [570279.0230203214, 5446097.325376037], [570287.2911548556, 5446100.517351922], [570294.431869499, 5446107.092460164], [570297.1597157393, 5446113.333791636], [570301.65762157, 5446119.047379979], [570309.8868129855, 5446122.68830157], [570315.9643814637, 5446128.384739098], [570324.747927082, 5446140.116782683], [570342.6077829109, 5446154.555387588], [570343.7867466816, 5446160.757592415], [570356.028794964, 5446167.137172602], [570371.0397288261, 5446180.876213186], [570379.0624442248, 5446184.318856447], [570383.2437432449, 5446188.222152877], [570387.5499025423, 5446198.424699297], [570387.842969757, 5446198.708436065], [570393.6827820693, 5446204.363815099], [570392.5590506848, 5446205.955724076], [570389.9411585528, 5446205.388507815], [570380.3556554448, 5446211.569372679], [570363.4116413009, 5446211.353396944], [570313.381973202, 5446212.606779831], [570283.1109933298, 5446206.419139998], [570270.6474920055, 5446203.871469208], [570256.0532350449, 5446200.356477212], [570244.6670435478, 5446194.885498081], [570210.1533612876, 5446184.068792371], [570169.4746050503, 5446164.347244281], [570162.3451720078, 5446160.89092849], [570110.0, 5446140.382447736], [570110.0, 5446927.150785286], [570119.7071441801, 5446937.382034681]], [[570231.1792651163, 5446632.614201513], [570226.8326520727, 5446630.208545161], [570224.8371417773, 5446626.260392123], [570214.8749014743, 5446617.145164585], [570211.6228453666, 5446612.108524345], [570204.8812473498, 5446607.974364259], [570196.3672068352, 5446599.623151372], [570189.82970803, 5446599.901892104], [570185.1319172763, 5446598.088410831], [570182.5961874053, 5446594.275058631], [570177.0092765521, 5446592.775450528], [570176.0338928871, 5446587.64367488], [570174.3368464157, 5446584.853545356], [570173.0909368764, 5446577.671158332], [570179.1169090309, 5446564.24285805], [570179.3879921815, 5446556.228713661], [570178.3303331508, 5446549.559670402], [570175.5757781621, 5446543.306841216], [570170.0369469123, 5446537.100306719], [570165.6765486852, 5446532.214281481], [570165.7735922373, 5446529.305256471], [570183.0005519208, 5446529.825458445], [570201.3850004778, 5446534.279041819], [570226.5373576174, 5446537.730850738], [570241.4752441812, 5446539.7808786575], [570249.7817858794, 5446543.188428946], [570267.4821913923, 5446546.146847976], [570281.3196760898, 5446551.489970824], [570282.6319588425, 5446551.996671723], [570285.8034498047, 5446554.576829312], [570288.5941969615, 5446556.84727902], [570289.4107635678, 5446557.060266105], [570292.9477723971, 5446557.98273193], [570300.2322656611, 5446562.811661163], [570312.4350627307, 5446566.11132882], [570328.4839959042, 5446578.192596217], [570334.4661360892, 5446580.577399621], [570348.8469234549, 5446592.421236794], [570356.6079005951, 5446599.372861279], [570358.6123128792, 5446604.701984056], [570359.6027348435, 5446607.335193203], [570367.4873683534, 5446615.589429928], [570380.6086975969, 5446634.810257962], [570381.9044940629, 5446638.92015479], [570387.681852823, 5446643.818949565], [570394.4460222018, 5446654.877590943], [570395.387455505, 5446655.535951736], [570406.2567580899, 5446663.13720307], [570412.8499193494, 5446672.359693835], [570416.8680613758, 5446675.438815354], [570426.9096373774, 5446691.248827487], [570439.3207976775, 5446698.758997012], [570446.1944219964, 5446713.666031756], [570449.4496676225, 5446716.869609631], [570457.3510006489, 5446730.090715487], [570462.6456097187, 5446742.601962326], [570467.2583152221, 5446745.501019037], [570474.0037490004, 5446755.556864553], [570484.3738600626, 5446764.1902784975], [570493.4053950054, 5446781.4339478025], [570494.5952312014, 5446785.258007969], [570495.8638348877, 5446797.803508873], [570500.7650085159, 5446816.688527338], [570509.1337496571, 5446833.948793902], [570516.1187215416, 5446840.099795888], [570520.2722105618, 5446852.521933254], [570524.1518534126, 5446859.691357492], [570527.2157058899, 5446883.39164467], [570525.4574224668, 5446886.530404181], [570525.1603850079, 5446887.060681743], [570519.5382914608, 5446886.50447829], [570518.7648155012, 5446882.448965685], [570514.0619852832, 5446877.193966455], [570513.610714816, 5446875.281414537], [570511.3271787623, 5446865.603625398], [570509.3315915874, 5446862.726787343], [570502.9447879365, 5446858.818413893], [570500.0411379053, 5446854.382246187], [570494.4334604323, 5446851.857983496], [570486.6833810336, 5446844.990633792], [570483.9973056249, 5446842.610486284], [570481.208455222, 5446844.028747915], [570478.275043034, 5446850.236822072], [570478.3543883432, 5446857.436477513], [570479.6009328853, 5446861.198622972], [570476.4965336971, 5446865.641239332], [570476.2073412158, 5446871.707504685], [570474.5506959549, 5446872.054228565], [570469.8362173482, 5446868.197444887], [570461.6728939656, 5446864.568628741], [570458.2073937535, 5446859.051052972], [570452.92903393, 5446855.141285849], [570442.5419205667, 5446840.628497737], [570437.6637813563, 5446838.574919893], [570427.4738911402, 5446829.971708609], [570424.6050796184, 5446821.41436794], [570420.5888079942, 5446818.80783712], [570415.4349270926, 5446811.718010787], [570411.0543624655, 5446807.482947965], [570396.7275072872, 5446800.115382255], [570380.4401868004, 5446785.796430653], [570375.7212827376, 5446778.36017144], [570361.1763204347, 5446765.000340978], [570353.4218430157, 5446753.11253762], [570334.6650021982, 5446734.961510397], [570330.8414367875, 5446728.403903782], [570304.9862804649, 5446700.129980214], [570290.2295038314, 5446688.716454612], [570268.7080620484, 5446667.658820047], [570260.3448221976, 5446662.439802714], [570255.9812914592, 5446656.266615055], [570245.4260103335, 5446647.995950165], [570231.1792651163, 5446632.614201513]], [[571163.4734582793, 5446843.175476523], [571159.9660283668, 5446841.124106082], [571155.481225073, 5446833.508250803], [571140.6842870571, 5446820.093978992], [571121.4709868717, 5446794.880145505], [571103.9586740185, 5446782.953895257], [571094.3018321744, 5446772.75384582], [571086.4560339284, 5446768.307454622], [571083.4939887472, 5446763.814243204], [571073.4781801347, 5446756.8943026615], [571056.3950064335, 5446737.932450666], [571039.9117552045, 5446729.020331665], [571037.2439156417, 5446724.620639618], [571030.7237264939, 5446718.760259422], [571017.1764318006, 5446707.544432059], [571012.1398279637, 5446705.109761664], [570997.56103006, 5446691.560059866], [570987.1763383083, 5446680.848119217], [570974.3902972516, 5446663.151972384], [570973.3359887794, 5446653.73337602], [570963.641972437, 5446635.993426524], [570946.823227692, 5446621.863595798], [570911.6027855065, 5446599.473181337], [570901.0719199751, 5446588.3846559515], [570889.6501151179, 5446580.235567883], [570883.3069821553, 5446571.722288371], [570872.7029511238, 5446550.478271124], [570868.653802413, 5446546.842440184], [570847.1670331374, 5446536.506097687], [570837.3129994044, 5446535.708687128], [570829.3217910262, 5446531.950710397], [570822.84935887, 5446526.894593166], [570809.7495559761, 5446521.0304662455], [570798.6497050442, 5446520.164607388], [570791.547231471, 5446514.470102415], [570785.1810684688, 5446515.178170874], [570781.1145289259, 5446513.8259318825], [570771.511169869, 5446506.773112028], [570764.4718988471, 5446505.334935052], [570742.1930784907, 5446492.662947868], [570731.2859588623, 5446488.350798632], [570709.4267124298, 5446473.37136445], [570684.1147344114, 5446464.569975177], [570665.9059368495, 5446454.108861926], [570650.078956682, 5446445.647679873], [570639.9153614222, 5446440.214025027], [570633.418331453, 5446442.195091726], [570624.4894529565, 5446437.875566068], [570619.0116051569, 5446437.183650263], [570616.9958526111, 5446431.296609923], [570604.5420697231, 5446424.333194597], [570599.3378396883, 5446424.340347738], [570595.3433407268, 5446427.326965684], [570570.6391974244, 5446418.99440634], [570561.2101109424, 5446413.709578295], [570556.2588227863, 5446414.948407408], [570553.2241914672, 5446417.415691192], [570549.3744909287, 5446412.596409816], [570537.2689010368, 5446409.558817927], [570524.7800424839, 5446411.856376072], [570520.4605640912, 5446406.297003697], [570515.6180022323, 5446405.788661573], [570507.2736573567, 5446397.926795898], [570489.3217708871, 5446389.382750259], [570479.9141110682, 5446383.143729156], [570474.7710537303, 5446376.677556377], [570463.6330014955, 5446373.831043986], [570457.3057048769, 5446367.617920749], [570453.1775318914, 5446365.715474597], [570446.3117654098, 5446358.462138276], [570441.5601824641, 5446353.442282628], [570437.3165442249, 5446343.808718406], [570431.4995089057, 5446336.094911375], [570432.6731822682, 5446333.842269214], [570442.4912697178, 5446331.143990627], [570453.3454837396, 5446332.395361436], [570460.8881779675, 5446331.06846481], [570475.4339140091, 5446334.624234398], [570507.841180223, 5446334.535181964], [570508.9989208633, 5446335.38500259], [570535.5472532022, 5446335.025097443], [570571.2016491243, 5446338.155370835], [570596.8181584594, 5446335.940034475], [570603.7480563993, 5446338.911961368], [570622.8085517602, 5446341.2718945565], [570635.5050466951, 5446349.297623468], [570642.1476664401, 5446351.370794789], [570649.7863505501, 5446360.995133436], [570658.1255569586, 5446366.152044948], [570660.9086826111, 5446370.116444349], [570668.2542074955, 5446375.175922777], [570677.5399332664, 5446385.139437887], [570684.895894695, 5446386.729187717], [570688.2961415, 5446392.440311696], [570696.6882628468, 5446396.821139093], [570703.8672127677, 5446405.039793124], [570709.9801677462, 5446409.074269313], [570712.3038095487, 5446410.607845533], [570784.0847372863, 5446457.983838949], [570867.0621765954, 5446506.363603455], [570875.114339756, 5446511.058386189], [570883.1129725517, 5446515.72194541], [570945.4953909824, 5446551.694030708], [570994.3988096274, 5446579.893467728], [571086.305017118, 5446631.269567484], [571143.589546095, 5446655.5356291365], [571168.1687747512, 5446663.695158174], [571177.2216318095, 5446679.4973331215], [571241.5214669864, 5446717.9717657855], [571258.9424957242, 5446722.902286691], [571280.3146915267, 5446740.432194465], [571326.0829420711, 5446780.2368326755], [571334.4218091454, 5446788.067583053], [571338.9125885605, 5446792.284889086], [571349.5429567015, 5446802.267848487], [571357.0226191797, 5446809.291674319], [571362.126182484, 5446814.084484226], [571366.8172359219, 5446824.643221856], [571373.6021485826, 5446839.914912108], [571373.832483335, 5446840.4332432235], [571379.2127713404, 5446850.555803872], [571376.4099960029, 5446865.478475117], [571370.8491183195, 5446874.247339149], [571358.4876027545, 5446881.311066632], [571352.9979439965, 5446882.7067508055], [571330.9490640562, 5446881.88664791], [571314.7913853423, 5446883.199782896], [571303.0990898055, 5446880.512964924], [571293.1404566637, 5446875.802179373], [571275.2095950033, 5446873.187364889], [571264.6027546816, 5446868.676929318], [571246.9162390605, 5446864.006188918], [571184.8713462367, 5446853.591436305], [571163.4734582793, 5446843.175476523]]], [[[570110.2540836944, 5446067.053101494], [570118.0061957914, 5446069.882214924], [570120.2576778792, 5446067.96733167], [570118.5461497329, 5446064.719840226], [570110.0, 5446058.613476382], [570110.0, 5446066.852905776], [570110.2540836944, 5446067.053101494]]]]}}, {"type": "Feature", "properties": {"class": 2, "timestamp_utc": "2025-12-15 01:50:37+00:00", "source_product": "Flood_CAN_BC_LowerFraser_20251215_015037"}, "geometry": {"type": "MultiPolygon", "coordinates": [[[[570283.1109933298, 5446206.419139998], [570313.381973202, 5446212.606779831], [570363.4116413009, 5446211.353396944], [570380.3556554448, 5446211.569372679], [570389.9411585528, 5446205.388507815], [570392.5590506848, 5446205.955724076], [570393.6827820693, 5446204.363815099], [570387.842969757, 5446198.708436065], [570387.5499025423, 5446198.424699297], [570383.2437432449, 5446188.222152877], [570379.0624442248, 5446184.318856447], [570371.0397288261, 5446180.876213186], [570356.028794964, 5446167.137172602], [570343.7867466816, 5446160.757592415], [570342.6077829109, 5446154.555387588], [570324.747927082, 5446140.116782683], [570315.9643814637, 5446128.384739098], [570309.8868129855, 5446122.68830157], [570301.65762157, 5446119.047379979], [570297.1597157393, 5446113.333791636], [570294.431869499, 5446107.092460164], [570287.2911548556, 5446100.517351922], [570279.0230203214, 5446097.325376037], [570266.1156025965, 5446088.091875268], [570265.0195539952, 5446085.820560079], [570266.396822585, 5446081.629952658], [570261.8373295903, 5446079.122461011], [570259.926947033, 5446074.5891013555], [570252.477409868, 5446070.035254528], [570249.658284593, 5446066.025254291], [570234.7771405791, 5446056.001522714], [570229.958807004, 5446054.195681321], [570222.4793554246, 5446054.401245425], [570216.801070177, 5446047.6701648515], [570215.1909683734, 5446048.984037653], [570215.8449347325, 5446052.082298634], [570211.6955721852, 5446050.584834964], [570206.7361671688, 5446050.5218209205], [570198.0825356767, 5446050.320685751], [570189.5618479222, 5446048.937725899], [570182.1752669116, 5446045.03512977], [570180.4511086666, 5446042.043489314], [570180.2790018898, 5446040.268485937], [570172.2288907085, 5446033.695097545], [570165.7125075267, 5446026.048642028], [570160.4039187259, 5446020.93874757], [570140.6944724541, 5446010.603392264], [570122.6940319728, 5445995.877736735], [570125.0697012674, 5446004.101830801], [570129.0825076473, 5446013.607354205], [570130.4218148906, 5446018.616265322], [570137.1478984836, 5446029.467479673], [570134.279022826, 5446027.540139294], [570132.5458579527, 5446026.55989686], [570132.1631117486, 5446026.343410196], [570124.0189508382, 5446021.737071271], [570111.3032708477, 5446014.01190119], [570110.0, 5446013.328506219], [570110.0, 5446058.613476382], [570118.5461497329, 5446064.719840226], [570120.2576778792, 5446067.96733167], [570118.0061957914, 5446069.882214924], [570110.2540836944, 5446067.053101494], [570110.0, 5446066.852905776], [570110.0, 5446140.382447736], [570162.3451720078, 5446160.89092849], [570169.4746050503, 5446164.347244281], [570210.1533612876, 5446184.068792371], [570244.6670435478, 5446194.885498081], [570256.0532350449, 5446200.356477212], [570270.6474920055, 5446203.871469208], [570283.1109933298, 5446206.419139998]]], [[[570668.2542074955, 5446375.175922777], [570660.9086826111, 5446370.116444349], [570658.1255569586, 5446366.152044948], [570649.7863505501, 5446360.995133436], [570642.1476664401, 5446351.370794789], [570635.5050466951, 5446349.297623468], [570622.8085517602, 5446341.2718945565], [570603.7480563993, 5446338.911961368], [570596.8181584594, 5446335.940034475], [570571.2016491243, 5446338.155370835], [570535.5472532022, 5446335.025097443], [570508.9989208633, 5446335.38500259], [570507.841180223, 5446334.535181964], [570475.4339140091, 5446334.624234398], [570460.8881779675, 5446331.06846481], [570453.3454837396, 5446332.395361436], [570442.4912697178, 5446331.143990627], [570432.6731822682, 5446333.842269214], [570431.4995089057, 5446336.094911375], [570437.3165442249, 5446343.808718406], [570441.5601824641, 5446353.442282628], [570446.3117654098, 5446358.462138276], [570458.5192356834, 5446354.038963883], [570514.4190471683, 5446352.592441661], [570740.9122970848, 5446458.605097982], [570809.5841764299, 5446518.358692633], [570867.0621765954, 5446506.363603455], [570784.0847372863, 5446457.983838949], [570712.3038095487, 5446410.607845533], [570709.9801677462, 5446409.074269313], [570703.8672127677, 5446405.039793124], [570696.6882628468, 5446396.821139093], [570688.2961415, 5446392.440311696], [570684.895894695, 5446386.729187717], [570677.5399332664, 5446385.139437887], [570668.2542074955, 5446375.175922777]]], [[[570226.5373576174, 5446537.730850738], [570201.3850004778, 5446534.279041819], [570183.0005519208, 5446529.825458445], [570165.7735922373, 5446529.305256471], [570165.6765486852, 5446532.214281481], [570170.0369469123, 5446537.100306719], [570226.5373576174, 5446537.730850738]]], [[[570883.1129725517, 5446515.72194541], [570875.114339756, 5446511.058386189], [570922.8318075268, 5446571.364380057], [570945.4953909824, 5446551.694030708], [570883.1129725517, 5446515.72194541]]], [[[570282.6319588425, 5446551.996671723], [570281.3196760898, 5446551.489970824], [570285.8034498047, 5446554.576829312], [570282.6319588425, 5446551.996671723]]], [[[570300.2322656611, 5446562.811661163], [570292.9477723971, 5446557.98273193], [570289.4107635678, 5446557.060266105], [570358.6123128792, 5446604.701984056], [570356.6079005951, 5446599.372861279], [570348.8469234549, 5446592.421236794], [570334.4661360892, 5446580.577399621], [570328.4839959042, 5446578.192596217], [570312.4350627307, 5446566.11132882], [570300.2322656611, 5446562.811661163]]], [[[570462.6456097187, 5446742.601962326], [570457.3510006489, 5446730.090715487], [570449.4496676225, 5446716.869609631], [570446.1944219964, 5446713.666031756], [570439.3207976775, 5446698.758997012], [570426.9096373774, 5446691.248827487], [570416.8680613758, 5446675.438815354], [570412.8499193494, 5446672.359693835], [570406.2567580899, 5446663.13720307], [570395.387455505, 5446655.535951736], [570412.0207969688, 5446718.836449058], [570469.3677909323, 5446773.290592873], [570486.6833810336, 5446844.990633792], [570494.4334604323, 5446851.857983496], [570500.0411379053, 5446854.382246187], [570502.9447879365, 5446858.818413893], [570509.3315915874, 5446862.726787343], [570511.3271787623, 5446865.603625398], [570513.610714816, 5446875.281414537], [570525.4574224668, 5446886.530404181], [570527.2157058899, 5446883.39164467], [570524.1518534126, 5446859.691357492], [570520.2722105618, 5446852.521933254], [570516.1187215416, 5446840.099795888], [570509.1337496571, 5446833.948793902], [570500.7650085159, 5446816.688527338], [570495.8638348877, 5446797.803508873], [570494.5952312014, 5446785.258007969], [570493.4053950054, 5446781.4339478025], [570484.3738600626, 5446764.1902784975], [570474.0037490004, 5446755.556864553], [570467.2583152221, 5446745.501019037], [570462.6456097187, 5446742.601962326]]], [[[570116.3748894574, 5446967.018526366], [570184.3236287484, 5446998.824107123], [570208.4192114553, 5447065.327067146], [570277.0913364659, 5447125.083187377], [570283.8383559387, 5447169.659648798], [570347.2099789364, 5447240.74074655], [570357.973984132, 5447270.448567065], [570358.4876034358, 5447264.399358052], [570356.7547364247, 5447258.721856009], [570359.3758011148, 5447251.97538011], [570359.2056874788, 5447245.901678139], [570356.1180649339, 5447241.049087089], [570351.3502057218, 5447237.067862617], [570345.7348973067, 5447222.055928426], [570345.1058966022, 5447216.372699127], [570335.2463227152, 5447205.543821809], [570327.2620448463, 5447190.9869976025], [570326.9390550602, 5447187.429677864], [570324.7407660316, 5447183.029700749], [570318.5049032489, 5447178.10730451], [570316.7227405665, 5447170.612052794], [570311.2952591251, 5447165.7984329015], [570308.5915548105, 5447160.234223249], [570306.0641652038, 5447146.280009614], [570302.4324334447, 5447139.38788377], [570303.404590636, 5447131.090962665], [570296.2329568566, 5447116.081747492], [570287.4313754983, 5447102.520778499], [570280.3151439527, 5447096.8317573825], [570278.2125049458, 5447091.1656407], [570267.155359535, 5447082.893064198], [570256.3847607954, 5447071.20037153], [570249.4846303267, 5447055.717403535], [570244.4998173206, 5447050.734460359], [570241.1496862469, 5447044.970395554], [570237.121303882, 5447043.036199633], [570229.0485492933, 5447033.255741471], [570211.1957423605, 5447022.394242471], [570209.2792877007, 5447011.589957766], [570198.1401257005, 5447001.442207606], [570196.7370447698, 5446996.107961059], [570190.187533593, 5446988.901552458], [570185.6747879456, 5446987.516085777], [570182.262300508, 5446981.432241071], [570173.5334344809, 5446976.163523757], [570163.1567011693, 5446962.739992274], [570155.1265045104, 5446955.433603465], [570144.8445327558, 5446951.330981017], [570136.727641743, 5446944.997922378], [570119.7071441801, 5446937.382034681], [570110.0, 5446927.150785286], [570110.0, 5446959.344084226], [570116.3748894574, 5446967.018526366]]], [[[571208.1876753609, 5447396.378874555], [571218.0271099079, 5447386.016138769], [571161.4013857188, 5447359.51309786], [571118.1903371706, 5447366.054797586], [571144.4192297405, 5447380.944019441], [571164.1127122199, 5447382.712726083], [571174.749258965, 5447388.951268762], [571187.1777809954, 5447388.732302316], [571208.1876753609, 5447396.378874555]]], [[[571251.2786076262, 5447373.9670105055], [571229.1635823435, 5447397.258131718], [571229.2514068007, 5447397.547412048], [571231.6553057774, 5447398.077209815], [571237.594792655, 5447394.330719473], [571246.6407919398, 5447394.155483856], [571252.2454399217, 5447388.884926038], [571260.8643233579, 5447385.730903714], [571276.6505569988, 5447383.02445725], [571277.8811410014, 5447383.319959069], [571251.2786076262, 5447373.9670105055]]], [[[571377.3038138859, 5447488.175212551], [571421.8806013953, 5447481.426403283], [571425.7781537907, 5447473.09883758], [571408.4909225913, 5447476.451883033], [571379.7142331813, 5447479.006259001], [571373.3598830441, 5447481.180224554], [571363.4492596576, 5447481.690835747], [571377.3038138859, 5447488.175212551]]], [[[571255.0376365463, 5447617.174868358], [571252.9594186887, 5447618.127314713], [571251.4443519381, 5447622.186847357], [571303.8196040582, 5447674.6798796635], [571342.3720122627, 5447651.305260671], [571371.0472802687, 5447678.532356148], [571392.9737633244, 5447661.182355559], [571364.7550052681, 5447644.992067069], [571360.4914271474, 5447643.3520169], [571353.086990858, 5447639.075805596], [571321.0508196076, 5447635.3056510305], [571295.8481530499, 5447627.108369921], [571290.4234198993, 5447627.388066336], [571273.1134093881, 5447622.084044324], [571264.8964671759, 5447621.78805472], [571255.0376365463, 5447617.174868358]]], [[[570597.5657653182, 5447738.28868781], [570598.3939860952, 5447734.669198303], [570597.7846848103, 5447732.256726523], [570587.2704923938, 5447724.62384238], [570586.9499087797, 5447719.291445079], [570588.2386377122, 5447716.035509383], [570580.2462641419, 5447709.147822521], [570578.14104118, 5447698.906683385], [570570.62440461, 5447689.650501293], [570563.4820108193, 5447675.573812471], [570557.8255887692, 5447669.045004906], [570557.3152446626, 5447663.296861328], [570555.1359055522, 5447657.454520684], [570551.505109864, 5447654.009951604], [570551.1934713818, 5447649.524487444], [570549.2420666025, 5447646.4893486025], [570545.1506516549, 5447633.891534749], [570534.1882684357, 5447615.958111528], [570521.926497391, 5447586.012502488], [570520.3028045004, 5447580.474429352], [570521.3247560519, 5447576.61097495], [570521.1274281278, 5447570.472570471], [570517.2815763225, 5447566.914086357], [570515.4033096845, 5447560.773086593], [570510.9348449882, 5447555.878319026], [570509.2577531352, 5447548.5359042855], [570503.175269994, 5447541.46859186], [570501.7218791551, 5447535.040485273], [570498.4830033802, 5447527.820831133], [570495.308367447, 5447525.435821658], [570487.2001779951, 5447512.91066584], [570485.7661616845, 5447506.245327938], [570478.8414726387, 5447500.0429336], [570478.1039642959, 5447487.901677253], [570472.6216564882, 5447474.851676024], [570462.1020962702, 5447465.743951378], [570461.5868040412, 5447458.80066332], [570460.1746010012, 5447455.45130561], [570452.4186979812, 5447453.271207112], [570449.3487901965, 5447450.126831628], [570447.5663365799, 5447445.801089874], [570448.221859965, 5447441.543031581], [570447.4016338714, 5447439.158862979], [570445.5350554258, 5447434.904306218], [570436.2363456471, 5447424.776438188], [570434.2856116028, 5447415.885574463], [570429.8322997838, 5447409.724411403], [570429.6553619978, 5447403.214526155], [570420.7296120623, 5447394.961049018], [570417.9732517917, 5447386.861656868], [570409.8857076335, 5447371.430303864], [570410.5774879256, 5447364.923906726], [570407.299455396, 5447344.635228162], [570398.603980322, 5447337.584089705], [570396.8396994096, 5447331.834443117], [570387.732398604, 5447327.546164025], [570381.9190750285, 5447322.85358404], [570380.3981929461, 5447314.299793042], [570375.5568091105, 5447303.637311353], [570372.6980788022, 5447300.055990422], [570368.3474610639, 5447297.620860644], [570367.1993137477, 5447295.909695833], [570419.4987213913, 5447440.251359924], [570506.2446468347, 5447549.885713794], [570519.7395616681, 5447639.039937937], [570565.7633770788, 5447688.194764835], [570584.5344083175, 5447740.0], [570599.0885994096, 5447740.0], [570597.5657653182, 5447738.28868781]]]]}}, {"type": "Feature", "properties": {"role": "valid_footprint"}, "geometry": {"type": "Polygon", "coordinates": [[[570110.0, 5444740.0, 0.0], [570110.0, 5447740.0, 0.0], [571430.0, 5447740.0, 0.0], [571430.0, 5444740.0, 0.0], [570110.0, 5444740.0, 0.0]]]}}]}