{"type": "FeatureCollection", "crs": {"type": "name", "properties": {"name": "EPSG:32610"}}, "features": [{"type": "Feature", "properties": {"class": 1, "timestamp_utc": "2025-12-12 14:08:24+00:00", "source_product": "Flood_CAN_BC_LowerFraser_20251212_140824"}, "geometry": {"type": "MultiPolygon", "coordinates": [[[[571423.1857361554, 5446361.379893313], [571416.6187413199, 5446364.905387002], [571408.6768263438, 5446359.942540892], [571400.4223401872, 5446360.8437626995], [571389.7023496504, 5446357.366089755], [571388.175412496, 5446354.807024015], [571388.2121764813, 5446350.733384742], [571385.7394225751, 5446343.760084125], [571379.5093458317, 5446338.785551169], [571377.3998265445, 5446331.7724123625], [571373.7776659706, 5446327.0355087705], [571366.6424995562, 5446320.790259964], [571351.7882112386, 5446314.639829076], [571344.2549608096, 5446306.484229326], [571335.5821957714, 5446301.551496391], [571333.2016565702, 5446291.141269289], [571332.4039984772, 5446281.839660678], [571329.9057045872, 5446277.939105683], [571325.8867002918, 5446276.07244345], [571311.905236267, 5446274.4544691965], [571292.3880170658, 5446261.012469518], [571281.7945003133, 5446265.075405135], [571270.512064572, 5446256.329120077], [571265.5240598839, 5446250.430543327], [571256.570930142, 5446245.712251945], [571255.2505656793, 5446241.211072216], [571256.5697909934, 5446235.95953259], [571255.9132191412, 5446228.527508007], [571254.1272790332, 5446224.815782401], [571249.4699142859, 5446220.554000672], [571247.6056370342, 5446210.654890853], [571241.6308619255, 5446202.404780161], [571234.8432388698, 5446186.303821081], [571234.631539226, 5446179.858649162], [571236.4547885515, 5446177.480414672], [571236.3982166348, 5446175.659229044], [571229.4725305535, 5446171.260205469], [571224.7254990649, 5446172.195014202], [571220.8854158816, 5446170.842806221], [571219.2793271116, 5446167.542061831], [571220.0370400813, 5446163.848942307], [571217.411480954, 5446160.201483691], [571216.8169838036, 5446154.956481905], [571211.3579642789, 5446153.297161595], [571200.5273224672, 5446143.677755945], [571192.537118143, 5446133.702408312], [571189.5940604634, 5446127.625579421], [571183.8230937102, 5446124.582178574], [571177.3660947636, 5446116.786696732], [571168.2739780128, 5446110.881219427], [571161.1268850269, 5446101.735620774], [571154.7465634485, 5446099.647291411], [571151.8784951096, 5446096.482609211], [571148.7571810732, 5446089.708282747], [571132.5116351455, 5446074.51506767], [571126.5719542725, 5446072.714695741], [571123.389088125, 5446069.196144344], [571117.1074397747, 5446068.947587558], [571111.0051325011, 5446066.621591756], [571110.6915399277, 5446062.513215238], [571112.8758895127, 5446059.304494637], [571113.3264308744, 5446055.46540991], [571108.2692379274, 5446050.694090228], [571107.6393303132, 5446047.037374567], [571105.2245107252, 5446043.645263508], [571097.9592816172, 5446037.3147824835], [571088.7466978589, 5446033.080227551], [571083.5351694564, 5446028.206848802], [571071.9646374694, 5446022.672081468], [571065.3656840661, 5446014.767065939], [571060.6877888162, 5446005.5302332], [571041.9912189875, 5446002.131520863], [571030.8136416244, 5445995.5613606265], [571009.9834662222, 5445994.963250893], [571004.6249138757, 5445996.145119342], [570995.3143617456, 5445991.35774073], [570989.7218319353, 5445996.914090894], [570980.8501539119, 5446000.002405708], [570974.6925589154, 5445999.0829478735], [570970.465595261, 5446000.813221667], [570963.9575631595, 5445998.457433621], [570952.7789834465, 5445999.192592595], [570940.8956258628, 5445991.1147244405], [570937.4260407758, 5445986.113437808], [570932.6192990635, 5445983.858132696], [570924.6581602929, 5445967.447528079], [570919.8970880569, 5445963.343791557], [570914.4158282387, 5445965.092212286], [570906.5040104367, 5445975.0067577], [570895.4842983456, 5445974.099958503], [570890.6081596653, 5445976.077485955], [570876.8989152517, 5445975.374115817], [570875.5170823424, 5445973.819504572], [570874.0539878262, 5445967.726291812], [570866.5581907249, 5445962.494967055], [570862.337693697, 5445963.213275321], [570859.8708009284, 5445967.712240841], [570857.5066448126, 5445969.438568927], [570836.8239440005, 5445969.160055558], [570830.4732358286, 5445974.453182825], [570825.1337936398, 5445973.1755513875], [570819.1741772321, 5445974.079480009], [570798.8075304509, 5445968.307306204], [570796.893597026, 5445967.356261909], [570793.3970131807, 5445960.7751204055], [570785.8770751222, 5445955.319313526], [570785.0408691114, 5445950.3124928875], [570775.7672686834, 5445947.9875412], [570767.3804761114, 5445935.580012958], [570757.6334900015, 5445929.21214194], [570752.282874329, 5445923.803099031], [570750.3727266139, 5445919.851972138], [570750.3643458945, 5445912.198742718], [570743.4920401189, 5445908.025684991], [570737.7590117215, 5445898.129256516], [570728.4544078029, 5445892.963529256], [570723.075438687, 5445885.456042289], [570716.0848240855, 5445882.658947159], [570710.9703244793, 5445873.699219782], [570697.5501976192, 5445870.747700696], [570684.5430226432, 5445863.95496713], [570677.0634362063, 5445853.313931732], [570670.3537334925, 5445849.543874049], [570665.8431803964, 5445843.550592516], [570660.9549666857, 5445842.08763284], [570657.1615433892, 5445838.8873703], [570653.3928034282, 5445829.846275811], [570631.7358174184, 5445824.044413776], [570616.5776236904, 5445810.924790866], [570606.0671197542, 5445805.673907097], [570597.457071715, 5445794.975320853], [570585.5791129036, 5445793.375091685], [570582.0997104242, 5445797.760146154], [570574.1075253178, 5445800.283644399], [570569.1438184311, 5445797.580395256], [570563.6465879022, 5445798.036804089], [570552.6026604415, 5445805.095824663], [570546.0808445441, 5445806.769068693], [570540.9573687209, 5445803.166020191], [570536.8608551067, 5445797.5907099955], [570531.6877384535, 5445797.913875277], [570520.244973876, 5445793.434844965], [570513.495529253, 5445788.94040932], [570498.6509168202, 5445786.137099194], [570495.8817565993, 5445784.075579005], [570494.6084560073, 5445780.177337503], [570490.3336786563, 5445778.399556213], [570486.1030220394, 5445770.406800473], [570466.5626596484, 5445749.556948542], [570464.8044239079, 5445743.709917218], [570463.460438902, 5445731.598069874], [570457.0725868581, 5445721.984854766], [570445.0273384155, 5445715.303290623], [570437.0144820138, 5445716.091831223], [570428.7379483182, 5445713.713249297], [570420.8128635399, 5445708.453146169], [570417.1171516399, 5445705.136232023], [570403.5631063423, 5445686.593567355], [570393.3045041724, 5445676.979825973], [570385.5890428467, 5445672.262916449], [570380.7882166653, 5445665.009412031], [570371.5718634407, 5445659.997510127], [570360.4339767142, 5445646.821252354], [570355.6239068382, 5445630.92567864], [570354.8975508079, 5445620.389605849], [570350.8509419548, 5445615.960730388], [570350.0938246362, 5445609.2184423115], [570340.2831821956, 5445593.8791701235], [570340.3042055633, 5445589.797105917], [570338.2979823898, 5445585.121770921], [570338.1822338763, 5445581.530111299], [570340.3581606828, 5445574.241100076], [570334.0176478719, 5445570.17327485], [570326.7116111012, 5445569.034163968], [570324.847038714, 5445565.561587991], [570323.4356846334, 5445558.211458853], [570317.9804895123, 5445554.012435908], [570313.9915792121, 5445545.432631533], [570309.6972170145, 5445540.820528507], [570308.5034959227, 5445536.485746826], [570311.435232107, 5445527.657535864], [570308.9556135427, 5445518.694127025], [570292.5733669286, 5445507.942478504], [570286.8919618998, 5445498.493156155], [570279.4800196781, 5445494.262869467], [570277.9618520258, 5445490.722717781], [570278.0812334078, 5445487.501768922], [570270.9490434655, 5445481.8385594785], [570270.0561399679, 5445479.808154215], [570270.2765079319, 5445474.696210775], [570266.1507554584, 5445468.71170325], [570260.6523374321, 5445467.962651226], [570253.476980306, 5445462.429433952], [570247.3606820412, 5445461.716859086], [570238.1290698599, 5445456.180899106], [570221.9761216398, 5445455.8993481165], [570216.3848905528, 5445450.747569356], [570203.1197544533, 5445444.159645695], [570196.6730311837, 5445447.262799362], [570188.6024595199, 5445445.680739843], [570177.3337658264, 5445433.098133972], [570172.509390023, 5445424.134988657], [570171.1973235636, 5445419.531659335], [570169.1222886276, 5445396.573519244], [570165.8435594128, 5445380.570878889], [570152.651621875, 5445370.235539571], [570147.7773898592, 5445364.380212156], [570134.5899592484, 5445355.448595814], [570111.9016092357, 5445344.614362229], [570110.0, 5445345.073211079], [570110.0, 5446013.328506228], [570111.3032708439, 5446014.011901195], [570124.0189508327, 5446021.737071278], [570132.1631117468, 5446026.343410194], [570132.5458579527, 5446026.55989686], [570134.2790228187, 5446027.5401392905], [570137.1478984817, 5446029.467479673], [570130.4218148888, 5446018.616265321], [570129.0825076473, 5446013.607354205], [570125.0697012636, 5446004.101830804], [570122.6940319671, 5445995.877736742], [570140.6944724543, 5446010.603392263], [570160.403918724, 5446020.93874757], [570165.7125075175, 5446026.048642023], [570172.2288907067, 5446033.695097544], [570180.2790018806, 5446040.268485934], [570180.4511086573, 5446042.04348931], [570182.1752669098, 5446045.035129768], [570189.5618479184, 5446048.937725899], [570198.0825356748, 5446050.320685748], [570206.736167167, 5446050.5218209205], [570211.6955721834, 5446050.584834964], [570215.8449347307, 5446052.0822986355], [570215.190968377, 5446048.984037655], [570216.8010701698, 5446047.670164846], [570222.479355419, 5446054.401245431], [570229.9588070022, 5446054.1956813205], [570234.7771405772, 5446056.001522714], [570249.6582845874, 5446066.025254292], [570252.4774098588, 5446070.035254523], [570259.926947033, 5446074.5891013555], [570261.8373295885, 5446079.122461008], [570266.3968225832, 5446081.629952655], [570265.0195539934, 5446085.820560077], [570266.1156025948, 5446088.091875268], [570279.0230203122, 5446097.325376032], [570287.2911548499, 5446100.517351929], [570294.4318694972, 5446107.092460161], [570297.1597157376, 5446113.333791635], [570301.6576215609, 5446119.047379975], [570309.8868129763, 5446122.688301566], [570315.9643814599, 5446128.384739106], [570324.7479270801, 5446140.116782681], [570342.6077829052, 5446154.555387597], [570343.7867466797, 5446160.757592414], [570356.0287949622, 5446167.137172601], [570371.039728817, 5446180.876213181], [570379.062444223, 5446184.318856447], [570383.2437432376, 5446188.222152873], [570387.5499025404, 5446198.424699296], [570387.8429697478, 5446198.7084360635], [570393.6827820675, 5446204.363815098], [570392.5590506792, 5446205.955724072], [570389.9411585509, 5446205.388507815], [570380.3556554429, 5446211.569372676], [570363.411641299, 5446211.353396942], [570313.3819732001, 5446212.606779832], [570283.1109933206, 5446206.419139992], [570270.6474920055, 5446203.871469206], [570256.0532350431, 5446200.356477213], [570244.667043548, 5446194.88549808], [570210.1533612784, 5446184.068792365], [570169.4746050503, 5446164.347244281], [570162.3451720005, 5446160.890928486], [570110.0, 5446140.382438534], [570110.0, 5446927.1507852925], [570119.7071441782, 5446937.382034679], [570136.7276417412, 5446944.997922378], [570144.8445327521, 5446951.330981016], [570155.1265045085, 5446955.433603465], [570163.1567011675, 5446962.739992271], [570173.5334344717, 5446976.163523752], [570182.2623005061, 5446981.432241071], [570185.6747879437, 5446987.5160857765], [570190.1875335838, 5446988.901552455], [570196.737044768, 5446996.107961057], [570198.1401256988, 5447001.442207605], [570209.279287695, 5447011.589957772], [570211.1957423587, 5447022.394242471], [570229.0485492933, 5447033.255741471], [570237.121303882, 5447043.036199632], [570241.1496862377, 5447044.970395551], [570244.4998173187, 5447050.734460358], [570249.4846303249, 5447055.717403533], [570256.3847607935, 5447071.200371531], [570267.1553595331, 5447082.893064199], [570278.2125049366, 5447091.165640694], [570280.3151439454, 5447096.831757378], [570287.4313754964, 5447102.5207785005], [570296.2329568547, 5447116.081747492], [570303.4045906268, 5447131.090962662], [570302.4324334428, 5447139.38788377], [570306.064165204, 5447146.280009612], [570308.5915548105, 5447160.234223249], [570311.2952591232, 5447165.798432902], [570316.7227405591, 5447170.61205279], [570318.5049032471, 5447178.107304508], [570324.7407660224, 5447183.029700747], [570326.9390550527, 5447187.429677861], [570327.2620448445, 5447190.986997602], [570335.2463227133, 5447205.543821809], [570345.1058966077, 5447216.37269913], [570345.7348973048, 5447222.055928424], [570351.3502057199, 5447237.067862617], [570356.1180649321, 5447241.049087088], [570359.205687477, 5447245.901678139], [570359.3758011092, 5447251.975380117], [570356.7547364155, 5447258.721856005], [570358.487603434, 5447264.399358049], [570357.9099916953, 5447271.202162625], [570359.8805563048, 5447280.895308765], [570362.4686556485, 5447283.858455497], [570363.6779688741, 5447290.661575471], [570368.3474610583, 5447297.62086065], [570372.6980787985, 5447300.055990422], [570375.5568091086, 5447303.637311353], [570380.3981929425, 5447314.299793041], [570381.9190750285, 5447322.85358404], [570387.7323985947, 5447327.54616402], [570396.8396994077, 5447331.834443117], [570398.6039803128, 5447337.584089698], [570407.2994553904, 5447344.635228167], [570410.5774879218, 5447364.923906735], [570409.8857076279, 5447371.430303869], [570417.9732517824, 5447386.861656866], [570420.7296120606, 5447394.9610490175], [570429.6553619959, 5447403.214526154], [570429.8322997782, 5447409.724411408], [570434.2856115935, 5447415.88557446], [570436.2363456453, 5447424.776438188], [570445.5350554166, 5447434.904306215], [570447.4016338639, 5447439.158862975], [570448.2218599613, 5447441.543031581], [570447.5663365781, 5447445.801089874], [570449.3487901947, 5447450.126831627], [570452.4186979812, 5447453.27120711], [570460.1746009993, 5447455.45130561], [570461.5868040393, 5447458.80066332], [570462.102096261, 5447465.743951375], [570472.6216564788, 5447474.851676022], [570478.1039642978, 5447487.901677251], [570478.8414726368, 5447500.042933598], [570485.7661616789, 5447506.245327946], [570487.2001779913, 5447512.910665847], [570495.3083674451, 5447525.435821658], [570498.4830033784, 5447527.82083113], [570501.7218791533, 5447535.040485273], [570503.1752699921, 5447541.46859186], [570509.2577531334, 5447548.535904283], [570510.934844979, 5447555.878319026], [570515.4033096845, 5447560.773086592], [570517.2815763208, 5447566.914086356], [570521.1274281259, 5447570.472570471], [570521.32475605, 5447576.61097495], [570520.3028045004, 5447580.474429352], [570521.9264973891, 5447586.012502487], [570534.1882684263, 5447615.9581115255], [570545.1506516531, 5447633.891534749], [570549.2420665987, 5447646.4893486025], [570551.1934713799, 5447649.524487441], [570551.5051098566, 5447654.009951601], [570555.1359055522, 5447657.454520684], [570557.3152446608, 5447663.296861325], [570557.8255887673, 5447669.045004905], [570563.4820108174, 5447675.573812472], [570570.6244046008, 5447689.6505012885], [570578.1410411781, 5447698.906683386], [570580.24626414, 5447709.147822521], [570588.2386377067, 5447716.035509379], [570586.9499087704, 5447719.291445074], [570587.2704923864, 5447724.6238423735], [570597.7846848085, 5447732.256726523], [570598.3939860879, 5447734.669198299], [570597.5657653126, 5447738.28868782], [570599.0885993983, 5447740.0], [571330.4844040516, 5447740.0], [571325.1461585272, 5447732.399859388], [571317.6106959499, 5447728.007083579], [571308.3536202665, 5447716.876292072], [571306.3599350386, 5447717.136032438], [571305.8462491828, 5447719.93738714], [571307.2391193663, 5447724.833870801], [571303.1716223378, 5447729.274358982], [571300.6852351385, 5447738.242176068], [571292.5381518065, 5447734.528460733], [571279.9272741968, 5447734.209347206], [571267.9494130219, 5447730.68525182], [571263.5267269383, 5447732.505307558], [571261.3221518728, 5447731.77611797], [571256.3876989533, 5447727.591180218], [571253.4950962188, 5447719.010622771], [571242.4917696654, 5447704.923085193], [571238.7186891213, 5447695.83323842], [571237.1937636521, 5447687.893913765], [571238.3899369987, 5447680.894609677], [571234.608611522, 5447676.773340289], [571230.224059753, 5447664.687984585], [571220.140701024, 5447646.983064054], [571210.7623840851, 5447637.959201019], [571209.3713222042, 5447632.440631293], [571201.9367478781, 5447618.619601182], [571196.1087344468, 5447612.417132134], [571185.4081457229, 5447593.911947695], [571184.0754666778, 5447587.537114724], [571184.5905372736, 5447582.870933795], [571187.0426337661, 5447582.150917178], [571195.7337110573, 5447585.514016358], [571210.8253965223, 5447594.120482609], [571233.1021332247, 5447608.07127087], [571248.8159848384, 5447622.711162059], [571251.4206877351, 5447622.250327088], [571252.9594186868, 5447618.127314713], [571255.0376365371, 5447617.174868356], [571264.8964671683, 5447621.788054728], [571273.1134093881, 5447622.084044324], [571290.4234198993, 5447627.388066336], [571295.8481530481, 5447627.108369919], [571321.0508196002, 5447635.305651026], [571353.0869908562, 5447639.075805595], [571360.4914271455, 5447643.352016901], [571388.5512223698, 5447654.145575571], [571428.703829412, 5447654.31318767], [571430.0, 5447654.166976339], [571430.0, 5447557.285929497], [571423.8716100357, 5447561.575216542], [571423.0545666388, 5447558.971694326], [571426.4475277916, 5447553.1806278825], [571425.5929301212, 5447550.924010352], [571417.3472830799, 5447551.144886497], [571396.8202119912, 5447546.949472397], [571392.8885778106, 5447540.6196115], [571386.2970772694, 5447536.801207872], [571380.2999096554, 5447537.2161332555], [571371.3177500444, 5447533.500384099], [571361.6465939225, 5447532.106299116], [571330.8697900858, 5447536.1941709295], [571315.298585788, 5447533.435826081], [571308.9783850305, 5447530.260173351], [571304.7995407571, 5447532.491441772], [571300.8933910544, 5447528.889423105], [571293.6326047508, 5447526.045576336], [571274.0564349839, 5447522.555886551], [571270.6735678369, 5447516.920220638], [571260.852578331, 5447513.8875986], [571256.3704334642, 5447510.300943861], [571252.6282180089, 5447510.004060411], [571244.8220985642, 5447505.007454338], [571241.725684573, 5447501.204556664], [571238.5907310607, 5447501.1488169], [571234.4407685152, 5447496.668369332], [571229.4567085438, 5447499.551030998], [571227.9022704687, 5447498.730718843], [571226.2993806602, 5447493.707246004], [571224.4867767122, 5447492.024991625], [571208.6768955623, 5447487.980798726], [571193.7652979207, 5447481.1418655785], [571185.4351364108, 5447476.455525413], [571184.3805140731, 5447474.371459612], [571188.5692954017, 5447468.307877349], [571198.528365841, 5447466.979479401], [571238.1582921273, 5447476.52290839], [571267.8407371654, 5447477.3713949565], [571307.7195284285, 5447474.994513635], [571329.8081157095, 5447477.882965547], [571339.2405646711, 5447481.412970451], [571350.7175895475, 5447482.346772598], [571373.3598830441, 5447481.180224553], [571379.7142331795, 5447479.006258999], [571408.4909225856, 5447476.451883039], [571430.0, 5447472.279975797], [571430.0, 5447396.043641903], [571414.5347410808, 5447393.474496445], [571409.3009618755, 5447391.104455555], [571388.4946547807, 5447387.977894916], [571382.6685049799, 5447384.593912411], [571370.3706423629, 5447383.136767878], [571366.0045621085, 5447381.19712638], [571341.5283047467, 5447380.182108529], [571328.6285765837, 5447377.828056004], [571302.7734889312, 5447379.886452961], [571290.8434988603, 5447381.97122168], [571285.7901609867, 5447385.219059674], [571276.6505569969, 5447383.02445725], [571260.8643233561, 5447385.730903714], [571252.2454399199, 5447388.884926036], [571246.6407919305, 5447394.155483855], [571237.5947926531, 5447394.330719475], [571231.6553057756, 5447398.077209814], [571229.251406799, 5447397.547412048], [571228.2601766151, 5447394.282510216], [571226.241979361, 5447393.197649192], [571210.9785538799, 5447397.394624512], [571187.1777809917, 5447388.732302316], [571174.7492589558, 5447388.95126876], [571164.1127122107, 5447382.712726077], [571144.4192297386, 5447380.944019441], [571117.2018008451, 5447365.493629077], [571092.3705042214, 5447347.864242214], [571087.0609023017, 5447340.26646642], [571077.804041448, 5447333.248855656], [571071.1313176715, 5447325.288093808], [571064.8354227565, 5447320.4559861105], [571053.2890539024, 5447306.575973949], [571050.4120073182, 5447301.426654862], [571047.6536133657, 5447292.356735019], [571044.1115604648, 5447288.071332876], [571040.8215057497, 5447279.5709950365], [571035.6134192541, 5447271.952252607], [571035.3051170611, 5447266.803548171], [571029.512131945, 5447261.621444056], [571028.6586601641, 5447258.404449156], [571019.5314519727, 5447247.128985517], [571009.129756666, 5447227.506863017], [571002.7654000764, 5447223.762644196], [571000.2643206106, 5447220.533271659], [570996.2044771645, 5447210.612342401], [570990.739854223, 5447206.963416744], [570990.3423969736, 5447200.877258225], [570981.8450053195, 5447187.291108602], [570975.4543303349, 5447180.438710871], [570972.2206411638, 5447173.4745873865], [570962.5743390671, 5447161.852336442], [570957.2616574035, 5447150.261531414], [570944.724772929, 5447134.33076323], [570939.1358107434, 5447122.577513684], [570922.5191760524, 5447100.102833616], [570920.6349085916, 5447093.179416093], [570910.2233000402, 5447080.636779888], [570899.5338671531, 5447063.862082905], [570886.02987777, 5447036.674678863], [570885.4461252305, 5447032.88149188], [570881.5085817988, 5447028.719123179], [570872.7473117555, 5447012.697806467], [570870.6687562708, 5447004.353676009], [570865.8127660984, 5446996.74510862], [570857.3101327252, 5446976.763824832], [570854.3604355832, 5446967.059905466], [570848.3652041636, 5446954.82273259], [570846.8055412108, 5446948.112011743], [570842.2324144248, 5446939.3634920865], [570834.6308341234, 5446917.695532719], [570827.3407191008, 5446904.531997808], [570825.1298480022, 5446892.303384382], [570824.8471234166, 5446884.096273714], [570819.4278763413, 5446878.72239282], [570817.9404127857, 5446875.0076643], [570813.0733682218, 5446852.8823130345], [570809.206738278, 5446847.240014809], [570807.8565973908, 5446841.119971388], [570802.8613664737, 5446834.509848765], [570799.0146738112, 5446827.390268504], [570792.52638078, 5446821.723654774], [570792.6512048627, 5446811.3503809925], [570791.2304470848, 5446807.014138582], [570784.4806495453, 5446804.815749529], [570781.489565697, 5446801.290762185], [570771.8676179389, 5446796.202894831], [570767.8843630459, 5446786.538762714], [570759.7278122349, 5446778.279979709], [570756.3079488031, 5446771.173525114], [570744.4939543413, 5446760.131517025], [570739.6365366961, 5446758.498560463], [570738.6116495986, 5446751.959752953], [570725.1384557672, 5446743.153016941], [570717.2964707474, 5446740.6665039435], [570704.4453525359, 5446727.746314018], [570704.6890304539, 5446722.914572098], [570702.8383501933, 5446720.034905133], [570696.522425478, 5446719.573670823], [570686.8184688718, 5446701.305353549], [570681.511419554, 5446695.474812011], [570680.224841852, 5446689.181310319], [570670.2296497459, 5446673.007700262], [570667.5076717754, 5446664.8869687505], [570660.859355726, 5446653.901546864], [570657.5522186796, 5446645.13384066], [570656.5949282686, 5446637.141072543], [570653.6506626611, 5446631.862015722], [570645.6492826438, 5446623.630558465], [570644.637616041, 5446620.50632678], [570641.4531512458, 5446616.908489411], [570639.9242380778, 5446611.106815645], [570631.1908716565, 5446598.436292222], [570624.532052229, 5446583.9126756815], [570612.5876057155, 5446563.623768343], [570599.1936470028, 5446548.640367876], [570592.4144303027, 5446538.956476081], [570591.2613153154, 5446533.184917962], [570594.5364863152, 5446524.743525712], [570596.5160150306, 5446509.55379718], [570595.726245197, 5446492.040726556], [570593.2261707323, 5446474.840430225], [570593.1997675599, 5446466.765531026], [570594.6963389514, 5446459.0588907525], [570602.4133801676, 5446456.064084758], [570622.16552578, 5446458.102727439], [570626.9453468738, 5446460.111353754], [570645.6850937041, 5446473.7279452905], [570664.8055632636, 5446480.268650852], [570671.6685254229, 5446486.271887488], [570688.8086929489, 5446492.496439829], [570707.669052029, 5446502.24751105], [570743.9326383497, 5446517.354405331], [570790.2176866869, 5446534.798238533], [570800.8392105273, 5446540.938202208], [570805.6517360256, 5446541.633438881], [570846.2123711739, 5446569.117863396], [570871.4049962687, 5446588.73880965], [570884.708685497, 5446602.044081641], [570890.9171467192, 5446612.544097748], [570895.9758708199, 5446615.0754045695], [570900.6482058938, 5446612.049248088], [570901.9899924563, 5446612.533028806], [570907.4996459997, 5446622.051462693], [570908.331624416, 5446623.48877993], [570914.3173817393, 5446630.179650234], [570909.130784943, 5446639.364456801], [570919.465960318, 5446644.518808261], [570927.0882499806, 5446654.110133155], [570934.9121181176, 5446661.272115645], [570936.4055016733, 5446664.886864558], [570940.7795110267, 5446669.801399917], [570959.163152216, 5446680.858276727], [570966.3748329376, 5446687.107047459], [570972.8195639133, 5446692.6913542915], [570985.7842929865, 5446703.92523349], [570987.5758854673, 5446705.477594506], [570988.7979649503, 5446706.536651283], [571045.4734127752, 5446750.918140341], [571097.7268364646, 5446801.857434914], [571118.1465318433, 5446819.120311549], [571129.0947405454, 5446828.375983236], [571140.6273520074, 5446838.125735892], [571169.8055229521, 5446862.312334745], [571188.0465523173, 5446864.88131977], [571198.2826091937, 5446866.322898267], [571225.4612575829, 5446873.812778825], [571231.0363711647, 5446872.90000329], [571241.5241627246, 5446875.146913506], [571258.0596494355, 5446883.201985868], [571270.0753071347, 5446886.177232457], [571304.7177940878, 5446900.985113767], [571327.1020200123, 5446907.25255946], [571335.8275296952, 5446912.245351536], [571351.584890261, 5446915.1715204315], [571368.2071206972, 5446910.352638971], [571381.0575136775, 5446903.36528942], [571391.5967014217, 5446900.962111623], [571408.3044721845, 5446891.601837531], [571413.2147874768, 5446884.100239741], [571416.9415623574, 5446883.165056667], [571430.0, 5446887.440545889], [571430.0, 5446361.98732805], [571423.1857361554, 5446361.379893313]], [[571246.9162390513, 5446864.006188915], [571184.8713462255, 5446853.591436308], [571163.4734582775, 5446843.175476519], [571159.9660283556, 5446841.124106085], [571155.481225073, 5446833.508250803], [571140.684287048, 5446820.093978988], [571121.4709868662, 5446794.880145511], [571103.9586740204, 5446782.953895255], [571094.3018321726, 5446772.753845821], [571086.4560339246, 5446768.307454627], [571083.493988738, 5446763.814243201], [571073.4781801235, 5446756.894302664], [571056.3950064279, 5446737.932450672], [571039.9117551952, 5446729.020331662], [571037.2439156398, 5446724.620639618], [571030.7237264939, 5446718.76025942], [571017.1764317987, 5446707.544432059], [571012.1398279618, 5446705.109761664], [570997.5610300582, 5446691.560059866], [570987.1763383064, 5446680.848119215], [570974.3902972424, 5446663.151972382], [570973.3359887776, 5446653.733376019], [570963.6419724352, 5446635.993426526], [570946.8232276902, 5446621.863595796], [570911.6027854991, 5446599.473181343], [570901.0719199732, 5446588.384655949], [570889.6501151123, 5446580.23556789], [570883.3069821441, 5446571.722288375], [570872.7029511146, 5446550.478271121], [570868.6538024038, 5446546.8424401805], [570847.1670331337, 5446536.506097687], [570837.312999397, 5446535.708687125], [570829.3217910262, 5446531.950710397], [570822.8493588662, 5446526.894593166], [570809.7495559743, 5446521.0304662455], [570798.6497050424, 5446520.164607388], [570791.5472314672, 5446514.470102422], [570785.1810684596, 5446515.178170871], [570781.1145289165, 5446513.82593188], [570771.5111698597, 5446506.773112024], [570764.4718988435, 5446505.334935052], [570742.1930784815, 5446492.662947863], [570731.2859588604, 5446488.35079863], [570709.4267124205, 5446473.371364447], [570684.1147344095, 5446464.569975177], [570665.9059368477, 5446454.108861926], [570650.0789566801, 5446445.647679871], [570639.9153614204, 5446440.214025025], [570633.4183314438, 5446442.195091725], [570624.4894529546, 5446437.875566068], [570619.0116051551, 5446437.183650263], [570616.9958526093, 5446431.296609922], [570604.5420697213, 5446424.333194597], [570599.3378396884, 5446424.340347735], [570595.3433407249, 5446427.326965683], [570570.6391974225, 5446418.99440634], [570561.2101109332, 5446413.709578292], [570556.2588227771, 5446414.948407405], [570553.2241914653, 5446417.4156911895], [570549.3744909269, 5446412.596409814], [570537.268901035, 5446409.558817926], [570524.7800424709, 5446411.856376077], [570520.4605640894, 5446406.297003697], [570515.6180022267, 5446405.788661577], [570507.2736573549, 5446397.9267959], [570489.3217708779, 5446389.382750253], [570479.9141110682, 5446383.143729156], [570474.7710537284, 5446376.677556377], [570463.633001501, 5446373.8310439885], [570457.305704875, 5446367.617920749], [570453.1775318895, 5446365.715474597], [570441.5601824622, 5446353.442282626], [570437.3165442211, 5446343.808718406], [570431.4995089038, 5446336.094911375], [570432.6731822626, 5446333.84226922], [570442.4912697066, 5446331.143990631], [570453.345483734, 5446332.395361442], [570460.8881779657, 5446331.068464809], [570475.4339140073, 5446334.624234399], [570507.8411802212, 5446334.535181964], [570508.9989208577, 5446335.385002597], [570535.547253193, 5446335.025097437], [570571.2016491224, 5446338.155370835], [570596.8181584501, 5446335.9400344705], [570603.7480563901, 5446338.911961364], [570622.8085517584, 5446341.271894555], [570635.5050466933, 5446349.297623468], [570642.1476664382, 5446351.370794787], [570649.7863505409, 5446360.995133435], [570658.1255569567, 5446366.152044948], [570660.9086826092, 5446370.116444349], [570668.2542074862, 5446375.175922774], [570677.5399332626, 5446385.139437887], [570684.8958946893, 5446386.729187725], [570688.2961414983, 5446392.440311696], [570696.6882628449, 5446396.821139093], [570703.8672127659, 5446405.039793125], [570709.9801677443, 5446409.074269313], [570712.3038095469, 5446410.607845532], [570784.0847372807, 5446457.983838956], [570883.1129725463, 5446515.721945404], [570994.3988096255, 5446579.893467728], [571086.305017118, 5446631.269567484], [571143.5895460894, 5446655.535629143], [571168.1687747494, 5446663.695158174], [571177.2216318003, 5446679.497333119], [571241.5214669827, 5446717.971765784], [571258.9424957223, 5446722.902286691], [571280.3146915248, 5446740.432194464], [571326.0829420638, 5446780.236832674], [571334.4218091379, 5446788.0675830515], [571338.9125885587, 5446792.284889086], [571349.5429566996, 5446802.267848488], [571357.0226191778, 5446809.291674319], [571362.1261824747, 5446814.084484222], [571366.8172359181, 5446824.643221856], [571373.6021485807, 5446839.9149121065], [571373.8324833331, 5446840.4332432235], [571379.2127713385, 5446850.555803869], [571376.4099959992, 5446865.4784751255], [571370.8491183176, 5446874.247339149], [571358.4876027453, 5446881.311066628], [571352.9979439871, 5446882.706750802], [571330.9490640543, 5446881.88664791], [571314.7913853404, 5446883.199782897], [571303.0990898036, 5446880.512964926], [571293.1404566545, 5446875.802179369], [571275.2095950014, 5446873.187364888], [571264.6027546797, 5446868.676929318], [571246.9162390513, 5446864.006188915]], [[570255.9812914573, 5446656.266615055], [570245.4260103223, 5446647.995950169], [570231.1792651145, 5446632.614201513], [570226.8326520653, 5446630.208545157], [570224.8371417754, 5446626.260392121], [570214.8749014651, 5446617.145164583], [570211.6228453647, 5446612.108524341], [570204.8812473424, 5446607.974364255], [570196.3672068296, 5446599.6231513815], [570189.8297080281, 5446599.901892103], [570185.1319172671, 5446598.088410827], [570182.5961874034, 5446594.27505863], [570177.0092765503, 5446592.775450528], [570176.0338928852, 5446587.64367488], [570174.3368464063, 5446584.853545352], [570173.090936867, 5446577.671158329], [570179.1169090292, 5446564.242858049], [570179.3879921796, 5446556.2287136605], [570178.3303331416, 5446549.559670398], [570175.5757781602, 5446543.306841214], [570165.6765486925, 5446532.214281483], [570165.7735922354, 5446529.305256471], [570183.000551919, 5446529.825458442], [570201.3850004759, 5446534.279041819], [570241.47524417, 5446539.780878663], [570249.7817858775, 5446543.188428943], [570267.4821913831, 5446546.146847971], [570282.6319588406, 5446551.996671722], [570288.5941969559, 5446556.847279026], [570292.9477723879, 5446557.982731928], [570300.2322656593, 5446562.811661163], [570312.4350627288, 5446566.11132882], [570328.4839959025, 5446578.192596217], [570334.4661360817, 5446580.577399616], [570348.8469234549, 5446592.4212367935], [570356.6079005932, 5446599.372861279], [570359.6027348399, 5446607.3351932], [570367.4873683517, 5446615.589429926], [570380.6086975951, 5446634.81025796], [570381.9044940611, 5446638.92015479], [570387.6818528211, 5446643.818949565], [570394.4460221999, 5446654.877590942], [570406.2567580806, 5446663.137203069], [570412.8499193476, 5446672.3596938355], [570416.8680613758, 5446675.4388153525], [570426.9096373756, 5446691.248827487], [570439.3207976756, 5446698.758997011], [570446.1944219945, 5446713.666031754], [570449.4496676206, 5446716.869609632], [570457.3510006452, 5446730.090715487], [570462.6456097169, 5446742.601962326], [570467.2583152202, 5446745.501019037], [570474.0037489911, 5446755.5568645485], [570484.3738600607, 5446764.1902784975], [570493.4053949962, 5446781.433947796], [570494.5952311957, 5446785.258007976], [570495.863834884, 5446797.803508873], [570500.7650085142, 5446816.688527338], [570509.1337496552, 5446833.948793902], [570516.1187215324, 5446840.099795884], [570520.27221056, 5446852.521933252], [570524.1518534108, 5446859.691357492], [570527.215705888, 5446883.39164467], [570525.1603850004, 5446887.060681739], [570519.538291459, 5446886.50447829], [570518.76481549, 5446882.448965689], [570514.0619852758, 5446877.193966449], [570511.3271787511, 5446865.603625403], [570509.3315915855, 5446862.726787344], [570502.9447879347, 5446858.818413894], [570500.0411379053, 5446854.382246187], [570494.4334604323, 5446851.857983496], [570483.9973056157, 5446842.610486279], [570481.2084552201, 5446844.028747915], [570478.2750430321, 5446850.23682207], [570478.3543883432, 5446857.436477513], [570479.6009328834, 5446861.198622974], [570476.4965336898, 5446865.641239327], [570476.207341214, 5446871.707504685], [570474.5506959474, 5446872.054228571], [570469.8362173465, 5446868.197444887], [570461.6728939563, 5446864.568628739], [570458.2073937516, 5446859.05105297], [570452.9290339281, 5446855.141285849], [570442.5419205648, 5446840.628497736], [570437.6637813544, 5446838.57491989], [570427.473891131, 5446829.971708604], [570424.6050796184, 5446821.4143679375], [570420.588807985, 5446818.8078371165], [570415.4349270908, 5446811.718010785], [570411.0543624598, 5446807.482947972], [570396.727507278, 5446800.1153822495], [570380.4401867986, 5446785.796430653], [570375.7212827357, 5446778.360171438], [570361.1763204329, 5446765.000340978], [570353.4218430138, 5446753.112537621], [570334.6650021982, 5446734.961510397], [570330.8414367802, 5446728.403903778], [570304.9862804685, 5446700.129980225], [570290.2295038368, 5446688.716454613], [570268.7080620467, 5446667.658820047], [570260.3448221977, 5446662.439802712], [570255.9812914573, 5446656.266615055]]], [[[570110.2540836944, 5446067.053101492], [570118.0061957896, 5446069.882214924], [570120.2576778773, 5446067.96733167], [570118.546149731, 5446064.719840224], [570110.0, 5446058.6134763835], [570110.0, 5446066.8529057745], [570110.2540836944, 5446067.053101492]]], [[[570220.9163120212, 5447194.64547852], [570230.9340454442, 5447187.657222441], [570241.9056403528, 5447175.599952672], [570258.905070385, 5447163.619415449], [570278.8667619827, 5447156.590957887], [570279.9418990967, 5447150.589646376], [570276.9406641062, 5447144.69199712], [570270.8856609497, 5447141.601768625], [570261.9282931286, 5447142.599573893], [570253.9140485893, 5447145.666296873], [570234.8908697462, 5447158.566134683], [570218.819089378, 5447167.545463712], [570200.807186411, 5447180.6139298715], [570195.9084671928, 5447188.634680567], [570195.9286187325, 5447191.636955262], [570200.8120540846, 5447194.556442263], [570210.8395111568, 5447197.686022912], [570220.9163120212, 5447194.64547852]]], [[[570110.0, 5447245.379554944], [570110.0, 5447249.796171648], [570125.8849166953, 5447252.6649292465], [570137.891212868, 5447252.661887775], [570155.856141803, 5447249.56587245], [570158.912630272, 5447250.5497917775], [570181.8735834394, 5447250.686066941], [570184.9489703624, 5447249.61331375], [570190.8413122579, 5447242.561397435], [570193.8125444446, 5447241.654052695], [570201.8889529045, 5447233.684855191], [570205.8802622794, 5447231.6676098015], [570206.8465825863, 5447229.622996642], [570203.911601158, 5447227.684352447], [570196.8828164024, 5447226.649913514], [570174.8978369504, 5447234.5978920795], [570171.8413495386, 5447233.613975021], [570149.9302430295, 5447234.602970187], [570128.9277631389, 5447234.647246624], [570124.9238105369, 5447233.651357379], [570119.824747478, 5447235.643450685], [570114.8237283673, 5447242.551156261], [570110.0, 5447245.379554944]]], [[[570174.8998008679, 5447713.613661491], [570196.8880849156, 5447719.5860037105], [570207.9079738152, 5447723.695469146], [570210.8038480466, 5447724.677425733], [570233.8668970845, 5447724.659604549], [570240.8939945662, 5447720.624162747], [570242.8976198074, 5447716.691452534], [570230.8248322878, 5447707.676417222], [570224.8728926164, 5447705.699378399], [570215.821222063, 5447705.584176998], [570196.824126809, 5447701.695551121], [570174.9253266292, 5447695.557554727], [570167.8467028139, 5447695.623210561], [570164.810580382, 5447697.6415059455], [570163.9147604266, 5447701.599481114], [570167.8516303124, 5447709.565788859], [570174.8998008679, 5447713.613661491]]]]}}, {"type": "Feature", "properties": {"class": 2, "timestamp_utc": "2025-12-12 14:08:24+00:00", "source_product": "Flood_CAN_BC_LowerFraser_20251212_140824"}, "geometry": {"type": "MultiPolygon", "coordinates": [[[[570126.0747423532, 5445346.977181559], [570114.3711140914, 5445343.224598192], [570110.0, 5445342.371204566], [570110.0, 5445345.073211079], [570111.9016092357, 5445344.614362229], [570134.5899592484, 5445355.448595814], [570139.449823871, 5445358.7401320655], [570139.0553771773, 5445356.849609391], [570134.3028304084, 5445351.518850862], [570126.0747423532, 5445346.977181559]]], [[[570183.8703270275, 5445402.676050872], [570181.0212053566, 5445400.6521749245], [570178.7202190753, 5445398.194604681], [570176.9673681408, 5445395.303340357], [570175.7626524601, 5445391.978382195], [570175.5216915869, 5445388.069140987], [570176.2444851241, 5445383.575616977], [570177.9310325913, 5445378.497810343], [570180.5813333613, 5445372.835721209], [570180.8885062726, 5445368.492788793], [570178.8525524486, 5445365.469012638], [570174.4734723722, 5445363.764391854], [570167.7512659148, 5445363.378925112], [570162.3120658034, 5445363.939136814], [570158.1558715557, 5445365.445027727], [570155.2826829436, 5445367.896598521], [570153.7756559644, 5445371.116196227], [570165.8435594128, 5445380.570878889], [570169.1222886276, 5445396.573519244], [570171.1973235636, 5445419.531659335], [570172.509390023, 5445424.134988657], [570177.3337658264, 5445433.098133972], [570188.6024595199, 5445445.680739843], [570196.6730311837, 5445447.262799362], [570203.1197544533, 5445444.159645695], [570216.3848905528, 5445450.747569356], [570221.9761216398, 5445455.8993481165], [570232.2455394354, 5445456.078350697], [570221.1681013495, 5445449.815676988], [570210.0546932896, 5445441.852687959], [570202.0192980025, 5445433.949912704], [570197.061912815, 5445426.107353632], [570195.1825351447, 5445418.325012182], [570192.9236878788, 5445412.090712162], [570190.2853709263, 5445407.404452471], [570187.2675840931, 5445404.266232255], [570183.8703270275, 5445402.676050872]]], [[[570270.2765079319, 5445474.696210775], [570270.0561399679, 5445479.808154215], [570270.9490434655, 5445481.8385594785], [570278.0812334078, 5445487.501768922], [570277.9618520258, 5445490.722717781], [570279.4800196781, 5445494.262869467], [570286.8919618998, 5445498.493156155], [570292.5733669286, 5445507.942478504], [570298.8507671326, 5445512.062277697], [570299.0705944869, 5445509.748911481], [570298.9621310694, 5445505.5565484455], [570298.3055323755, 5445501.797884015], [570297.1007986001, 5445498.472917989], [570295.0648237034, 5445495.449135636], [570292.1976078916, 5445492.726536706], [570288.4991513162, 5445490.3051208565], [570283.9694541023, 5445488.184887705], [570280.8191340524, 5445485.329773812], [570279.0481909852, 5445481.739779845], [570278.6566244944, 5445477.414906317], [570279.6444339902, 5445472.355153584], [570278.5541412763, 5445468.048358229], [570275.3857472227, 5445464.494519699], [570270.1392523822, 5445461.69363707], [570262.8146570001, 5445459.6457090005], [570257.6223930722, 5445458.941002513], [570254.5624596732, 5445459.579518643], [570253.6348565, 5445461.56125814], [570254.1326016218, 5445462.9349999605], [570260.6523374321, 5445467.962651226], [570266.1507554584, 5445468.71170325], [570270.2765079319, 5445474.696210775]]], [[[570308.9666665315, 5445535.090855568], [570308.5034959227, 5445536.485746826], [570309.6972170145, 5445540.820528507], [570313.9915792121, 5445545.432631533], [570317.9804895123, 5445554.012435908], [570323.4356846334, 5445558.211458853], [570324.1061919524, 5445561.7032928], [570325.5083019232, 5445558.707794806], [570325.7612225579, 5445552.2686474025], [570323.0867161298, 5445546.1849196], [570317.4847844024, 5445540.456610433], [570308.9666665315, 5445535.090855568]]], [[[570486.7249513427, 5445752.549327364], [570483.5926643191, 5445750.392940725], [570480.3640268863, 5445749.917129559], [570477.0390384843, 5445751.12189374], [570473.2622634496, 5445751.079786801], [570469.0337023035, 5445749.790808586], [570466.165676362, 5445748.236882484], [570466.5626596484, 5445749.556948542], [570486.1030220394, 5445770.406800473], [570490.3336786563, 5445778.399556213], [570494.6084560073, 5445780.177337503], [570495.8817565993, 5445784.075579005], [570498.6509168202, 5445786.137099194], [570513.495529253, 5445788.94040932], [570520.0833282829, 5445793.327155854], [570519.9756434126, 5445789.166054646], [570518.4515981311, 5445784.311081788], [570515.5481681275, 5445780.191008294], [570511.2653538012, 5445776.805833455], [570505.6031553408, 5445774.155556413], [570500.6216095123, 5445770.788462935], [570496.3207164342, 5445766.704553613], [570492.7004761079, 5445761.903829067], [570489.7608884445, 5445756.386289909], [570486.7249513427, 5445752.549327364]]], [[[570629.978414173, 5445803.379626618], [570625.5209819933, 5445804.0543587385], [570619.7624238929, 5445803.084680427], [570612.7027410024, 5445800.470591124], [570604.3419348833, 5445796.212090369], [570594.6800075644, 5445790.3091778355], [570588.1503828231, 5445786.562642061], [570584.7530579383, 5445784.972484217], [570584.4880315991, 5445785.538705003], [570587.3553039252, 5445788.261304643], [570588.8251086089, 5445791.020072611], [570588.8974452297, 5445793.815009131], [570588.8943073169, 5445793.82171319], [570597.457071715, 5445794.975320853], [570606.0671197542, 5445805.673907097], [570616.5776236904, 5445810.924790866], [570631.7358174184, 5445824.044413776], [570653.3928034282, 5445829.846275811], [570657.1615433892, 5445838.8873703], [570660.9549666857, 5445842.08763284], [570665.8431803964, 5445843.550592516], [570670.3537334925, 5445849.543874049], [570677.0634362063, 5445853.313931732], [570684.5430226432, 5445863.95496713], [570697.5501976192, 5445870.747700696], [570704.2062986752, 5445872.211567306], [570700.1002846146, 5445865.192099942], [570693.727133794, 5445856.686939206], [570686.5408251608, 5445849.181713238], [570678.5413586709, 5445842.676420654], [570672.806786339, 5445837.231228149], [570669.3371062316, 5445832.846136413], [570668.1323169314, 5445829.521145703], [570669.1924175315, 5445827.256255917], [570667.8551159058, 5445824.214377037], [570664.1204129077, 5445820.395508994], [570657.988309812, 5445815.799651236], [570649.4588083095, 5445810.426802654], [570641.947326206, 5445806.565848916], [570635.4538619121, 5445804.216790148], [570629.978414173, 5445803.379626618]]], [[[570112.5843998131, 5446133.786496209], [570119.4935210275, 5446135.9851079965], [570128.4807974627, 5446137.430757246], [570134.9742900769, 5446139.7799579315], [570138.9739988068, 5446143.032711971], [570140.4799231327, 5446147.18902067], [570139.5486101649, 5446151.959369929], [570162.3451720005, 5446160.890928486], [570169.4746050503, 5446164.347244281], [570210.1533612784, 5446184.068792365], [570244.667043548, 5446194.88549808], [570256.0532350431, 5446200.356477213], [570270.6474920055, 5446203.871469206], [570283.1109933206, 5446206.419139992], [570313.3819732001, 5446212.606779832], [570363.411641299, 5446211.353396942], [570380.3556554429, 5446211.569372676], [570389.9411585509, 5446205.388507815], [570392.5590506792, 5446205.955724072], [570393.6827820675, 5446204.363815098], [570387.8429697478, 5446198.7084360635], [570387.5499025404, 5446198.424699296], [570383.2437432376, 5446188.222152873], [570379.062444223, 5446184.318856447], [570371.039728817, 5446180.876213181], [570356.0287949622, 5446167.137172601], [570343.7867466797, 5446160.757592414], [570342.6077829052, 5446154.555387597], [570324.7479270801, 5446140.116782681], [570315.9643814599, 5446128.384739106], [570309.8868129763, 5446122.688301566], [570301.6576215609, 5446119.047379975], [570297.1597157376, 5446113.333791635], [570294.4318694972, 5446107.092460161], [570287.2911548499, 5446100.517351929], [570279.0230203122, 5446097.325376032], [570266.1156025948, 5446088.091875268], [570265.0195539934, 5446085.820560077], [570266.3968225832, 5446081.629952655], [570261.8373295885, 5446079.122461008], [570259.926947033, 5446074.5891013555], [570252.4774098588, 5446070.035254523], [570249.6582845874, 5446066.025254292], [570234.7771405772, 5446056.001522714], [570229.9588070022, 5446054.1956813205], [570222.479355419, 5446054.401245431], [570216.8010701698, 5446047.670164846], [570215.190968377, 5446048.984037655], [570215.8449347307, 5446052.0822986355], [570211.6955721834, 5446050.584834964], [570206.736167167, 5446050.5218209205], [570198.0825356748, 5446050.320685748], [570189.5618479184, 5446048.937725899], [570182.1752669098, 5446045.035129768], [570180.4511086573, 5446042.04348931], [570180.2790018806, 5446040.268485934], [570172.2288907067, 5446033.695097544], [570165.7125075175, 5446026.048642023], [570160.403918724, 5446020.93874757], [570140.6944724543, 5446010.603392263], [570122.6940319671, 5445995.877736742], [570125.0697012636, 5446004.101830804], [570129.0825076473, 5446013.607354205], [570130.4218148888, 5446018.616265321], [570137.1478984817, 5446029.467479673], [570134.2790228187, 5446027.5401392905], [570132.5458579527, 5446026.55989686], [570132.1631117468, 5446026.343410194], [570124.0189508327, 5446021.737071278], [570111.3032708439, 5446014.011901195], [570110.0, 5446013.328506228], [570110.0, 5446058.6134763835], [570118.546149731, 5446064.719840224], [570120.2576778773, 5446067.96733167], [570118.0061957896, 5446069.882214924], [570110.2540836944, 5446067.053101492], [570110.0, 5446066.8529057745], [570110.0, 5446132.207506865], [570112.5843998131, 5446133.786496209]]], [[[570696.6882628449, 5446396.821139093], [570688.2961414983, 5446392.440311696], [570684.8958946893, 5446386.729187725], [570677.5399332626, 5446385.139437887], [570668.2542074862, 5446375.175922774], [570660.9086826092, 5446370.116444349], [570658.1255569567, 5446366.152044948], [570649.7863505409, 5446360.995133435], [570642.1476664382, 5446351.370794787], [570635.5050466933, 5446349.297623468], [570622.8085517584, 5446341.271894555], [570603.7480563901, 5446338.911961364], [570596.8181584501, 5446335.9400344705], [570571.2016491224, 5446338.155370835], [570543.2903568299, 5446335.704897679], [570556.4702051225, 5446340.17691998], [570577.5351978478, 5446349.001248351], [570603.5818601181, 5446361.192713648], [570625.5504867821, 5446372.5108066425], [570643.4410707657, 5446382.95553535], [570657.2536057957, 5446392.526906144], [570666.9880863978, 5446401.224923791], [570681.9331056279, 5446411.326351337], [570702.0886713659, 5446422.831182481], [570727.454793093, 5446435.739408346], [570758.0314819013, 5446450.0510175405], [570782.5483001226, 5446462.561664555], [570801.0052348641, 5446473.271361977], [570813.4022755886, 5446482.180119006], [570819.7394141698, 5446489.287941473], [570824.7934781814, 5446495.450074155], [570828.5644663111, 5446500.666517091], [570831.0523774973, 5446504.937270219], [570832.2572109273, 5446508.26233343], [570832.7632930526, 5446511.605486829], [570832.5706236497, 5446514.966730457], [570831.679202457, 5446518.346064296], [570830.0890292375, 5446521.743488271], [570829.6132406977, 5446524.972218572], [570830.2518372249, 5446528.032255209], [570832.0048191597, 5446530.923598063], [570834.8721868156, 5446533.646246892], [570838.251522821, 5446534.537668185], [570842.1428266023, 5446533.597861571], [570846.5460973504, 5446530.826826991], [570851.4613340984, 5446526.224564694], [570855.7139982634, 5446523.037896291], [570859.3040906993, 5446521.266821646], [570862.2316120473, 5446520.911340754], [570864.4965627607, 5446521.971453796], [570866.7253323162, 5446521.634063046], [570868.9179204105, 5446519.899168547], [570871.0743267047, 5446516.766770549], [570873.194550893, 5446512.236869495], [570874.5570211771, 5446510.733479068], [570784.0847372807, 5446457.983838956], [570712.3038095469, 5446410.607845532], [570709.9801677443, 5446409.074269313], [570703.8672127659, 5446405.039793125], [570696.6882628449, 5446396.821139093]]], [[[570605.1757361122, 5446552.457566457], [570602.8384561792, 5446548.602422601], [570599.1036722573, 5446544.783447519], [570593.971384919, 5446541.000640661], [570593.4722749593, 5446540.467606736], [570599.1936470028, 5446548.640367876], [570606.1119228979, 5446556.379670877], [570606.1155115007, 5446556.348879414], [570605.1757361122, 5446552.457566457]]], [[[570174.4551043828, 5446584.858094017], [570174.9128928129, 5446580.930617514], [570173.9912491019, 5446577.738042373], [570173.3623205641, 5446577.066366771], [570173.090936867, 5446577.671158329], [570174.3368464063, 5446584.853545352], [570174.6252646751, 5446585.327730694], [570174.4551043828, 5446584.858094017]]], [[[570179.4307439718, 5446593.399731183], [570176.3998101468, 5446589.56907131], [570177.0092765503, 5446592.775450528], [570179.4748995617, 5446593.43729792], [570179.4307439718, 5446593.399731183]]], [[[570639.9242380778, 5446611.106815645], [570641.4531512458, 5446616.908489411], [570644.637616041, 5446620.50632678], [570645.6492826438, 5446623.630558465], [570653.2378123382, 5446631.437281457], [570649.210625032, 5446622.079077998], [570641.5963456732, 5446608.851087913], [570632.3195326229, 5446596.22550896], [570628.0012756784, 5446591.479372278], [570631.1908716565, 5446598.436292222], [570639.9242380778, 5446611.106815645]]], [[[570659.2092240604, 5446649.526867812], [570657.3149598778, 5446643.152711984], [570657.5522186796, 5446645.13384066], [570659.2092240604, 5446649.526867812]]], [[[570660.942008286, 5446654.038088702], [570660.460420807, 5446652.843951818], [570660.859355726, 5446653.901546864], [570660.942008286, 5446654.038088702]]], [[[570684.9086499707, 5446682.966425427], [570680.0413603988, 5446678.617375502], [570674.3789720967, 5446675.9670417635], [570669.5016897792, 5446670.835880397], [570670.2296497459, 5446673.007700262], [570680.224841852, 5446689.181310319], [570681.511419554, 5446695.474812011], [570686.8184688718, 5446701.305353549], [570696.522425478, 5446719.573670823], [570702.2475574708, 5446719.9917532345], [570698.4507490139, 5446714.500528604], [570694.7399294071, 5446706.205885253], [570692.2579344537, 5446696.760678781], [570688.9808412689, 5446689.014192716], [570684.9086499707, 5446682.966425427]]], [[[570317.6825549122, 5446710.229464054], [570312.8514728167, 5446707.277862492], [570310.82195615, 5446706.511570572], [570330.8414367802, 5446728.403903778], [570334.6650021982, 5446734.961510397], [570343.7580619341, 5446743.760868234], [570342.3862932043, 5446740.775752136], [570341.7115888995, 5446736.318170303], [570339.4887732273, 5446731.481106481], [570335.7178470457, 5446726.264560524], [570330.3988113655, 5446720.668532074], [570323.5316672986, 5446714.69302053], [570317.6825549122, 5446710.229464054]]], [[[570726.8774337315, 5446744.289683416], [570726.7631194501, 5446743.974198432], [570722.6909127745, 5446737.926424396], [570716.9561609264, 5446732.4810654055], [570709.5588645434, 5446727.638120156], [570704.6750413354, 5446722.89278275], [570704.6890304539, 5446722.914572098], [570704.4453525359, 5446727.746314018], [570717.2964707474, 5446740.6665039435], [570725.1384557672, 5446743.153016941], [570726.8774337315, 5446744.289683416]]], [[[570366.5707907847, 5446769.955295965], [570365.319056543, 5446767.73190191], [570360.566244952, 5446762.400910682], [570358.055701484, 5446760.216305354], [570361.1763204329, 5446765.000340978], [570366.5707907847, 5446769.955295965]]], [[[570492.8735982742, 5446844.003454001], [570491.2350709527, 5446840.130180481], [570491.1627449293, 5446837.335143035], [570492.6566197478, 5446835.618341341], [570495.7166953131, 5446834.979774971], [570500.3429718849, 5446835.4194433475], [570506.5354500818, 5446836.937345815], [570511.6316123945, 5446839.322689528], [570515.6314589861, 5446842.57547528], [570518.1338350523, 5446846.126341237], [570516.1187215324, 5446840.099795884], [570509.1337496552, 5446833.948793902], [570500.7650085142, 5446816.688527338], [570495.863834884, 5446797.803508873], [570494.5952311957, 5446785.258007976], [570493.4053949962, 5446781.433947796], [570484.3738600607, 5446764.1902784975], [570474.0037489911, 5446755.5568645485], [570467.2583152202, 5446745.501019037], [570462.6456097169, 5446742.601962326], [570457.3510006452, 5446730.090715487], [570449.4496676206, 5446716.869609632], [570446.1944219945, 5446713.666031754], [570439.3207976756, 5446698.758997011], [570436.7149546456, 5446697.182206707], [570439.1395701116, 5446702.192456216], [570444.9587079223, 5446716.306056386], [570450.9826925679, 5446732.931570718], [570455.2356470815, 5446745.966950031], [570457.7175676371, 5446755.412190098], [570458.4284516922, 5446761.267287781], [570457.3682979948, 5446763.532240973], [570457.4406208356, 5446766.327271255], [570458.6454205527, 5446769.652378793], [570460.9826976056, 5446773.507563635], [570464.4524525525, 5446777.892825743], [570466.7897310136, 5446781.7480112715], [570467.9945323935, 5446785.073120254], [570468.0668562385, 5446787.86815263], [570467.0067022272, 5446790.133108245], [570467.0609450376, 5446792.2293828605], [570468.2295849089, 5446794.156976461], [570470.5126220537, 5446795.915888868], [570473.9100566385, 5446797.5061198], [570476.3436947762, 5446799.6806708], [570477.8135363786, 5446802.439542243], [570478.3195812508, 5446805.782734434], [570477.8618290746, 5446809.710247607], [570476.6872368386, 5446812.957083739], [570474.7958044008, 5446815.523242491], [570472.1875317121, 5446817.408723549], [570468.8624188239, 5446818.613526585], [570465.4228671382, 5446820.800207926], [570461.8688762714, 5446823.9687677445], [570458.2004458201, 5446828.119206312], [570454.4175753319, 5446833.251523983], [570451.0141819202, 5446836.83572319], [570447.9902662721, 5446838.871803511], [570445.3458289651, 5446839.359764771], [570443.0808704536, 5446838.299607005], [570440.701472645, 5446838.22132821], [570438.6175556764, 5446838.976400601], [570442.5419205648, 5446840.628497736], [570452.9290339281, 5446855.141285849], [570458.2073937516, 5446859.05105297], [570461.6728939563, 5446864.568628739], [570469.8362173465, 5446868.197444887], [570474.5506959474, 5446872.054228571], [570476.207341214, 5446871.707504685], [570476.4965336898, 5446865.641239327], [570479.6009328834, 5446861.198622974], [570478.3543883432, 5446857.436477513], [570478.2750430321, 5446850.23682207], [570481.2084552201, 5446844.028747915], [570483.9973056157, 5446842.610486279], [570494.4334604323, 5446851.857983496], [570500.0411379053, 5446854.382246187], [570502.9447879347, 5446858.818413894], [570505.8549529429, 5446860.59927197], [570500.8492603728, 5446854.984709926], [570496.0783276951, 5446848.954963791], [570492.8735982742, 5446844.003454001]]], [[[570773.5208690661, 5446794.506567031], [570770.1878418557, 5446792.127452276], [570771.8676179389, 5446796.202894831], [570779.0841478262, 5446800.018883251], [570773.5208690661, 5446794.506567031]]], [[[570395.8418416994, 5446796.169825534], [570388.4807442767, 5446792.724305497], [570388.2268039505, 5446792.642001295], [570396.727507278, 5446800.1153822495], [570403.5675156456, 5446803.632872594], [570400.9741458119, 5446799.952701523], [570395.8418416994, 5446796.169825534]]], [[[570824.8471234166, 5446884.096273714], [570824.8486975214, 5446884.141520615], [570827.1469076264, 5446883.458558347], [570831.0744383833, 5446883.916264747], [570834.2851189463, 5446883.693299854], [570836.7789490952, 5446882.789663914], [570838.55592872, 5446881.205357185], [570839.6160577999, 5446878.940379896], [570840.2062787048, 5446874.729727704], [570840.3265914925, 5446868.573401496], [570839.9769963897, 5446860.47140253], [570839.1574937974, 5446850.423732428], [570837.6935017521, 5446842.490434267], [570835.5850205211, 5446836.671506194], [570832.8320500993, 5446832.96694682], [570829.4345901561, 5446831.376755126], [570826.223915386, 5446831.599719298], [570823.2000251916, 5446833.635839407], [570820.3629190301, 5446837.4851159], [570817.7125964122, 5446843.147549505], [570815.1586102847, 5446847.129342849], [570812.7009611698, 5446849.430495291], [570811.012018078, 5446849.874333092], [570813.0733682218, 5446852.8823130345], [570817.9404127857, 5446875.0076643], [570819.4278763413, 5446878.72239282], [570824.8471234166, 5446884.096273714]]], [[[570515.2705626717, 5446877.266513083], [570512.5763188214, 5446870.89778498], [570514.0619852758, 5446877.193966449], [570515.635723155, 5446878.952440441], [570515.2705626717, 5446877.266513083]]], [[[570844.9184288082, 5446932.503926839], [570848.7134502484, 5446933.2447545845], [570851.773529773, 5446932.606148555], [570854.0986669749, 5446930.588109062], [570855.6888616689, 5446927.190636574], [570856.5802944615, 5446923.81125468], [570856.7729655902, 5446920.449963468], [570856.2668753136, 5446917.106762948], [570855.0620238559, 5446913.781653084], [570853.7608369896, 5446912.137188525], [570852.3633145242, 5446912.173368961], [570850.8694561955, 5446913.890194382], [570849.2792617377, 5446917.287665057], [570847.2553379673, 5446920.136980935], [570844.7976848861, 5446922.43814176], [570841.9063025342, 5446924.1911472855], [570838.5811910057, 5446925.395997295], [570837.6692422335, 5446926.356372903], [570838.62652956, 5446929.085056971], [570840.3884660676, 5446930.38366517], [570844.9184288082, 5446932.503926839]]], [[[570901.0519067061, 5447058.870195079], [570900.2626853229, 5447055.394462668], [570898.22654256, 5447052.370553748], [570894.9434787167, 5447049.798467923], [570891.8230439777, 5447048.337945837], [570899.5338671531, 5447063.862082905], [570901.2509114175, 5447066.556608786], [570900.5942062828, 5447062.7977512255], [570901.0519067061, 5447058.870195079]]], [[[570306.064165204, 5447146.280009612], [570303.4716447127, 5447141.360071204], [570303.7530379707, 5447144.811103789], [570304.8614651886, 5447149.816916762], [570306.668659692, 5447154.804653619], [570308.1144739036, 5447157.600034694], [570306.064165204, 5447146.280009612]]], [[[570341.4810391114, 5447213.8984353375], [570344.9327478067, 5447217.585011215], [570345.2568216731, 5447217.736701819], [570345.1058966077, 5447216.37269913], [570338.7467790256, 5447209.388405269], [570341.4810391114, 5447213.8984353375]]], [[[570359.205687477, 5447245.901678139], [570358.1640875207, 5447244.264688331], [570359.3142520452, 5447249.776244345], [570359.205687477, 5447245.901678139]]], [[[571079.2823756112, 5446629.404109511], [571097.2144850171, 5446635.890909187], [571086.305017118, 5446631.269567484], [570994.3988096255, 5446579.893467728], [570947.8666104517, 5446553.061338418], [570948.4563305064, 5446556.436787866], [570947.9986469848, 5446560.364277215], [570953.468384155, 5446566.375797914], [570964.8655469556, 5446574.471348085], [570982.1901430233, 5446584.65092277], [571005.4421826616, 5446596.914513895], [571029.3749019024, 5446608.46124378], [571053.9882998723, 5446619.291109845], [571079.2823756112, 5446629.404109511]]], [[[571171.1884695002, 5446668.966135048], [571168.1687747494, 5446663.695158174], [571151.4971662094, 5446658.160747062], [571160.4115120205, 5446662.543850722], [571171.1884695002, 5446668.966135048]]], [[[571241.5214669827, 5446717.971765784], [571238.6501696142, 5446716.253706149], [571239.6262258387, 5446718.947280934], [571242.3792394476, 5446722.651788645], [571246.0779337877, 5446725.073194618], [571250.722308645, 5446726.211498172], [571256.3123635264, 5446726.06669867], [571260.8123839669, 5446724.436047077], [571258.9424957223, 5446722.902286691], [571241.5214669827, 5446717.971765784]]], [[[570914.3171553604, 5447085.097622323], [570914.1122723486, 5447082.5856852215], [570912.6423751848, 5447079.826807149], [570909.9074642443, 5447076.820987991], [570905.9075400194, 5447073.568227476], [570905.1359745011, 5447072.653311751], [570910.2233000402, 5447080.636779888], [570914.176200287, 5447085.398776193], [570914.3171553604, 5447085.097622323]]], [[[571252.2454399199, 5447388.884926036], [571260.8643233561, 5447385.730903714], [571276.6505569969, 5447383.02445725], [571285.7901609867, 5447385.219059674], [571290.8434988603, 5447381.97122168], [571302.7734889312, 5447379.886452961], [571328.6285765837, 5447377.828056004], [571341.5283047467, 5447380.182108529], [571366.0045621085, 5447381.19712638], [571370.3706423629, 5447383.136767878], [571382.6685049799, 5447384.593912411], [571388.4946547807, 5447387.977894916], [571409.3009618755, 5447391.104455555], [571414.5347410808, 5447393.474496445], [571430.0, 5447396.043641903], [571430.0, 5447392.19342651], [571428.0811078908, 5447391.482947888], [571418.587203253, 5447386.694374467], [571406.6595435283, 5447379.731277992], [571394.6355827234, 5447374.4488532], [571382.5153188505, 5447370.847098972], [571370.2987498598, 5447368.926014473], [571357.9858736555, 5447368.685599178], [571345.504280228, 5447367.330763252], [571332.8539710282, 5447364.8615067], [571320.034947569, 5447361.277829645], [571307.0472113695, 5447356.579732324], [571296.1919970651, 5447353.2248717975], [571287.4693023306, 5447351.213249921], [571280.879125446, 5447350.544868252], [571276.4214652993, 5447351.219728141], [571270.5300606946, 5447350.533243823], [571263.2049125968, 5447348.485414547], [571254.446022375, 5447345.076239587], [571244.2533917981, 5447340.305718171], [571236.060763472, 5447337.161567786], [571229.8681353169, 5447335.64378953], [571225.6755059336, 5447335.752384372], [571223.4828746191, 5447337.487353182], [571220.7058871645, 5447338.258520811], [571217.3445438185, 5447338.06588702], [571213.3988449257, 5447336.909451642], [571208.8687909682, 5447334.789214577], [571204.7724794456, 5447333.217135024], [571201.1099100655, 5447332.193213072], [571197.8810825571, 5447331.717448818], [571195.0859967226, 5447331.789842363], [571192.7246523943, 5447332.410393841], [571190.7970494708, 5447333.579103383], [571189.3031878772, 5447335.295971147], [571188.2430676043, 5447337.560997288], [571185.8998208046, 5447338.880319928], [571182.2734475558, 5447339.253938623], [571177.3639481703, 5447338.681852878], [571171.1713232427, 5447337.164062103], [571164.4305403415, 5447336.080011144], [571157.1415992456, 5447335.429699548], [571149.3044996718, 5447335.213126855], [571140.919241308, 5447335.430292611], [571133.9496228541, 5447336.310033767], [571128.3956439284, 5447337.8523513805], [571124.2573043301, 5447340.057246368], [571121.5346040694, 5447342.924719498], [571118.2275507636, 5447344.828389365], [571114.3361446316, 5447345.768255589], [571109.8603860154, 5447345.74431785], [571104.8002753762, 5447344.756575909], [571099.589553151, 5447343.353189308], [571094.2282195733, 5447341.534158037], [571088.7162748997, 5447339.2994821], [571083.0537194177, 5447336.649161524], [571078.6380963335, 5447333.547005289], [571075.4694054413, 5447329.993014102], [571073.5476463968, 5447325.987188528], [571072.8728187534, 5447321.529528983], [571068.2703970715, 5447316.614187196], [571059.7403836129, 5447311.24116162], [571055.5308911956, 5447309.27093251], [571064.8354227565, 5447320.4559861105], [571071.1313176715, 5447325.288093808], [571077.804041448, 5447333.248855656], [571087.0609023017, 5447340.26646642], [571092.3705042214, 5447347.864242214], [571117.2018008451, 5447365.493629077], [571143.2652642746, 5447380.288939719], [571149.6314357743, 5447380.235764995], [571158.6191591319, 5447381.681173226], [571166.6068845326, 5447382.313388287], [571173.594611231, 5447382.13241093], [571179.5823386014, 5447381.138241863], [571184.5700662408, 5447379.330881785], [571190.7084062035, 5447378.752354421], [571197.9973592287, 5447379.402658989], [571206.4369263584, 5447381.281794746], [571216.0271089101, 5447384.389760989], [571224.6534909377, 5447388.0820814045], [571232.3160725416, 5447392.358757094], [571236.2246038559, 5447395.195051634], [571237.5947926531, 5447394.330719475], [571246.6407919305, 5447394.155483855], [571252.2454399199, 5447388.884926036]]], [[[571184.3805140731, 5447474.371459612], [571185.4351364108, 5447476.455525413], [571193.7652979207, 5447481.1418655785], [571205.5357009058, 5447486.540199448], [571205.3566166753, 5447485.357085263], [571202.7541532894, 5447482.068119348], [571198.0553654685, 5447478.833448809], [571191.2602539217, 5447475.653072651], [571186.428952734, 5447472.701530622], [571185.8885784837, 5447472.188397207], [571184.3805140731, 5447474.371459612]]]]}}, {"type": "Feature", "properties": {"role": "valid_footprint"}, "geometry": {"type": "Polygon", "coordinates": [[[570110.0, 5444740.0, 0.0], [570110.0, 5447740.0, 0.0], [571430.0, 5447740.0, 0.0], [571430.0, 5444740.0, 0.0], [570110.0, 5444740.0, 0.0]]]}}]}