{"type": "FeatureCollection", "crs": {"type": "name", "properties": {"name": "EPSG:32610"}}, "features": [{"type": "Feature", "properties": {"OBJECTID": 9117467}, "geometry": {"type": "Polygon", "coordinates": [[[570033.8541427769, 5447779.59294763], [570041.8521137498, 5447778.585734922], [570043.8543579614, 5447774.652553657], [570034.9355928171, 5447757.595179927], [570023.9354288788, 5447747.638585856], [570020.0, 5447746.522382482], [570020.0, 5447775.941209825], [570033.8541427769, 5447779.59294763]]]}}, {"type": "Feature", "properties": {"OBJECTID": 8800631}, "geometry": {"type": "Polygon", "coordinates": [[[570108.933264389, 5447249.598747326], [570125.885122935, 5447252.665174295], [570137.8924782112, 5447252.658830405], [570155.8527087001, 5447249.5624535745], [570158.9090223409, 5447250.550628057], [570181.8725441287, 5447250.684722103], [570184.9489933397, 5447249.615651283], [570190.838822995, 5447242.564857308], [570193.8160780943, 5447241.652341169], [570201.8891015581, 5447233.679424236], [570205.8765842654, 5447231.671332798], [570206.848757594, 5447229.624848389], [570203.9094186209, 5447227.688051367], [570196.8836323726, 5447226.647812145], [570174.8970531491, 5447234.602647092], [570171.8396989667, 5447233.613516657], [570149.9291807609, 5447234.601628192], [570128.9307387548, 5447234.651671481], [570124.9203057686, 5447233.650821342], [570119.8206786608, 5447235.644078012], [570114.8240975605, 5447242.547916876], [570107.9592319643, 5447246.578005889], [570108.933264389, 5447249.598747326]]]}}, {"type": "Feature", "properties": {"OBJECTID": 8800642}, "geometry": {"type": "Polygon", "coordinates": [[[570167.850344751, 5447709.562151576], [570174.898122249, 5447713.611356905], [570196.8916822963, 5447719.591051101], [570207.9088727788, 5447723.690323413], [570210.8072241893, 5447724.677337011], [570233.8700318041, 5447724.653881131], [570240.8939560713, 5447720.625921849], [570242.8961896643, 5447716.692730946], [570230.8249000758, 5447707.672103423], [570224.8701745141, 5447705.695921695], [570215.8192058317, 5447705.580954195], [570196.8228331002, 5447701.696806813], [570174.9284289639, 5447695.559558035], [570167.8435019231, 5447695.627687644], [570164.8070844391, 5447697.647566988], [570163.915956278, 5447701.594630276], [570167.850344751, 5447709.562151576]]]}}, {"type": "Feature", "properties": {"OBJECTID": 8800617}, "geometry": {"type": "Polygon", "coordinates": [[[570200.8136318622, 5447194.552884392], [570210.8386230565, 5447197.689588026], [570220.918856221, 5447194.650770462], [570230.938081038, 5447187.652101744], [570241.9055682664, 5447175.599047636], [570258.9076570567, 5447163.622597422], [570278.8700820798, 5447156.592964174], [570279.9382669319, 5447150.588823517], [570276.9379183733, 5447144.692175616], [570270.8823125864, 5447141.605541762], [570261.9312825565, 5447142.600080201], [570253.9152798068, 5447145.665493948], [570234.8900193124, 5447158.566138604], [570218.8190962209, 5447167.546316907], [570200.8047790688, 5447180.618418701], [570195.9080842603, 5447188.631760125], [570195.929040388, 5447191.640785963], [570200.8136318622, 5447194.552884392]]]}}]}