{"type": "FeatureCollection", "crs": {"type": "name", "properties": {"name": "EPSG:32610"}}, "features": [{"type": "Feature", "properties": {"OBJECTID": 934159}, "geometry": {"type": "Polygon", "coordinates": [[[570040.9253744157, 5447197.588547946], [570047.916084388, 5447206.5452977205], [570055.898750305, 5447212.663408281], [570059.8121580309, 5447217.621953377], [570074.9169073376, 5447219.555576376], [570082.8957694405, 5447220.607544983], [570092.9150072605, 5447213.608898775], [570092.8530086046, 5447209.649094452], [570079.8677358639, 5447201.566549865], [570071.8078242007, 5447198.613977582], [570067.8164910253, 5447195.554922752], [570048.8896615179, 5447174.570690883], [570031.9137923429, 5447164.696125648], [570020.0, 5447157.481817812], [570020.0, 5447182.257004846], [570040.9253744157, 5447197.588547946]]]}}, {"type": "Feature", "properties": {"OBJECTID": 931130}, "geometry": {"type": "Polygon", "coordinates": [[[571513.9125719105, 5446316.574709098], [571496.9245624517, 5446317.621949007], [571490.8728570032, 5446319.6015907], [571475.9191140754, 5446333.660144019], [571457.8080420352, 5446345.6181010995], [571447.9268969556, 5446349.60708074], [571427.9034968734, 5446352.67323626], [571418.8535696941, 5446352.556388622], [571413.8319122025, 5446352.6502494505], [571392.8925216104, 5446351.587281748], [571373.8692581559, 5446339.623220417], [571354.8640652471, 5446325.600967963], [571334.9058083026, 5446311.567007976], [571319.8519562004, 5446299.653931585], [571307.9326836336, 5446285.565363719], [571291.9257701341, 5446273.640577701], [571285.8850565521, 5446264.695662482], [571268.9401714533, 5446245.632727627], [571258.8630436477, 5446227.608776647], [571242.8112029652, 5446209.666969845], [571229.8577210014, 5446193.6640470065], [571201.9596284408, 5446154.66693688], [571186.9420050876, 5446138.638439803], [571181.9564559442, 5446134.61490873], [571173.869632067, 5446123.585223988], [571166.89778056, 5446117.635611205], [571138.9257690555, 5446085.605191314], [571118.8865327629, 5446069.670516725], [571100.828686734, 5446050.5947409775], [571085.9290617865, 5446033.617525176], [571081.878564021, 5446031.664879872], [571060.8533212453, 5446023.635019214], [571039.8681438357, 5446016.555990751], [571019.9188940634, 5446012.657317361], [570999.8687616213, 5446007.649174718], [570977.9134101985, 5446002.615573321], [570955.8770315902, 5445995.68233216], [570942.9117398028, 5445990.606948039], [570926.9269701911, 5445981.692090651], [570914.9147492014, 5445976.628407484], [570890.8953047507, 5445971.570215186], [570861.8771713275, 5445969.613832046], [570839.9257916864, 5445969.648414769], [570827.8554876383, 5445965.693072118], [570807.8965078925, 5445951.660983684], [570787.8195730274, 5445938.577573402], [570766.8674414622, 5445923.581925511], [570752.923968309, 5445911.685609673], [570730.9008227496, 5445897.626926118], [570713.9180812249, 5445882.682289241], [570693.9181322341, 5445867.700366741], [570672.9111045608, 5445857.613201214], [570653.9042905477, 5445843.593814259], [570629.808942001, 5445820.641174525], [570610.8021446132, 5445806.621773002], [570600.9540894264, 5445802.6951197], [570576.9577399157, 5445800.646821183], [570560.9572155982, 5445797.592279884], [570544.8584994648, 5445794.694250798], [570523.8964954363, 5445790.6260691155], [570563.997928637, 5446051.708328163], [570583.9366151483, 5446253.615948827], [570592.8685095595, 5446254.680573812], [570616.9290154618, 5446260.688643655], [570632.809714898, 5446264.692936977], [570641.8637313703, 5446268.608974142], [570660.8417747268, 5446274.552215289], [570673.8470993266, 5446280.577468588], [570694.9123245842, 5446289.556249496], [570715.8784067577, 5446298.692582135], [570730.8871190564, 5446304.585771791], [570736.8657354531, 5446309.570865451], [570744.8856248065, 5446311.57455541], [570756.9378497819, 5446317.587085192], [570769.9021782047, 5446322.662530035], [570786.9169679162, 5446329.689628036], [570803.8308785044, 5446335.607262478], [570827.9535122535, 5446345.5761170685], [570851.8990568114, 5446357.601035792], [570864.9445134846, 5446364.578088436], [570877.8309108095, 5446371.552028221], [570897.9250836701, 5446382.578225239], [570919.9063744949, 5446395.687054925], [570940.9157877909, 5446409.575292545], [570955.8654092938, 5446416.575827357], [570962.896096135, 5446422.684151089], [570977.887777258, 5446430.635427784], [570997.8630215186, 5446442.610317726], [571015.8930225491, 5446453.609914243], [571036.8614544275, 5446466.548330755], [571058.8427935218, 5446479.657114112], [571070.9352180326, 5446486.622421891], [571093.9087478843, 5446500.694774399], [571115.9113988074, 5446515.546492021], [571137.8138694599, 5446530.5548034], [571151.8334924266, 5446540.553559467], [571162.8736707228, 5446547.663704276], [571185.8103546719, 5446564.585323393], [571203.8433809541, 5446580.653099503], [571219.8312682887, 5446594.636088093], [571239.8095646274, 5446611.679133241], [571252.8651831176, 5446632.591654865], [571264.9486246295, 5446655.549687541], [571276.9109292508, 5446675.656263647], [571296.8152908011, 5446699.665972599], [571520.0, 5446753.660053406], [571520.0, 5446317.522572051], [571513.9125719105, 5446316.574709098]]]}}, {"type": "Feature", "properties": {"OBJECTID": 933899}, "geometry": {"type": "Polygon", "coordinates": [[[571358.9892496478, 5446888.273354911], [571353.9252206264, 5446853.6879447065], [571350.9479443106, 5446854.599514545], [571326.9110056238, 5446851.596598488], [571308.8298121437, 5446850.570744758], [571289.8734818669, 5446847.634679259], [571267.8968426303, 5446839.591130601], [571245.8391290307, 5446829.646960668], [571226.8398193726, 5446820.6928336], [571202.8949884283, 5446808.666027513], [571181.8494988899, 5446797.626154838], [571161.8931659219, 5446783.5921308175], [571144.9351071316, 5446771.65558383], [571124.819811279, 5446757.620437294], [571116.8347842356, 5446747.699233394], [571108.8109224197, 5446740.628407115], [571090.8568267078, 5446722.662087483], [571073.9129495348, 5446703.6001649555], [571055.8179235946, 5446683.57354588], [571035.9175999715, 5446664.631963228], [571013.8961589414, 5446650.572365028], [571001.9407945952, 5446640.601162439], [570977.9301446629, 5446619.548250305], [570959.9379592551, 5446605.698322525], [570935.8313949746, 5446588.604077488], [570917.8423924636, 5446578.554265735], [570895.9248315658, 5446570.672311985], [570882.8803814506, 5446563.696233152], [570858.8167677068, 5446552.619022255], [570839.8566766081, 5446544.616660459], [570817.8611855756, 5446538.633193489], [570795.883820854, 5446530.592541998], [570772.8732744788, 5446520.638511444], [570760.8219741946, 5446514.624951187], [570746.8644883265, 5446508.586970998], [570722.8788647841, 5446495.611205041], [570705.9391047811, 5446481.618358827], [570699.9384610511, 5446473.6232603425], [570689.8625288574, 5446455.60125607], [570681.8536591954, 5446442.672056921], [570668.8564048987, 5446420.6530693155], [570656.8933805776, 5446400.548407533], [570643.8780564282, 5446380.587587683], [570628.8156622506, 5446358.543048385], [570624.7958633455, 5446439.921589393], [570628.9344851117, 5446485.699728342], [570632.8440117185, 5446485.591099101], [570652.8980712139, 5446495.665512315], [570670.871007356, 5446511.571740788], [570688.9048185216, 5446527.637588034], [570708.9430193384, 5446543.571333788], [570719.8831818351, 5446549.570036604], [570730.8793215279, 5446550.6612199], [570750.9246215338, 5446550.601275013], [570767.9355573204, 5446552.561178483], [570787.8077020427, 5446559.625476694], [570799.841929581, 5446567.697164606], [570808.9389478116, 5446577.631234078], [570819.8901307378, 5446597.565418464], [570832.8415412216, 5446613.5674159415], [570842.8115695417, 5446621.612523447], [570862.8488286322, 5446637.54626221], [570884.851160163, 5446653.66412013], [570897.8956240175, 5446660.640193209], [570916.9188299298, 5446672.6033266885], [570940.8444102217, 5446686.686447834], [570959.8265724966, 5446697.698781935], [570982.9393424724, 5446712.564410327], [571003.8486550061, 5446726.609192077], [571014.9288578674, 5446734.66917395], [571030.9157377557, 5446748.652218586], [571051.9061867956, 5446764.598599477], [571070.9093740854, 5446778.619946449], [571087.8082905071, 5446791.6638941355], [571109.949964818, 5446808.575942], [571125.8967722451, 5446821.607130277], [571147.8384278377, 5446837.567267589], [571169.8369981772, 5446848.618849473], [571174.821545579, 5446852.641396459], [571193.8218526916, 5446861.595489858], [571216.909586871, 5446869.652914553], [571236.9020887025, 5446879.570572119], [571260.8469455763, 5446891.597361182], [571271.8832532882, 5446893.640298706], [571294.8310523927, 5446899.637375324], [571299.8146120884, 5446903.659956447], [571308.8277631149, 5446906.627114901], [571312.8372480249, 5446907.628950061], [571319.9041380977, 5446909.620873828], [571341.9208226509, 5446918.614232758], [571364.9306977212, 5446928.571115027], [571358.9892496478, 5446888.273354911]]]}}, {"type": "Feature", "properties": {"OBJECTID": 931172}, "geometry": {"type": "Polygon", "coordinates": [[[571519.9269382042, 5447430.648612654], [571502.8526875891, 5447419.659793179], [571485.9545293548, 5447406.614963242], [571468.8802457183, 5447395.625134721], [571446.8243534176, 5447385.680976215], [571438.8424186643, 5447379.559961811], [571418.8287267031, 5447366.632368824], [571407.8702885741, 5447362.690960496], [571385.8165596912, 5447356.545922825], [571365.948000937, 5447354.546953253], [571341.8928917574, 5447353.603196713], [571317.8778037757, 5447353.609256], [571303.8060065636, 5447353.585222761], [571290.8453586989, 5447353.57604379], [571287.8500372142, 5447356.546761815], [571285.9477521651, 5447361.589495967], [571278.9477348505, 5447373.691790699], [571269.9436101136, 5447384.660098921], [571260.8554363132, 5447388.659619986], [571254.8217589314, 5447388.582045377], [571232.8308779473, 5447387.664815349], [571211.9312943036, 5447387.552593418], [571193.927974542, 5447384.629209203], [571269.194441437, 5447521.138276023], [571346.8284416151, 5447636.639072024], [571368.8204352402, 5447637.557233689], [571377.9506301058, 5447639.57574719], [571399.9254948774, 5447647.619307595], [571419.8580785898, 5447658.644275689], [571439.8498393774, 5447668.562861872], [571459.900437007, 5447678.640151806], [571478.8589923871, 5447686.64538591], [571501.8480370281, 5447698.660451726], [571520.0, 5447706.077353396], [571520.0, 5447430.692428373], [571519.9269382042, 5447430.648612654]]]}}, {"type": "Feature", "properties": {"OBJECTID": 931181}, "geometry": {"type": "Polygon", "coordinates": [[[571296.8152908011, 5446699.665972599], [571301.9430205362, 5446709.549972571], [571311.8191286704, 5446726.620969078], [571324.95172275, 5446745.634990916], [571334.8689008007, 5446763.656764915], [571338.8664334292, 5446775.584118448], [571340.833692409, 5446779.5683994], [571349.9597544256, 5446802.647792729], [571354.839381839, 5446826.621741819], [571356.8505949209, 5446836.623024145], [571356.9566517903, 5446846.600857857], [571353.9252206264, 5446853.6879447065], [571358.9892496478, 5446888.273354911], [571364.9306977212, 5446928.571115027], [571382.9599474693, 5446939.572627181], [571397.893668592, 5446953.7004754925], [571403.93348392, 5446962.646359552], [571426.9124243106, 5446985.587926481], [571443.8505564124, 5446999.583648694], [571464.8431871431, 5447020.5991407875], [571479.8761288323, 5447034.570406025], [571498.8604426418, 5447050.650833022], [571515.8797297783, 5447066.548142192], [571520.0, 5447069.773896575], [571520.0, 5446753.660053406], [571296.8152908011, 5446699.665972599]]]}}, {"type": "Feature", "properties": {"OBJECTID": 931144}, "geometry": {"type": "Polygon", "coordinates": [[[571489.9376217447, 5447818.695145847], [571469.8259219895, 5447804.658046874], [571451.9364968352, 5447790.649652301], [571427.9523071657, 5447772.60385759], [571405.8332859188, 5447753.631683569], [571390.80223506, 5447739.660421134], [571373.9031031044, 5447721.54836023], [571359.900162796, 5447700.623142071], [571345.8762759372, 5447676.689902742], [571337.9273445884, 5447657.585214728], [571342.9588762267, 5447637.697547767], [571346.8284416151, 5447636.639072024], [571269.194441437, 5447521.138276023], [571193.927974542, 5447384.629209203], [571171.934178323, 5447378.644779643], [571147.9511375709, 5447365.667104908], [571135.9187122576, 5447357.594440293], [571112.9068836323, 5447342.57129958], [571091.9592945492, 5447327.574716357], [571070.8126330161, 5447311.625192191], [571061.934614338, 5447300.584912818], [571060.9204849767, 5447296.613356466], [571052.9086518427, 5447273.549801955], [571037.9107287872, 5447251.661991731], [571027.9025437735, 5447242.666046], [571010.8235467621, 5447226.611004566], [571004.9437796823, 5447217.667189312], [570991.8352671255, 5447201.664121404], [570973.9001842296, 5447181.639658093], [570962.8739430566, 5447163.603985809], [570950.8736425638, 5447142.547569551], [570938.9541593955, 5447124.658846591], [570930.8292243632, 5447112.678347531], [570918.9469027102, 5447090.673244089], [570907.8576915289, 5447068.678774233], [570898.93285539, 5447046.553267974], [570888.936677007, 5447026.630813393], [570877.8694608049, 5447007.645317543], [570865.8271491904, 5446985.638114773], [570858.8724716898, 5446972.56407035], [570848.8943899018, 5446950.58342777], [570842.8298043621, 5446933.562306168], [570835.9091277196, 5446912.571759595], [570829.9444320129, 5446896.660125417], [570823.8358974232, 5446873.620997542], [570819.856476143, 5446859.634472701], [570814.8070130239, 5446846.584867464], [570804.8470785605, 5446822.547018588], [570797.8142101334, 5446812.6385463085], [570782.9165715447, 5446795.662331061], [570764.8836833703, 5446779.596503214], [570744.8654934084, 5446761.6045487365], [570726.929608536, 5446741.5809875205], [570719.8967563366, 5446731.672500839], [570702.8910298953, 5446708.652678603], [570684.8142299944, 5446686.568813236], [570667.926488038, 5446662.600297773], [570660.9078424647, 5446645.566444332], [570653.8311039782, 5446629.640931387], [570642.9171250815, 5446605.590342348], [570636.8544958354, 5446593.636412737], [570633.8903029831, 5446583.623385842], [570627.8686863455, 5446572.619240847], [570626.8086449944, 5446562.629719249], [570623.9365599249, 5446543.591817894], [570624.8787006497, 5446529.669027724], [570623.9567042622, 5446516.67255937], [570623.8859022579, 5446502.57838562], [570625.9391346362, 5446488.66945342], [570628.9344851117, 5446485.699728342], [570624.7958633455, 5446439.921589393], [570628.8156622506, 5446358.543048385], [570611.8678618738, 5446335.681872513], [570596.9244472755, 5446312.688594486], [570590.919981301, 5446299.627274086], [570582.8671987507, 5446280.680008999], [570579.9311055624, 5446257.68227671], [570583.9366151483, 5446253.615948827], [570563.997928637, 5446051.708328163], [570523.8964954363, 5445790.6260691155], [570500.8612709629, 5445777.66399783], [570483.8417843803, 5445765.570621202], [570463.8238259121, 5445752.646824395], [570454.8461001316, 5445745.565199265], [570442.8210836585, 5445726.567890926], [570420.9480834164, 5445703.64489889], [570405.9458853117, 5445685.560128539], [570388.9403743305, 5445667.6084002545], [570380.8106610328, 5445655.62788096], [570370.9080000292, 5445635.549766743], [570358.8420107471, 5445615.602626368], [570346.83412457, 5445594.547122648], [570336.8723398782, 5445575.576392705], [570331.941908786, 5445566.646260539], [570325.935534747, 5445553.584901807], [570319.8300145227, 5445540.681099577], [570307.8211504783, 5445519.625616982], [570293.8719904438, 5445502.663019312], [570269.8159879111, 5445480.663087759], [570263.877511685, 5445476.628764201], [570253.8837631205, 5445465.575539323], [570236.8042859094, 5445454.590522923], [570219.9468401559, 5445447.567460728], [570201.9191799368, 5445441.637928231], [570190.937157692, 5445434.68834169], [570182.8715446402, 5445426.668579549], [570174.9180382082, 5445412.632962607], [570172.8399917813, 5445398.671827242], [570170.9160970694, 5445379.645591438], [570163.8206432463, 5445369.579375961], [570143.8008838184, 5445356.656541904], [570129.8017295533, 5445349.670642514], [570114.9534872378, 5445347.581678384], [570096.8718491538, 5445346.559615929], [570074.929937415, 5445335.672450699], [570063.8519711256, 5445332.681580128], [570039.9450403404, 5445321.610259126], [570020.0, 5445312.600170191], [570020.0, 5446811.268682166], [570023.8285579154, 5446815.5903374525], [570039.8589838486, 5446835.587541642], [570055.9464330758, 5446850.677202441], [570073.8600760617, 5446867.688879284], [570093.9371358423, 5446884.570584782], [570111.8098339712, 5446900.633464185], [570128.9113465032, 5446919.693681563], [570152.8827824659, 5446943.593129686], [570173.9158145922, 5446965.5537198335], [570194.9298079922, 5446989.573507231], [570209.8082058454, 5447008.606990294], [570227.9200318683, 5447026.57258928], [570233.8604762184, 5447035.674094424], [570240.9492082975, 5447040.673100808], [570252.9473476512, 5447056.660387402], [570260.9102423651, 5447063.570645241], [570269.8291248701, 5447075.560810356], [570277.8518493617, 5447082.62973307], [570295.8266880255, 5447103.603178628], [570304.9513399112, 5447126.679608964], [570312.844928881, 5447150.690917151], [570320.9566838696, 5447173.59695079], [570333.8099723726, 5447193.55465764], [570350.9316038446, 5447215.624843613], [570362.8328234764, 5447235.570779031], [570363.8688772463, 5447242.551323779], [570362.8035664444, 5447253.622642305], [570358.9609836446, 5447266.557373746], [570359.8600196785, 5447276.545784055], [570366.9506524708, 5447286.611992478], [570382.8613283096, 5447307.558790646], [570397.8777601483, 5447328.652577208], [570419.8318817694, 5447368.678706191], [570428.9517236209, 5447386.687968934], [570440.892039171, 5447407.584722004], [570452.8511370493, 5447427.689358059], [570465.9025695614, 5447448.599967995], [570468.8247562955, 5447457.663162965], [570472.9362776027, 5447463.574653602], [570476.8735645646, 5447476.609355048], [570480.806979175, 5447484.576928511], [570488.9156626445, 5447503.682780569], [570497.9166082493, 5447522.641718222], [570504.8132706024, 5447540.623248949], [570511.9039422948, 5447550.689417833], [570520.9048975774, 5447569.648343539], [570528.8907541626, 5447584.635761775], [570533.9391618627, 5447597.684311847], [570541.8680745974, 5447617.580219644], [570550.8499568003, 5447638.597321125], [570560.8239845748, 5447660.576992011], [570572.8222008639, 5447681.632419233], [570582.9552600152, 5447703.614189041], [570592.8683231778, 5447721.635014374], [570602.9393707619, 5447739.656990245], [570612.9325077547, 5447759.578441637], [570624.811826657, 5447781.583545097], [570636.8090773709, 5447802.638979856], [570649.85861495, 5447823.549566018], [570653.3914404839, 5447830.0], [571507.9092976878, 5447830.0], [571489.9376217447, 5447818.695145847]]]}}]}