{"type": "FeatureCollection", "crs": {"type": "name", "properties": {"name": "EPSG:32610"}}, "features": [{"type": "Feature", "properties": {"OBJECTID": 5370596}, "geometry": {"type": "LineString", "coordinates": [[570158.0212090532, 5446458.124553298], [570219.5686542711, 5446555.237315682]]}}, {"type": "Feature", "properties": {"OBJECTID": 5367749}, "geometry": {"type": "LineString", "coordinates": [[570158.0212090532, 5446458.124553298], [570624.7958633455, 5446439.921589393]]}}, {"type": "Feature", "properties": {"OBJECTID": 5377197}, "geometry": {"type": "LineString", "coordinates": [[570020.0, 5446597.386600447], [570219.5686542711, 5446555.237315682]]}}, {"type": "Feature", "properties": {"OBJECTID": 5366733}, "geometry": {"type": "LineString", "coordinates": [[570219.5686542711, 5446555.237315682], [570363.3118757841, 5446761.761799809]]}}, {"type": "Feature", "properties": {"OBJECTID": 5372257}, "geometry": {"type": "LineString", "coordinates": [[570023.8285579154, 5446815.5903374525], [570363.3118757841, 5446761.761799809]]}}, {"type": "Feature", "properties": {"OBJECTID": 5373295}, "geometry": {"type": "LineString", "coordinates": [[570020.0, 5446817.518258997], [570023.8285579154, 5446815.5903374525]]}}, {"type": "Feature", "properties": {"OBJECTID": 5374975}, "geometry": {"type": "LineString", "coordinates": [[570020.0, 5447173.002297752], [570076.0623526444, 5447210.385909408]]}}, {"type": "Feature", "properties": {"OBJECTID": 5370993}, "geometry": {"type": "LineString", "coordinates": [[570092.8530086046, 5447209.649094452], [570101.8440945148, 5447209.605401135], [570124.9067101558, 5447209.580955834], [570133.9356712701, 5447206.686944779], [570149.9496404561, 5447202.615307374], [570164.8124573149, 5447197.57896978], [570173.862371518, 5447197.693978695], [570180.9262999997, 5447194.616815982], [570195.929040388, 5447191.640785963]]}}, {"type": "Feature", "properties": {"OBJECTID": 5376443}, "geometry": {"type": "LineString", "coordinates": [[570076.0623526444, 5447210.385909408], [570081.5214722502, 5447211.880794452], [570092.8530086046, 5447209.649094452]]}}, {"type": "Feature", "properties": {"OBJECTID": 5366921}, "geometry": {"type": "LineString", "coordinates": [[570076.0623526444, 5447210.385909408], [570074.9169073376, 5447219.555576376]]}}, {"type": "Feature", "properties": {"OBJECTID": 5376009}, "geometry": {"type": "LineString", "coordinates": [[570074.9169073376, 5447219.555576376], [570080.9154927038, 5447227.549736792], [570096.8019126995, 5447241.685481338], [570107.9592319643, 5447246.578005889]]}}, {"type": "Feature", "properties": {"OBJECTID": 5376394}, "geometry": {"type": "LineString", "coordinates": [[570107.9592319643, 5447246.578005889], [570110.6985453494, 5447247.562913795], [570152.9507923654, 5447242.2412086185], [570179.8631532849, 5447241.949482381], [570199.8029227783, 5447230.643853856], [570206.848757594, 5447229.624848389]]}}, {"type": "Feature", "properties": {"OBJECTID": 5376606}, "geometry": {"type": "LineString", "coordinates": [[570163.915956278, 5447701.594630276], [570200.2243415266, 5447710.032019653], [570242.8961896643, 5447716.692730946]]}}, {"type": "Feature", "properties": {"OBJECTID": 5368334}, "geometry": {"type": "LineString", "coordinates": [[570020.0, 5447766.3634248525], [570043.8543579614, 5447774.652553657]]}}, {"type": "Feature", "properties": {"OBJECTID": 5376332}, "geometry": {"type": "LineString", "coordinates": [[570020.0, 5445994.176177388], [570563.997928637, 5446051.708328163]]}}, {"type": "Feature", "properties": {"OBJECTID": 5372382}, "geometry": {"type": "LineString", "coordinates": [[570020.0, 5446220.783501324], [570158.0212090532, 5446458.124553298]]}}, {"type": "Feature", "properties": {"OBJECTID": 5369744}, "geometry": {"type": "LineString", "coordinates": [[570563.997928637, 5446051.708328163], [571088.3697008074, 5446294.609519344], [571520.0, 5446521.543571971]]}}, {"type": "Feature", "properties": {"OBJECTID": 5366584}, "geometry": {"type": "LineString", "coordinates": [[570195.929040388, 5447191.640785963], [570219.8193577832, 5447181.176322588], [570256.520392568, 5447154.724457683], [570276.9379183733, 5447144.692175616]]}}, {"type": "Feature", "properties": {"OBJECTID": 5366669}, "geometry": {"type": "LineString", "coordinates": [[570206.848757594, 5447229.624848389], [570210.8362831667, 5447227.617756311], [570213.9116903992, 5447226.547727379], [570223.9157290687, 5447226.67540416], [570247.8306021157, 5447225.554191822], [570256.8967494922, 5447218.543806166], [570280.9256301186, 5447207.60754895], [570299.9378087643, 5447205.632384651]]}}, {"type": "Feature", "properties": {"OBJECTID": 5368557}, "geometry": {"type": "LineString", "coordinates": [[570363.3118757841, 5446761.761799809], [570553.6029167477, 5446976.412589527], [570980.5880907286, 5447682.271130206]]}}, {"type": "Feature", "properties": {"OBJECTID": 5369118}, "geometry": {"type": "LineString", "coordinates": [[570624.7958633455, 5446439.921589393], [570705.9419180616, 5446511.545600175], [570808.8014861534, 5446553.24398147], [571198.3088483465, 5446835.209542038], [571317.6808256919, 5446879.663945497], [571358.9892496478, 5446888.273354911]]}}, {"type": "Feature", "properties": {"OBJECTID": 5372904}, "geometry": {"type": "LineString", "coordinates": [[570980.5880907286, 5447682.271130206], [571269.194441437, 5447521.138276023]]}}, {"type": "Feature", "properties": {"OBJECTID": 5373341}, "geometry": {"type": "LineString", "coordinates": [[571269.194441437, 5447521.138276023], [571356.3215101666, 5447495.829918306], [571520.0, 5447546.770551251]]}}, {"type": "Feature", "properties": {"OBJECTID": 5367125}, "geometry": {"type": "LineString", "coordinates": [[571358.9892496478, 5446888.273354911], [571520.0, 5446889.859046168]]}}, {"type": "Feature", "properties": {"OBJECTID": 5370443}, "geometry": {"type": "LineString", "coordinates": [[570980.5880907286, 5447682.271130206], [571095.535536031, 5447830.0]]}}]}