{
"type": "FeatureCollection",
"name": "egs_permanent_water_reference",
"crs": { "type": "name", "properties": { "name": "urn:ogc:def:crs:EPSG::32610" } },
"features": [
{"type":"Feature","properties":{"feature":"fixed_egs_permanent_water_reference","reference_timestamp_utc":"2025-12-12T14:08:24+00:00","egs_class":1,"semantic_role":"analysis reference; not an observed pre-event hydrologic normal","area_ha":971.88},"geometry":{"type":"MultiPolygon","coordinates":[[[[564940.0,5443520.0],[564940.0,5443540.0],[564980.0,5443540.0],[564980.0,5443560.0],[565020.0,5443560.0],[565020.0,5443520.0],[564980.0,5443520.0],[564980.0,5443500.0],[564880.0,5443500.0],[564880.0,5443520.0],[564940.0,5443520.0]]],[[[565020.0,5443580.0],[565040.0,5443580.0],[565040.0,5443560.0],[565020.0,5443560.0],[565020.0,5443580.0]]],[[[565060.0,5443580.0],[565040.0,5443580.0],[565040.0,5443600.0],[565060.0,5443600.0],[565060.0,5443580.0]]],[[[566280.0,5443700.0],[566320.0,5443700.0],[566320.0,5443720.0],[566440.0,5443720.0],[566440.0,5443700.0],[566420.0,5443700.0],[566420.0,5443660.0],[566560.0,5443660.0],[566560.0,5443680.0],[566600.0,5443680.0],[566600.0,5443660.0],[566580.0,5443660.0],[566580.0,5443640.0],[566560.0,5443640.0],[566560.0,5443600.0],[566540.0,5443600.0],[566540.0,5443580.0],[566500.0,5443580.0],[566500.0,5443560.0],[566460.0,5443560.0],[566460.0,5443540.0],[566420.0,5443540.0],[566420.0,5443560.0],[566360.0,5443560.0],[566360.0,5443580.0],[566320.0,5443580.0],[566320.0,5443600.0],[566300.0,5443600.0],[566300.0,5443620.0],[566280.0,5443620.0],[566280.0,5443640.0],[566240.0,5443640.0],[566240.0,5443660.0],[566160.0,5443660.0],[566160.0,5443680.0],[566240.0,5443680.0],[566240.0,5443700.0],[566260.0,5443700.0],[566260.0,5443680.0],[566280.0,5443680.0],[566280.0,5443700.0]]],[[[566140.0,5443680.0],[566140.0,5443720.0],[566160.0,5443720.0],[566160.0,5443680.0],[566140.0,5443680.0]]],[[[566460.0,5443720.0],[566460.0,5443740.0],[566480.0,5443740.0],[566480.0,5443720.0],[566460.0,5443720.0]]],[[[566480.0,5443740.0],[566480.0,5443760.0],[566500.0,5443760.0],[566500.0,5443740.0],[566480.0,5443740.0]]],[[[566500.0,5443760.0],[566500.0,5443780.0],[566520.0,5443780.0],[566520.0,5443760.0],[566500.0,5443760.0]]],[[[566300.0,5445860.0],[566300.0,5445880.0],[566340.0,5445880.0],[566340.0,5445900.0],[566400.0,5445900.0],[566400.0,5445880.0],[566520.0,5445880.0],[566520.0,5445840.0],[566320.0,5445840.0],[566320.0,5445860.0],[566300.0,5445860.0]]],[[[564080.0,5446360.0],[564080.0,5446340.0],[564060.0,5446340.0],[564060.0,5446320.0],[564020.0,5446320.0],[564020.0,5446300.0],[564000.0,5446300.0],[564000.0,5446280.0],[563960.0,5446280.0],[563960.0,5446320.0],[564000.0,5446320.0],[564000.0,5446340.0],[564020.0,5446340.0],[564020.0,5446360.0],[564040.0,5446360.0],[564040.0,5446440.0],[564060.0,5446440.0],[564060.0,5446460.0],[564080.0,5446460.0],[564080.0,5446440.0],[564120.0,5446440.0],[564120.0,5446380.0],[564100.0,5446380.0],[564100.0,5446360.0],[564080.0,5446360.0]]],[[[565140.0,5446800.0],[565140.0,5446780.0],[565080.0,5446780.0],[565080.0,5446800.0],[565020.0,5446800.0],[565020.0,5446820.0],[564960.0,5446820.0],[564960.0,5446840.0],[564920.0,5446840.0],[564920.0,5446860.0],[565000.0,5446860.0],[565000.0,5446840.0],[565040.0,5446840.0],[565040.0,5446820.0],[565100.0,5446820.0],[565100.0,5446800.0],[565140.0,5446800.0]]],[[[564420.0,5447280.0],[564420.0,5447260.0],[564400.0,5447260.0],[564400.0,5447240.0],[564380.0,5447240.0],[564380.0,5447280.0],[564420.0,5447280.0]]],[[[566060.0,5447280.0],[566060.0,5447300.0],[566140.0,5447300.0],[566140.0,5447280.0],[566060.0,5447280.0]]],[[[566400.0,5447300.0],[566440.0,5447300.0],[566440.0,5447320.0],[566500.0,5447320.0],[566500.0,5447300.0],[566480.0,5447300.0],[566480.0,5447280.0],[566400.0,5447280.0],[566400.0,5447300.0]]],[[[565780.0,5447280.0],[565780.0,5447300.0],[565760.0,5447300.0],[565760.0,5447340.0],[565740.0,5447340.0],[565740.0,5447400.0],[565760.0,5447400.0],[565760.0,5447360.0],[565780.0,5447360.0],[565780.0,5447320.0],[565800.0,5447320.0],[565800.0,5447280.0],[565780.0,5447280.0]]],[[[564800.0,5447400.0],[564800.0,5447420.0],[564880.0,5447420.0],[564880.0,5447400.0],[564800.0,5447400.0]]],[[[564960.0,5447500.0],[564980.0,5447500.0],[564980.0,5447520.0],[565060.0,5447520.0],[565060.0,5447500.0],[565020.0,5447500.0],[565020.0,5447480.0],[564960.0,5447480.0],[564960.0,5447500.0]]],[[[565180.0,5447540.0],[565180.0,5447560.0],[565220.0,5447560.0],[565220.0,5447540.0],[565180.0,5447540.0]]],[[[565180.0,5447580.0],[565180.0,5447560.0],[565140.0,5447560.0],[565140.0,5447580.0],[565180.0,5447580.0]]],[[[565140.0,5447580.0],[565100.0,5447580.0],[565100.0,5447600.0],[565140.0,5447600.0],[565140.0,5447580.0]]],[[[565060.0,5447600.0],[565060.0,5447620.0],[565000.0,5447620.0],[565000.0,5447660.0],[565040.0,5447660.0],[565040.0,5447640.0],[565080.0,5447640.0],[565080.0,5447620.0],[565100.0,5447620.0],[565100.0,5447600.0],[565060.0,5447600.0]]],[[[566060.0,5447700.0],[566060.0,5447680.0],[565940.0,5447680.0],[565940.0,5447660.0],[565820.0,5447660.0],[565820.0,5447680.0],[565780.0,5447680.0],[565780.0,5447720.0],[565840.0,5447720.0],[565840.0,5447700.0],[565860.0,5447700.0],[565860.0,5447720.0],[566000.0,5447720.0],[566000.0,5447740.0],[566080.0,5447740.0],[566080.0,5447760.0],[566180.0,5447760.0],[566180.0,5447740.0],[566220.0,5447740.0],[566220.0,5447720.0],[566240.0,5447720.0],[566240.0,5447700.0],[566060.0,5447700.0]]],[[[564260.0,5447700.0],[564260.0,5447720.0],[564280.0,5447720.0],[564280.0,5447740.0],[564340.0,5447740.0],[564340.0,5447700.0],[564280.0,5447700.0],[564280.0,5447680.0],[564220.0,5447680.0],[564220.0,5447700.0],[564260.0,5447700.0]]],[[[565800.0,5448000.0],[565800.0,5448020.0],[565880.0,5448020.0],[565880.0,5448000.0],[565900.0,5448000.0],[565900.0,5447980.0],[565820.0,5447980.0],[565820.0,5448000.0],[565800.0,5448000.0]]],[[[568040.0,5449180.0],[568040.0,5449140.0],[568020.0,5449140.0],[568020.0,5449060.0],[568000.0,5449060.0],[568000.0,5449020.0],[567980.0,5449020.0],[567980.0,5449000.0],[567960.0,5449000.0],[567960.0,5448920.0],[567980.0,5448920.0],[567980.0,5448940.0],[568020.0,5448940.0],[568020.0,5448960.0],[568060.0,5448960.0],[568060.0,5448980.0],[568080.0,5448980.0],[568080.0,5449000.0],[568120.0,5449000.0],[568120.0,5449020.0],[568140.0,5449020.0],[568140.0,5449040.0],[568180.0,5449040.0],[568180.0,5449060.0],[568240.0,5449060.0],[568240.0,5449080.0],[568300.0,5449080.0],[568300.0,5449100.0],[568380.0,5449100.0],[568380.0,5449120.0],[568440.0,5449120.0],[568440.0,5449140.0],[568460.0,5449140.0],[568460.0,5449160.0],[568520.0,5449160.0],[568520.0,5449140.0],[568500.0,5449140.0],[568500.0,5449120.0],[568480.0,5449120.0],[568480.0,5449100.0],[568420.0,5449100.0],[568420.0,5449080.0],[568360.0,5449080.0],[568360.0,5449060.0],[568280.0,5449060.0],[568280.0,5449040.0],[568240.0,5449040.0],[568240.0,5449020.0],[568200.0,5449020.0],[568200.0,5449000.0],[568160.0,5449000.0],[568160.0,5448960.0],[568140.0,5448960.0],[568140.0,5448940.0],[568120.0,5448940.0],[568120.0,5448920.0],[568100.0,5448920.0],[568100.0,5448900.0],[568080.0,5448900.0],[568080.0,5448880.0],[568060.0,5448880.0],[568060.0,5448840.0],[568040.0,5448840.0],[568040.0,5448780.0],[568020.0,5448780.0],[568020.0,5448760.0],[568000.0,5448760.0],[568000.0,5448740.0],[567980.0,5448740.0],[567980.0,5448720.0],[567960.0,5448720.0],[567960.0,5448700.0],[567940.0,5448700.0],[567940.0,5448680.0],[567920.0,5448680.0],[567920.0,5448560.0],[567840.0,5448560.0],[567840.0,5448540.0],[567880.0,5448540.0],[567880.0,5448500.0],[567900.0,5448500.0],[567900.0,5448460.0],[567880.0,5448460.0],[567880.0,5448440.0],[567840.0,5448440.0],[567840.0,5448420.0],[567820.0,5448420.0],[567820.0,5448340.0],[567800.0,5448340.0],[567800.0,5448280.0],[567780.0,5448280.0],[567780.0,5448260.0],[567760.0,5448260.0],[567760.0,5448240.0],[567740.0,5448240.0],[567740.0,5448200.0],[567720.0,5448200.0],[567720.0,5448180.0],[567700.0,5448180.0],[567700.0,5448140.0],[567680.0,5448140.0],[567680.0,5448120.0],[567660.0,5448120.0],[567660.0,5448080.0],[567640.0,5448080.0],[567640.0,5448060.0],[567620.0,5448060.0],[567620.0,5448020.0],[567600.0,5448020.0],[567600.0,5448000.0],[567580.0,5448000.0],[567580.0,5447960.0],[567560.0,5447960.0],[567560.0,5447940.0],[567540.0,5447940.0],[567540.0,5447900.0],[567520.0,5447900.0],[567520.0,5447880.0],[567500.0,5447880.0],[567500.0,5447900.0],[567400.0,5447900.0],[567400.0,5447860.0],[567460.0,5447860.0],[567460.0,5447840.0],[567420.0,5447840.0],[567420.0,5447820.0],[567400.0,5447820.0],[567400.0,5447800.0],[567340.0,5447800.0],[567340.0,5447780.0],[567320.0,5447780.0],[567320.0,5447740.0],[567300.0,5447740.0],[567300.0,5447720.0],[567280.0,5447720.0],[567280.0,5447700.0],[567260.0,5447700.0],[567260.0,5447660.0],[567240.0,5447660.0],[567240.0,5447640.0],[567220.0,5447640.0],[567220.0,5447620.0],[567200.0,5447620.0],[567200.0,5447600.0],[567180.0,5447600.0],[567180.0,5447580.0],[567160.0,5447580.0],[567160.0,5447560.0],[567140.0,5447560.0],[567140.0,5447540.0],[567120.0,5447540.0],[567120.0,5447520.0],[567100.0,5447520.0],[567100.0,5447480.0],[567080.0,5447480.0],[567080.0,5447460.0],[567060.0,5447460.0],[567060.0,5447440.0],[567040.0,5447440.0],[567040.0,5447420.0],[567020.0,5447420.0],[567020.0,5447400.0],[567000.0,5447400.0],[567000.0,5447360.0],[566980.0,5447360.0],[566980.0,5447340.0],[566960.0,5447340.0],[566960.0,5447320.0],[566940.0,5447320.0],[566940.0,5447280.0],[566920.0,5447280.0],[566920.0,5447260.0],[566900.0,5447260.0],[566900.0,5447240.0],[566880.0,5447240.0],[566880.0,5447220.0],[566860.0,5447220.0],[566860.0,5447200.0],[566840.0,5447200.0],[566840.0,5447180.0],[566800.0,5447180.0],[566800.0,5447160.0],[566780.0,5447160.0],[566780.0,5447140.0],[566740.0,5447140.0],[566740.0,5447120.0],[566700.0,5447120.0],[566700.0,5447100.0],[566660.0,5447100.0],[566660.0,5447080.0],[566620.0,5447080.0],[566620.0,5447060.0],[566440.0,5447060.0],[566440.0,5447040.0],[566360.0,5447040.0],[566360.0,5447020.0],[565820.0,5447020.0],[565820.0,5447040.0],[565740.0,5447040.0],[565740.0,5447060.0],[565720.0,5447060.0],[565720.0,5447080.0],[565700.0,5447080.0],[565700.0,5447100.0],[565680.0,5447100.0],[565680.0,5447140.0],[565660.0,5447140.0],[565660.0,5447160.0],[565640.0,5447160.0],[565640.0,5447360.0],[565620.0,5447360.0],[565620.0,5447440.0],[565600.0,5447440.0],[565600.0,5447500.0],[565580.0,5447500.0],[565580.0,5447560.0],[565560.0,5447560.0],[565560.0,5447600.0],[565540.0,5447600.0],[565540.0,5447640.0],[565520.0,5447640.0],[565520.0,5447660.0],[565500.0,5447660.0],[565500.0,5447680.0],[565480.0,5447680.0],[565480.0,5447720.0],[565460.0,5447720.0],[565460.0,5447740.0],[565440.0,5447740.0],[565440.0,5447760.0],[565420.0,5447760.0],[565420.0,5447780.0],[565400.0,5447780.0],[565400.0,5447800.0],[565360.0,5447800.0],[565360.0,5447820.0],[565320.0,5447820.0],[565320.0,5447840.0],[565280.0,5447840.0],[565280.0,5447860.0],[565220.0,5447860.0],[565220.0,5447880.0],[565140.0,5447880.0],[565140.0,5447900.0],[565060.0,5447900.0],[565060.0,5447920.0],[565000.0,5447920.0],[565000.0,5447940.0],[564940.0,5447940.0],[564940.0,5447960.0],[564860.0,5447960.0],[564860.0,5447980.0],[564780.0,5447980.0],[564780.0,5448000.0],[564660.0,5448000.0],[564660.0,5448020.0],[564320.0,5448020.0],[564320.0,5448040.0],[564260.0,5448040.0],[564260.0,5448020.0],[564180.0,5448020.0],[564180.0,5448000.0],[564120.0,5448000.0],[564120.0,5447980.0],[564080.0,5447980.0],[564080.0,5447960.0],[564020.0,5447960.0],[564020.0,5447940.0],[563980.0,5447940.0],[563980.0,5447920.0],[563960.0,5447920.0],[563960.0,5448020.0],[564020.0,5448020.0],[564020.0,5448040.0],[564080.0,5448040.0],[564080.0,5448060.0],[564120.0,5448060.0],[564120.0,5448080.0],[564140.0,5448080.0],[564140.0,5448100.0],[564180.0,5448100.0],[564180.0,5448120.0],[564200.0,5448120.0],[564200.0,5448140.0],[564240.0,5448140.0],[564240.0,5448160.0],[564260.0,5448160.0],[564260.0,5448180.0],[564280.0,5448180.0],[564280.0,5448160.0],[564300.0,5448160.0],[564300.0,5448140.0],[564320.0,5448140.0],[564320.0,5448120.0],[564400.0,5448120.0],[564400.0,5448140.0],[564420.0,5448140.0],[564420.0,5448160.0],[564440.0,5448160.0],[564440.0,5448200.0],[564500.0,5448200.0],[564500.0,5448180.0],[564540.0,5448180.0],[564540.0,5448200.0],[564580.0,5448200.0],[564580.0,5448180.0],[564640.0,5448180.0],[564640.0,5448160.0],[564760.0,5448160.0],[564760.0,5448140.0],[564840.0,5448140.0],[564840.0,5448120.0],[564920.0,5448120.0],[564920.0,5448100.0],[564980.0,5448100.0],[564980.0,5448080.0],[565040.0,5448080.0],[565040.0,5448060.0],[565100.0,5448060.0],[565100.0,5448040.0],[565180.0,5448040.0],[565180.0,5448020.0],[565220.0,5448020.0],[565220.0,5448000.0],[565280.0,5448000.0],[565280.0,5447980.0],[565320.0,5447980.0],[565320.0,5447960.0],[565360.0,5447960.0],[565360.0,5447940.0],[565400.0,5447940.0],[565400.0,5447920.0],[565440.0,5447920.0],[565440.0,5447900.0],[565460.0,5447900.0],[565460.0,5447880.0],[565500.0,5447880.0],[565500.0,5447860.0],[565520.0,5447860.0],[565520.0,5447840.0],[565560.0,5447840.0],[565560.0,5447820.0],[565580.0,5447820.0],[565580.0,5447800.0],[565600.0,5447800.0],[565600.0,5447780.0],[565620.0,5447780.0],[565620.0,5447740.0],[565640.0,5447740.0],[565640.0,5447720.0],[565660.0,5447720.0],[565660.0,5447680.0],[565680.0,5447680.0],[565680.0,5447620.0],[565700.0,5447620.0],[565700.0,5447580.0],[565720.0,5447580.0],[565720.0,5447560.0],[565740.0,5447560.0],[565740.0,5447520.0],[565760.0,5447520.0],[565760.0,5447500.0],[565780.0,5447500.0],[565780.0,5447480.0],[565800.0,5447480.0],[565800.0,5447460.0],[565840.0,5447460.0],[565840.0,5447440.0],[565860.0,5447440.0],[565860.0,5447420.0],[565880.0,5447420.0],[565880.0,5447400.0],[565900.0,5447400.0],[565900.0,5447380.0],[565940.0,5447380.0],[565940.0,5447360.0],[565980.0,5447360.0],[565980.0,5447340.0],[566020.0,5447340.0],[566020.0,5447320.0],[566060.0,5447320.0],[566060.0,5447300.0],[566000.0,5447300.0],[566000.0,5447320.0],[565960.0,5447320.0],[565960.0,5447340.0],[565920.0,5447340.0],[565920.0,5447360.0],[565880.0,5447360.0],[565880.0,5447380.0],[565860.0,5447380.0],[565860.0,5447400.0],[565840.0,5447400.0],[565840.0,5447420.0],[565800.0,5447420.0],[565800.0,5447440.0],[565780.0,5447440.0],[565780.0,5447460.0],[565760.0,5447460.0],[565760.0,5447480.0],[565720.0,5447480.0],[565720.0,5447440.0],[565740.0,5447440.0],[565740.0,5447400.0],[565700.0,5447400.0],[565700.0,5447240.0],[565720.0,5447240.0],[565720.0,5447220.0],[565740.0,5447220.0],[565740.0,5447200.0],[565760.0,5447200.0],[565760.0,5447180.0],[565860.0,5447180.0],[565860.0,5447160.0],[565920.0,5447160.0],[565920.0,5447140.0],[566100.0,5447140.0],[566100.0,5447160.0],[566220.0,5447160.0],[566220.0,5447220.0],[566200.0,5447220.0],[566200.0,5447240.0],[566180.0,5447240.0],[566180.0,5447260.0],[566140.0,5447260.0],[566140.0,5447280.0],[566200.0,5447280.0],[566200.0,5447260.0],[566240.0,5447260.0],[566240.0,5447240.0],[566260.0,5447240.0],[566260.0,5447220.0],[566300.0,5447220.0],[566300.0,5447200.0],[566320.0,5447200.0],[566320.0,5447180.0],[566360.0,5447180.0],[566360.0,5447160.0],[566520.0,5447160.0],[566520.0,5447180.0],[566580.0,5447180.0],[566580.0,5447200.0],[566620.0,5447200.0],[566620.0,5447220.0],[566660.0,5447220.0],[566660.0,5447240.0],[566680.0,5447240.0],[566680.0,5447260.0],[566700.0,5447260.0],[566700.0,5447280.0],[566720.0,5447280.0],[566720.0,5447300.0],[566740.0,5447300.0],[566740.0,5447320.0],[566760.0,5447320.0],[566760.0,5447340.0],[566780.0,5447340.0],[566780.0,5447360.0],[566800.0,5447360.0],[566800.0,5447380.0],[566820.0,5447380.0],[566820.0,5447400.0],[566840.0,5447400.0],[566840.0,5447420.0],[566860.0,5447420.0],[566860.0,5447440.0],[566880.0,5447440.0],[566880.0,5447480.0],[566900.0,5447480.0],[566900.0,5447500.0],[566920.0,5447500.0],[566920.0,5447540.0],[566940.0,5447540.0],[566940.0,5447560.0],[566960.0,5447560.0],[566960.0,5447580.0],[566980.0,5447580.0],[566980.0,5447600.0],[567000.0,5447600.0],[567000.0,5447620.0],[567020.0,5447620.0],[567020.0,5447640.0],[567040.0,5447640.0],[567040.0,5447660.0],[567060.0,5447660.0],[567060.0,5447700.0],[567080.0,5447700.0],[567080.0,5447720.0],[567100.0,5447720.0],[567100.0,5447740.0],[567120.0,5447740.0],[567120.0,5447780.0],[567140.0,5447780.0],[567140.0,5447800.0],[567160.0,5447800.0],[567160.0,5447820.0],[567180.0,5447820.0],[567180.0,5447860.0],[567200.0,5447860.0],[567200.0,5447880.0],[567220.0,5447880.0],[567220.0,5447900.0],[567240.0,5447900.0],[567240.0,5447920.0],[567260.0,5447920.0],[567260.0,5447940.0],[567280.0,5447940.0],[567280.0,5447960.0],[567300.0,5447960.0],[567300.0,5447980.0],[567320.0,5447980.0],[567320.0,5448000.0],[567340.0,5448000.0],[567340.0,5448040.0],[567380.0,5448040.0],[567380.0,5448060.0],[567400.0,5448060.0],[567400.0,5448080.0],[567420.0,5448080.0],[567420.0,5448100.0],[567440.0,5448100.0],[567440.0,5448140.0],[567460.0,5448140.0],[567460.0,5448160.0],[567520.0,5448160.0],[567520.0,5448140.0],[567620.0,5448140.0],[567620.0,5448180.0],[567640.0,5448180.0],[567640.0,5448220.0],[567660.0,5448220.0],[567660.0,5448260.0],[567680.0,5448260.0],[567680.0,5448280.0],[567700.0,5448280.0],[567700.0,5448380.0],[567680.0,5448380.0],[567680.0,5448440.0],[567700.0,5448440.0],[567700.0,5448480.0],[567720.0,5448480.0],[567720.0,5448500.0],[567740.0,5448500.0],[567740.0,5448540.0],[567760.0,5448540.0],[567760.0,5448560.0],[567820.0,5448560.0],[567820.0,5448580.0],[567840.0,5448580.0],[567840.0,5448600.0],[567820.0,5448600.0],[567820.0,5448660.0],[567840.0,5448660.0],[567840.0,5448680.0],[567860.0,5448680.0],[567860.0,5448700.0],[567880.0,5448700.0],[567880.0,5448760.0],[567900.0,5448760.0],[567900.0,5449000.0],[567920.0,5449000.0],[567920.0,5449060.0],[567940.0,5449060.0],[567940.0,5449100.0],[567960.0,5449100.0],[567960.0,5449140.0],[567980.0,5449140.0],[567980.0,5449160.0],[568000.0,5449160.0],[568000.0,5449180.0],[568020.0,5449180.0],[568020.0,5449220.0],[568060.0,5449220.0],[568060.0,5449240.0],[568120.0,5449240.0],[568120.0,5449220.0],[568080.0,5449220.0],[568080.0,5449200.0],[568060.0,5449200.0],[568060.0,5449180.0],[568040.0,5449180.0]],[[567980.0,5448800.0],[568000.0,5448800.0],[568000.0,5448840.0],[568020.0,5448840.0],[568020.0,5448880.0],[568040.0,5448880.0],[568040.0,5448920.0],[568000.0,5448920.0],[568000.0,5448900.0],[567980.0,5448900.0],[567980.0,5448880.0],[567940.0,5448880.0],[567940.0,5448780.0],[567980.0,5448780.0],[567980.0,5448800.0]]],[[[564720.0,5448400.0],[564720.0,5448360.0],[564680.0,5448360.0],[564680.0,5448380.0],[564700.0,5448380.0],[564700.0,5448400.0],[564720.0,5448400.0]]],[[[565680.0,5448500.0],[565400.0,5448500.0],[565400.0,5448480.0],[565380.0,5448480.0],[565380.0,5448460.0],[565340.0,5448460.0],[565340.0,5448500.0],[565360.0,5448500.0],[565360.0,5448520.0],[565380.0,5448520.0],[565380.0,5448540.0],[565400.0,5448540.0],[565400.0,5448560.0],[565440.0,5448560.0],[565440.0,5448580.0],[565500.0,5448580.0],[565500.0,5448560.0],[565660.0,5448560.0],[565660.0,5448540.0],[565680.0,5448540.0],[565680.0,5448500.0]]],[[[567620.0,5443340.0],[567620.0,5443300.0],[567580.0,5443300.0],[567580.0,5443320.0],[567600.0,5443320.0],[567600.0,5443340.0],[567620.0,5443340.0]]],[[[567700.0,5443300.0],[567700.0,5443340.0],[567720.0,5443340.0],[567720.0,5443300.0],[567700.0,5443300.0]]],[[[566900.0,5443380.0],[566880.0,5443380.0],[566880.0,5443360.0],[566860.0,5443360.0],[566860.0,5443340.0],[566840.0,5443340.0],[566840.0,5443320.0],[566820.0,5443320.0],[566820.0,5443360.0],[566840.0,5443360.0],[566840.0,5443380.0],[566860.0,5443380.0],[566860.0,5443400.0],[566880.0,5443400.0],[566880.0,5443420.0],[566900.0,5443420.0],[566900.0,5443440.0],[566920.0,5443440.0],[566920.0,5443460.0],[566940.0,5443460.0],[566940.0,5443420.0],[566920.0,5443420.0],[566920.0,5443400.0],[566900.0,5443400.0],[566900.0,5443380.0]]],[[[566880.0,5443500.0],[566880.0,5443460.0],[566860.0,5443460.0],[566860.0,5443420.0],[566840.0,5443420.0],[566840.0,5443400.0],[566820.0,5443400.0],[566820.0,5443380.0],[566780.0,5443380.0],[566780.0,5443360.0],[566720.0,5443360.0],[566720.0,5443420.0],[566740.0,5443420.0],[566740.0,5443460.0],[566760.0,5443460.0],[566760.0,5443480.0],[566800.0,5443480.0],[566800.0,5443500.0],[566820.0,5443500.0],[566820.0,5443540.0],[566840.0,5443540.0],[566840.0,5443560.0],[566860.0,5443560.0],[566860.0,5443580.0],[566880.0,5443580.0],[566880.0,5443620.0],[566900.0,5443620.0],[566900.0,5443640.0],[566940.0,5443640.0],[566940.0,5443580.0],[566920.0,5443580.0],[566920.0,5443540.0],[566900.0,5443540.0],[566900.0,5443500.0],[566880.0,5443500.0]]],[[[566600.0,5443560.0],[566600.0,5443580.0],[566620.0,5443580.0],[566620.0,5443540.0],[566600.0,5443540.0],[566600.0,5443520.0],[566580.0,5443520.0],[566580.0,5443560.0],[566600.0,5443560.0]]],[[[568720.0,5444100.0],[568700.0,5444100.0],[568700.0,5444120.0],[568720.0,5444120.0],[568720.0,5444100.0]]],[[[566840.0,5444460.0],[566880.0,5444460.0],[566880.0,5444440.0],[566840.0,5444440.0],[566840.0,5444460.0]]],[[[566900.0,5444460.0],[566880.0,5444460.0],[566880.0,5444480.0],[566900.0,5444480.0],[566900.0,5444460.0]]],[[[566900.0,5444480.0],[566900.0,5444520.0],[566920.0,5444520.0],[566920.0,5444480.0],[566900.0,5444480.0]]],[[[567680.0,5444860.0],[567680.0,5444880.0],[567740.0,5444880.0],[567740.0,5444860.0],[567680.0,5444860.0]]],[[[566280.0,5443760.0],[566260.0,5443760.0],[566260.0,5443740.0],[566240.0,5443740.0],[566240.0,5443700.0],[566220.0,5443700.0],[566220.0,5443760.0],[566200.0,5443760.0],[566200.0,5443780.0],[566180.0,5443780.0],[566180.0,5443820.0],[566140.0,5443820.0],[566140.0,5443720.0],[566120.0,5443720.0],[566120.0,5443800.0],[566100.0,5443800.0],[566100.0,5443880.0],[566080.0,5443880.0],[566080.0,5443900.0],[566060.0,5443900.0],[566060.0,5443920.0],[566040.0,5443920.0],[566040.0,5443940.0],[566000.0,5443940.0],[566000.0,5443960.0],[565960.0,5443960.0],[565960.0,5443980.0],[565920.0,5443980.0],[565920.0,5444000.0],[565880.0,5444000.0],[565880.0,5444020.0],[565860.0,5444020.0],[565860.0,5444060.0],[565800.0,5444060.0],[565800.0,5444080.0],[565780.0,5444080.0],[565780.0,5444100.0],[565740.0,5444100.0],[565740.0,5444120.0],[565680.0,5444120.0],[565680.0,5444100.0],[565700.0,5444100.0],[565700.0,5444000.0],[565680.0,5444000.0],[565680.0,5443960.0],[565660.0,5443960.0],[565660.0,5443940.0],[565620.0,5443940.0],[565620.0,5443920.0],[565600.0,5443920.0],[565600.0,5443900.0],[565560.0,5443900.0],[565560.0,5443880.0],[565540.0,5443880.0],[565540.0,5443860.0],[565520.0,5443860.0],[565520.0,5443840.0],[565500.0,5443840.0],[565500.0,5443820.0],[565480.0,5443820.0],[565480.0,5443780.0],[565460.0,5443780.0],[565460.0,5443760.0],[565440.0,5443760.0],[565440.0,5443740.0],[565420.0,5443740.0],[565420.0,5443720.0],[565400.0,5443720.0],[565400.0,5443700.0],[565300.0,5443700.0],[565300.0,5443680.0],[565280.0,5443680.0],[565280.0,5443700.0],[565200.0,5443700.0],[565200.0,5443720.0],[565160.0,5443720.0],[565160.0,5443700.0],[565100.0,5443700.0],[565100.0,5443720.0],[564920.0,5443720.0],[564920.0,5443700.0],[564820.0,5443700.0],[564820.0,5443680.0],[564720.0,5443680.0],[564720.0,5443660.0],[564640.0,5443660.0],[564640.0,5443680.0],[564600.0,5443680.0],[564600.0,5443660.0],[564560.0,5443660.0],[564560.0,5443640.0],[564420.0,5443640.0],[564420.0,5443620.0],[564360.0,5443620.0],[564360.0,5443600.0],[564380.0,5443600.0],[564380.0,5443580.0],[564400.0,5443580.0],[564400.0,5443560.0],[564460.0,5443560.0],[564460.0,5443540.0],[564500.0,5443540.0],[564500.0,5443520.0],[564540.0,5443520.0],[564540.0,5443500.0],[564620.0,5443500.0],[564620.0,5443480.0],[564800.0,5443480.0],[564800.0,5443460.0],[564880.0,5443460.0],[564880.0,5443440.0],[564960.0,5443440.0],[564960.0,5443420.0],[565140.0,5443420.0],[565140.0,5443400.0],[565320.0,5443400.0],[565320.0,5443420.0],[565360.0,5443420.0],[565360.0,5443440.0],[565440.0,5443440.0],[565440.0,5443460.0],[565460.0,5443460.0],[565460.0,5443440.0],[565480.0,5443440.0],[565480.0,5443460.0],[565540.0,5443460.0],[565540.0,5443480.0],[565660.0,5443480.0],[565660.0,5443460.0],[565720.0,5443460.0],[565720.0,5443440.0],[565760.0,5443440.0],[565760.0,5443420.0],[565800.0,5443420.0],[565800.0,5443400.0],[565820.0,5443400.0],[565820.0,5443380.0],[565840.0,5443380.0],[565840.0,5443360.0],[565860.0,5443360.0],[565860.0,5443340.0],[565880.0,5443340.0],[565880.0,5443320.0],[565900.0,5443320.0],[565900.0,5443300.0],[565940.0,5443300.0],[565940.0,5443280.0],[565960.0,5443280.0],[565960.0,5443260.0],[565980.0,5443260.0],[565980.0,5443240.0],[565840.0,5443240.0],[565840.0,5443260.0],[565820.0,5443260.0],[565820.0,5443280.0],[565780.0,5443280.0],[565780.0,5443300.0],[565740.0,5443300.0],[565740.0,5443320.0],[565680.0,5443320.0],[565680.0,5443340.0],[565440.0,5443340.0],[565440.0,5443320.0],[565380.0,5443320.0],[565380.0,5443300.0],[565260.0,5443300.0],[565260.0,5443320.0],[565200.0,5443320.0],[565200.0,5443300.0],[565000.0,5443300.0],[565000.0,5443280.0],[564880.0,5443280.0],[564880.0,5443300.0],[564760.0,5443300.0],[564760.0,5443320.0],[564640.0,5443320.0],[564640.0,5443340.0],[564540.0,5443340.0],[564540.0,5443360.0],[564460.0,5443360.0],[564460.0,5443380.0],[564380.0,5443380.0],[564380.0,5443400.0],[564180.0,5443400.0],[564180.0,5443420.0],[564160.0,5443420.0],[564160.0,5443400.0],[564040.0,5443400.0],[564040.0,5443420.0],[564020.0,5443420.0],[564020.0,5443400.0],[563960.0,5443400.0],[563960.0,5444480.0],[563980.0,5444480.0],[563980.0,5444500.0],[564020.0,5444500.0],[564020.0,5444520.0],[564040.0,5444520.0],[564040.0,5444540.0],[564080.0,5444540.0],[564080.0,5444560.0],[564100.0,5444560.0],[564100.0,5444580.0],[564140.0,5444580.0],[564140.0,5444600.0],[564180.0,5444600.0],[564180.0,5444620.0],[564220.0,5444620.0],[564220.0,5444640.0],[564260.0,5444640.0],[564260.0,5444660.0],[564300.0,5444660.0],[564300.0,5444680.0],[564320.0,5444680.0],[564320.0,5444700.0],[564360.0,5444700.0],[564360.0,5444720.0],[564380.0,5444720.0],[564380.0,5444740.0],[564420.0,5444740.0],[564420.0,5444760.0],[564460.0,5444760.0],[564460.0,5444780.0],[564480.0,5444780.0],[564480.0,5444800.0],[564520.0,5444800.0],[564520.0,5444820.0],[564540.0,5444820.0],[564540.0,5444840.0],[564580.0,5444840.0],[564580.0,5444860.0],[564600.0,5444860.0],[564600.0,5444880.0],[564620.0,5444880.0],[564620.0,5444900.0],[564660.0,5444900.0],[564660.0,5444920.0],[564680.0,5444920.0],[564680.0,5444940.0],[564720.0,5444940.0],[564720.0,5444960.0],[564740.0,5444960.0],[564740.0,5444980.0],[564780.0,5444980.0],[564780.0,5445000.0],[564820.0,5445000.0],[564820.0,5445020.0],[564900.0,5445020.0],[564900.0,5445040.0],[564940.0,5445040.0],[564940.0,5445060.0],[565060.0,5445060.0],[565060.0,5445080.0],[565160.0,5445080.0],[565160.0,5445100.0],[565400.0,5445100.0],[565400.0,5445080.0],[565620.0,5445080.0],[565620.0,5445100.0],[565680.0,5445100.0],[565680.0,5445080.0],[565740.0,5445080.0],[565740.0,5445060.0],[565780.0,5445060.0],[565780.0,5445040.0],[565820.0,5445040.0],[565820.0,5445020.0],[565860.0,5445020.0],[565860.0,5445000.0],[565900.0,5445000.0],[565900.0,5444980.0],[565960.0,5444980.0],[565960.0,5444960.0],[566020.0,5444960.0],[566020.0,5444940.0],[566320.0,5444940.0],[566320.0,5444960.0],[566380.0,5444960.0],[566380.0,5444980.0],[566420.0,5444980.0],[566420.0,5445000.0],[566480.0,5445000.0],[566480.0,5445020.0],[566560.0,5445020.0],[566560.0,5445040.0],[566660.0,5445040.0],[566660.0,5445060.0],[566720.0,5445060.0],[566720.0,5445080.0],[566800.0,5445080.0],[566800.0,5445100.0],[566860.0,5445100.0],[566860.0,5445120.0],[566940.0,5445120.0],[566940.0,5445140.0],[567200.0,5445140.0],[567200.0,5445160.0],[567280.0,5445160.0],[567280.0,5445180.0],[567300.0,5445180.0],[567300.0,5445200.0],[567320.0,5445200.0],[567320.0,5445240.0],[567360.0,5445240.0],[567360.0,5445260.0],[567400.0,5445260.0],[567400.0,5445280.0],[567580.0,5445280.0],[567580.0,5445300.0],[567600.0,5445300.0],[567600.0,5445320.0],[567620.0,5445320.0],[567620.0,5445340.0],[567640.0,5445340.0],[567640.0,5445360.0],[567700.0,5445360.0],[567700.0,5445380.0],[567720.0,5445380.0],[567720.0,5445400.0],[567740.0,5445400.0],[567740.0,5445420.0],[567760.0,5445420.0],[567760.0,5445440.0],[567780.0,5445440.0],[567780.0,5445460.0],[567800.0,5445460.0],[567800.0,5445500.0],[567820.0,5445500.0],[567820.0,5445540.0],[567800.0,5445540.0],[567800.0,5445520.0],[567780.0,5445520.0],[567780.0,5445620.0],[567800.0,5445620.0],[567800.0,5445800.0],[567780.0,5445800.0],[567780.0,5446040.0],[567800.0,5446040.0],[567800.0,5446200.0],[567820.0,5446200.0],[567820.0,5446380.0],[567840.0,5446380.0],[567840.0,5446480.0],[567860.0,5446480.0],[567860.0,5446300.0],[567840.0,5446300.0],[567840.0,5446140.0],[567820.0,5446140.0],[567820.0,5445580.0],[567840.0,5445580.0],[567840.0,5445620.0],[567860.0,5445620.0],[567860.0,5445640.0],[567920.0,5445640.0],[567920.0,5445660.0],[568000.0,5445660.0],[568000.0,5445680.0],[568120.0,5445680.0],[568120.0,5445660.0],[568160.0,5445660.0],[568160.0,5445680.0],[568180.0,5445680.0],[568180.0,5445700.0],[568200.0,5445700.0],[568200.0,5445720.0],[568220.0,5445720.0],[568220.0,5445740.0],[568240.0,5445740.0],[568240.0,5445760.0],[568280.0,5445760.0],[568280.0,5445820.0],[568300.0,5445820.0],[568300.0,5445860.0],[568320.0,5445860.0],[568320.0,5445900.0],[568340.0,5445900.0],[568340.0,5445940.0],[568360.0,5445940.0],[568360.0,5445980.0],[568400.0,5445980.0],[568400.0,5446020.0],[568420.0,5446020.0],[568420.0,5446080.0],[568440.0,5446080.0],[568440.0,5446100.0],[568460.0,5446100.0],[568460.0,5446120.0],[568480.0,5446120.0],[568480.0,5446160.0],[568500.0,5446160.0],[568500.0,5446220.0],[568520.0,5446220.0],[568520.0,5446240.0],[568540.0,5446240.0],[568540.0,5446260.0],[568560.0,5446260.0],[568560.0,5446280.0],[568580.0,5446280.0],[568580.0,5446340.0],[568600.0,5446340.0],[568600.0,5446400.0],[568620.0,5446400.0],[568620.0,5446480.0],[568640.0,5446480.0],[568640.0,5446560.0],[568660.0,5446560.0],[568660.0,5446640.0],[568680.0,5446640.0],[568680.0,5446660.0],[568700.0,5446660.0],[568700.0,5446620.0],[568680.0,5446620.0],[568680.0,5446520.0],[568660.0,5446520.0],[568660.0,5446400.0],[568640.0,5446400.0],[568640.0,5446380.0],[568680.0,5446380.0],[568680.0,5446360.0],[568700.0,5446360.0],[568700.0,5446300.0],[568720.0,5446300.0],[568720.0,5446280.0],[568840.0,5446280.0],[568840.0,5446260.0],[568980.0,5446260.0],[568980.0,5446280.0],[569000.0,5446280.0],[569000.0,5446260.0],[569020.0,5446260.0],[569020.0,5446280.0],[569040.0,5446280.0],[569040.0,5446300.0],[569060.0,5446300.0],[569060.0,5446340.0],[569080.0,5446340.0],[569080.0,5446360.0],[569100.0,5446360.0],[569100.0,5446380.0],[569140.0,5446380.0],[569140.0,5446400.0],[569200.0,5446400.0],[569200.0,5446420.0],[569280.0,5446420.0],[569280.0,5446440.0],[569300.0,5446440.0],[569300.0,5446460.0],[569340.0,5446460.0],[569340.0,5446480.0],[569380.0,5446480.0],[569380.0,5446500.0],[569420.0,5446500.0],[569420.0,5446520.0],[569500.0,5446520.0],[569500.0,5446540.0],[569640.0,5446540.0],[569640.0,5446560.0],[569660.0,5446560.0],[569660.0,5446580.0],[569640.0,5446580.0],[569640.0,5446780.0],[569660.0,5446780.0],[569660.0,5446600.0],[569720.0,5446600.0],[569720.0,5446620.0],[569760.0,5446620.0],[569760.0,5446640.0],[569800.0,5446640.0],[569800.0,5446660.0],[569820.0,5446660.0],[569820.0,5446680.0],[569860.0,5446680.0],[569860.0,5446700.0],[569880.0,5446700.0],[569880.0,5446720.0],[569900.0,5446720.0],[569900.0,5446740.0],[569940.0,5446740.0],[569940.0,5446760.0],[569960.0,5446760.0],[569960.0,5446080.0],[569940.0,5446080.0],[569940.0,5446060.0],[569960.0,5446060.0],[569960.0,5445300.0],[569920.0,5445300.0],[569920.0,5445280.0],[569880.0,5445280.0],[569880.0,5445260.0],[569840.0,5445260.0],[569840.0,5445240.0],[569820.0,5445240.0],[569820.0,5445220.0],[569800.0,5445220.0],[569800.0,5445180.0],[569780.0,5445180.0],[569780.0,5445160.0],[569740.0,5445160.0],[569740.0,5445140.0],[569720.0,5445140.0],[569720.0,5445100.0],[569700.0,5445100.0],[569700.0,5445060.0],[569680.0,5445060.0],[569680.0,5445020.0],[569660.0,5445020.0],[569660.0,5444980.0],[569640.0,5444980.0],[569640.0,5444960.0],[569620.0,5444960.0],[569620.0,5444900.0],[569600.0,5444900.0],[569600.0,5444860.0],[569580.0,5444860.0],[569580.0,5444820.0],[569560.0,5444820.0],[569560.0,5444800.0],[569540.0,5444800.0],[569540.0,5444780.0],[569520.0,5444780.0],[569520.0,5444760.0],[569500.0,5444760.0],[569500.0,5444740.0],[569480.0,5444740.0],[569480.0,5444700.0],[569460.0,5444700.0],[569460.0,5444680.0],[569440.0,5444680.0],[569440.0,5444660.0],[569420.0,5444660.0],[569420.0,5444640.0],[569400.0,5444640.0],[569400.0,5444600.0],[569380.0,5444600.0],[569380.0,5444580.0],[569360.0,5444580.0],[569360.0,5444560.0],[569340.0,5444560.0],[569340.0,5444540.0],[569320.0,5444540.0],[569320.0,5444520.0],[569300.0,5444520.0],[569300.0,5444500.0],[569280.0,5444500.0],[569280.0,5444480.0],[569260.0,5444480.0],[569260.0,5444460.0],[569240.0,5444460.0],[569240.0,5444440.0],[569220.0,5444440.0],[569220.0,5444420.0],[569200.0,5444420.0],[569200.0,5444400.0],[569160.0,5444400.0],[569160.0,5444380.0],[569140.0,5444380.0],[569140.0,5444340.0],[569120.0,5444340.0],[569120.0,5444380.0],[569060.0,5444380.0],[569060.0,5444340.0],[569040.0,5444340.0],[569040.0,5444320.0],[569020.0,5444320.0],[569020.0,5444300.0],[568980.0,5444300.0],[568980.0,5444280.0],[568960.0,5444280.0],[568960.0,5444260.0],[568940.0,5444260.0],[568940.0,5444240.0],[568900.0,5444240.0],[568900.0,5444220.0],[568880.0,5444220.0],[568880.0,5444200.0],[568840.0,5444200.0],[568840.0,5444180.0],[568780.0,5444180.0],[568780.0,5444160.0],[568760.0,5444160.0],[568760.0,5444140.0],[568740.0,5444140.0],[568740.0,5444160.0],[568720.0,5444160.0],[568720.0,5444140.0],[568680.0,5444140.0],[568680.0,5444100.0],[568700.0,5444100.0],[568700.0,5443920.0],[568660.0,5443920.0],[568660.0,5443900.0],[568640.0,5443900.0],[568640.0,5443920.0],[568620.0,5443920.0],[568620.0,5444040.0],[568640.0,5444040.0],[568640.0,5444160.0],[568620.0,5444160.0],[568620.0,5444180.0],[568520.0,5444180.0],[568520.0,5444160.0],[568460.0,5444160.0],[568460.0,5444140.0],[568400.0,5444140.0],[568400.0,5444120.0],[568340.0,5444120.0],[568340.0,5444000.0],[568420.0,5444000.0],[568420.0,5444020.0],[568500.0,5444020.0],[568500.0,5444040.0],[568540.0,5444040.0],[568540.0,5444020.0],[568560.0,5444020.0],[568560.0,5443920.0],[568540.0,5443920.0],[568540.0,5443900.0],[568460.0,5443900.0],[568460.0,5443880.0],[568360.0,5443880.0],[568360.0,5443860.0],[568340.0,5443860.0],[568340.0,5443840.0],[568320.0,5443840.0],[568320.0,5443820.0],[568280.0,5443820.0],[568280.0,5443800.0],[568260.0,5443800.0],[568260.0,5443780.0],[568240.0,5443780.0],[568240.0,5443740.0],[568220.0,5443740.0],[568220.0,5443720.0],[568240.0,5443720.0],[568240.0,5443640.0],[568260.0,5443640.0],[568260.0,5443620.0],[568280.0,5443620.0],[568280.0,5443640.0],[568320.0,5443640.0],[568320.0,5443660.0],[568460.0,5443660.0],[568460.0,5443680.0],[568500.0,5443680.0],[568500.0,5443700.0],[568540.0,5443700.0],[568540.0,5443720.0],[568560.0,5443720.0],[568560.0,5443740.0],[568580.0,5443740.0],[568580.0,5443660.0],[568600.0,5443660.0],[568600.0,5443540.0],[568580.0,5443540.0],[568580.0,5443520.0],[568520.0,5443520.0],[568520.0,5443500.0],[568440.0,5443500.0],[568440.0,5443480.0],[568360.0,5443480.0],[568360.0,5443460.0],[568280.0,5443460.0],[568280.0,5443440.0],[568260.0,5443440.0],[568260.0,5443460.0],[568240.0,5443460.0],[568240.0,5443500.0],[568220.0,5443500.0],[568220.0,5443520.0],[568200.0,5443520.0],[568200.0,5443560.0],[568180.0,5443560.0],[568180.0,5443600.0],[568160.0,5443600.0],[568160.0,5443660.0],[568140.0,5443660.0],[568140.0,5443740.0],[568160.0,5443740.0],[568160.0,5443820.0],[568200.0,5443820.0],[568200.0,5443880.0],[568220.0,5443880.0],[568220.0,5443960.0],[568200.0,5443960.0],[568200.0,5443980.0],[568140.0,5443980.0],[568140.0,5443960.0],[568100.0,5443960.0],[568100.0,5443980.0],[568080.0,5443980.0],[568080.0,5443960.0],[568000.0,5443960.0],[568000.0,5443940.0],[567960.0,5443940.0],[567960.0,5443920.0],[567860.0,5443920.0],[567860.0,5443900.0],[567760.0,5443900.0],[567760.0,5443880.0],[567660.0,5443880.0],[567660.0,5443860.0],[567640.0,5443860.0],[567640.0,5443840.0],[567600.0,5443840.0],[567600.0,5443820.0],[567580.0,5443820.0],[567580.0,5443800.0],[567500.0,5443800.0],[567500.0,5443780.0],[567360.0,5443780.0],[567360.0,5443800.0],[567020.0,5443800.0],[567020.0,5443820.0],[566880.0,5443820.0],[566880.0,5443840.0],[566700.0,5443840.0],[566700.0,5443820.0],[566680.0,5443820.0],[566680.0,5443800.0],[566660.0,5443800.0],[566660.0,5443760.0],[566640.0,5443760.0],[566640.0,5443740.0],[566620.0,5443740.0],[566620.0,5443700.0],[566600.0,5443700.0],[566600.0,5443720.0],[566580.0,5443720.0],[566580.0,5443760.0],[566560.0,5443760.0],[566560.0,5443780.0],[566520.0,5443780.0],[566520.0,5443800.0],[566500.0,5443800.0],[566500.0,5443780.0],[566460.0,5443780.0],[566460.0,5443760.0],[566420.0,5443760.0],[566420.0,5443780.0],[566440.0,5443780.0],[566440.0,5443800.0],[566400.0,5443800.0],[566400.0,5443820.0],[566300.0,5443820.0],[566300.0,5443840.0],[566200.0,5443840.0],[566200.0,5443820.0],[566240.0,5443820.0],[566240.0,5443800.0],[566260.0,5443800.0],[566260.0,5443780.0],[566280.0,5443780.0],[566280.0,5443760.0]],[[566200.0,5443860.0],[566120.0,5443860.0],[566120.0,5443840.0],[566200.0,5443840.0],[566200.0,5443860.0]],[[568460.0,5445860.0],[568420.0,5445860.0],[568420.0,5445840.0],[568400.0,5445840.0],[568400.0,5445820.0],[568380.0,5445820.0],[568380.0,5445780.0],[568360.0,5445780.0],[568360.0,5445700.0],[568380.0,5445700.0],[568380.0,5445720.0],[568420.0,5445720.0],[568420.0,5445760.0],[568440.0,5445760.0],[568440.0,5445780.0],[568460.0,5445780.0],[568460.0,5445800.0],[568480.0,5445800.0],[568480.0,5445820.0],[568500.0,5445820.0],[568500.0,5445800.0],[568540.0,5445800.0],[568540.0,5445780.0],[568520.0,5445780.0],[568520.0,5445700.0],[568500.0,5445700.0],[568500.0,5445660.0],[568480.0,5445660.0],[568480.0,5445600.0],[568460.0,5445600.0],[568460.0,5445560.0],[568440.0,5445560.0],[568440.0,5445520.0],[568420.0,5445520.0],[568420.0,5445500.0],[568400.0,5445500.0],[568400.0,5445480.0],[568380.0,5445480.0],[568380.0,5445460.0],[568360.0,5445460.0],[568360.0,5445440.0],[568340.0,5445440.0],[568340.0,5445380.0],[568320.0,5445380.0],[568320.0,5445360.0],[568300.0,5445360.0],[568300.0,5445340.0],[568280.0,5445340.0],[568280.0,5445300.0],[568260.0,5445300.0],[568260.0,5445240.0],[568340.0,5445240.0],[568340.0,5445260.0],[568380.0,5445260.0],[568380.0,5445280.0],[568400.0,5445280.0],[568400.0,5445300.0],[568440.0,5445300.0],[568440.0,5445320.0],[568460.0,5445320.0],[568460.0,5445360.0],[568480.0,5445360.0],[568480.0,5445380.0],[568500.0,5445380.0],[568500.0,5445500.0],[568520.0,5445500.0],[568520.0,5445540.0],[568540.0,5445540.0],[568540.0,5445580.0],[568560.0,5445580.0],[568560.0,5445620.0],[568580.0,5445620.0],[568580.0,5445660.0],[568600.0,5445660.0],[568600.0,5445700.0],[568620.0,5445700.0],[568620.0,5445740.0],[568640.0,5445740.0],[568640.0,5445760.0],[568660.0,5445760.0],[568660.0,5445780.0],[568680.0,5445780.0],[568680.0,5445820.0],[568700.0,5445820.0],[568700.0,5445840.0],[568720.0,5445840.0],[568720.0,5445900.0],[568680.0,5445900.0],[568680.0,5445920.0],[568640.0,5445920.0],[568640.0,5445940.0],[568540.0,5445940.0],[568540.0,5445920.0],[568500.0,5445920.0],[568500.0,5445900.0],[568480.0,5445900.0],[568480.0,5445880.0],[568460.0,5445880.0],[568460.0,5445860.0]],[[568100.0,5445060.0],[568080.0,5445060.0],[568080.0,5445040.0],[568020.0,5445040.0],[568020.0,5445020.0],[567960.0,5445020.0],[567960.0,5445000.0],[567940.0,5445000.0],[567940.0,5444960.0],[567920.0,5444960.0],[567920.0,5444940.0],[567940.0,5444940.0],[567940.0,5444920.0],[568160.0,5444920.0],[568160.0,5444900.0],[568180.0,5444900.0],[568180.0,5444920.0],[568220.0,5444920.0],[568220.0,5444940.0],[568240.0,5444940.0],[568240.0,5444960.0],[568280.0,5444960.0],[568280.0,5444980.0],[568300.0,5444980.0],[568300.0,5445000.0],[568320.0,5445000.0],[568320.0,5445020.0],[568340.0,5445020.0],[568340.0,5445040.0],[568380.0,5445040.0],[568380.0,5445100.0],[568420.0,5445100.0],[568420.0,5445180.0],[568400.0,5445180.0],[568400.0,5445160.0],[568040.0,5445160.0],[568040.0,5445100.0],[568060.0,5445100.0],[568060.0,5445080.0],[568100.0,5445080.0],[568100.0,5445060.0]],[[567040.0,5444840.0],[567020.0,5444840.0],[567020.0,5444880.0],[567000.0,5444880.0],[567000.0,5444860.0],[566960.0,5444860.0],[566960.0,5444840.0],[566900.0,5444840.0],[566900.0,5444800.0],[567120.0,5444800.0],[567120.0,5444780.0],[567140.0,5444780.0],[567140.0,5444760.0],[567240.0,5444760.0],[567240.0,5444740.0],[567260.0,5444740.0],[567260.0,5444760.0],[567300.0,5444760.0],[567300.0,5444780.0],[567320.0,5444780.0],[567320.0,5444800.0],[567340.0,5444800.0],[567340.0,5444840.0],[567320.0,5444840.0],[567320.0,5444860.0],[567340.0,5444860.0],[567340.0,5444880.0],[567360.0,5444880.0],[567360.0,5444920.0],[567340.0,5444920.0],[567340.0,5444900.0],[567280.0,5444900.0],[567280.0,5444880.0],[567180.0,5444880.0],[567180.0,5444860.0],[567040.0,5444860.0],[567040.0,5444840.0]],[[567880.0,5444860.0],[567880.0,5444880.0],[567840.0,5444880.0],[567840.0,5444900.0],[567660.0,5444900.0],[567660.0,5444880.0],[567640.0,5444880.0],[567640.0,5444860.0],[567600.0,5444860.0],[567600.0,5444840.0],[567540.0,5444840.0],[567540.0,5444820.0],[567480.0,5444820.0],[567480.0,5444800.0],[567420.0,5444800.0],[567420.0,5444780.0],[567380.0,5444780.0],[567380.0,5444760.0],[567340.0,5444760.0],[567340.0,5444740.0],[567300.0,5444740.0],[567300.0,5444720.0],[567220.0,5444720.0],[567220.0,5444700.0],[567200.0,5444700.0],[567200.0,5444680.0],[567180.0,5444680.0],[567180.0,5444660.0],[567140.0,5444660.0],[567140.0,5444640.0],[567100.0,5444640.0],[567100.0,5444620.0],[567040.0,5444620.0],[567040.0,5444600.0],[566900.0,5444600.0],[566900.0,5444620.0],[566860.0,5444620.0],[566860.0,5444640.0],[566800.0,5444640.0],[566800.0,5444620.0],[566720.0,5444620.0],[566720.0,5444600.0],[566600.0,5444600.0],[566600.0,5444580.0],[566520.0,5444580.0],[566520.0,5444560.0],[566500.0,5444560.0],[566500.0,5444520.0],[566520.0,5444520.0],[566520.0,5444500.0],[566580.0,5444500.0],[566580.0,5444480.0],[566640.0,5444480.0],[566640.0,5444460.0],[566720.0,5444460.0],[566720.0,5444440.0],[566840.0,5444440.0],[566840.0,5444420.0],[566860.0,5444420.0],[566860.0,5444400.0],[567040.0,5444400.0],[567040.0,5444380.0],[567120.0,5444380.0],[567120.0,5444360.0],[567200.0,5444360.0],[567200.0,5444380.0],[567220.0,5444380.0],[567220.0,5444400.0],[567260.0,5444400.0],[567260.0,5444420.0],[567340.0,5444420.0],[567340.0,5444400.0],[567540.0,5444400.0],[567540.0,5444420.0],[567580.0,5444420.0],[567580.0,5444440.0],[567620.0,5444440.0],[567620.0,5444460.0],[567680.0,5444460.0],[567680.0,5444480.0],[567780.0,5444480.0],[567780.0,5444500.0],[567820.0,5444500.0],[567820.0,5444520.0],[567860.0,5444520.0],[567860.0,5444540.0],[567880.0,5444540.0],[567880.0,5444560.0],[567900.0,5444560.0],[567900.0,5444580.0],[567940.0,5444580.0],[567940.0,5444600.0],[567980.0,5444600.0],[567980.0,5444620.0],[568020.0,5444620.0],[568020.0,5444640.0],[568060.0,5444640.0],[568060.0,5444700.0],[568040.0,5444700.0],[568040.0,5444720.0],[568080.0,5444720.0],[568080.0,5444740.0],[568020.0,5444740.0],[568020.0,5444760.0],[568000.0,5444760.0],[568000.0,5444780.0],[567980.0,5444780.0],[567980.0,5444800.0],[567960.0,5444800.0],[567960.0,5444840.0],[567920.0,5444840.0],[567920.0,5444860.0],[567880.0,5444860.0]],[[568040.0,5444780.0],[568040.0,5444760.0],[568120.0,5444760.0],[568120.0,5444740.0],[568140.0,5444740.0],[568140.0,5444800.0],[568120.0,5444800.0],[568120.0,5444820.0],[568000.0,5444820.0],[568000.0,5444780.0],[568040.0,5444780.0]],[[568000.0,5444840.0],[567980.0,5444840.0],[567980.0,5444820.0],[568000.0,5444820.0],[568000.0,5444840.0]],[[566620.0,5444220.0],[566660.0,5444220.0],[566660.0,5444200.0],[566760.0,5444200.0],[566760.0,5444240.0],[566620.0,5444240.0],[566620.0,5444220.0]]],[[[568360.0,5445360.0],[568360.0,5445380.0],[568400.0,5445380.0],[568400.0,5445360.0],[568360.0,5445360.0]]],[[[568520.0,5445820.0],[568500.0,5445820.0],[568500.0,5445840.0],[568520.0,5445840.0],[568520.0,5445820.0]]],[[[567340.0,5446400.0],[567340.0,5446440.0],[567360.0,5446440.0],[567360.0,5446400.0],[567340.0,5446400.0]]],[[[567840.0,5446780.0],[567840.0,5446740.0],[567860.0,5446740.0],[567860.0,5446700.0],[567880.0,5446700.0],[567880.0,5446640.0],[567900.0,5446640.0],[567900.0,5446540.0],[567880.0,5446540.0],[567880.0,5446480.0],[567860.0,5446480.0],[567860.0,5446680.0],[567840.0,5446680.0],[567840.0,5446720.0],[567820.0,5446720.0],[567820.0,5446760.0],[567800.0,5446760.0],[567800.0,5446800.0],[567780.0,5446800.0],[567780.0,5446840.0],[567760.0,5446840.0],[567760.0,5446880.0],[567780.0,5446880.0],[567780.0,5446860.0],[567800.0,5446860.0],[567800.0,5446820.0],[567820.0,5446820.0],[567820.0,5446780.0],[567840.0,5446780.0]]],[[[568700.0,5446660.0],[568700.0,5446700.0],[568720.0,5446700.0],[568720.0,5446660.0],[568700.0,5446660.0]]],[[[567740.0,5446880.0],[567740.0,5446920.0],[567760.0,5446920.0],[567760.0,5446880.0],[567740.0,5446880.0]]],[[[567700.0,5446940.0],[567700.0,5447000.0],[567720.0,5447000.0],[567720.0,5446960.0],[567740.0,5446960.0],[567740.0,5446920.0],[567720.0,5446920.0],[567720.0,5446940.0],[567700.0,5446940.0]]],[[[566680.0,5447900.0],[566680.0,5447880.0],[566620.0,5447880.0],[566620.0,5447860.0],[566560.0,5447860.0],[566560.0,5447840.0],[566480.0,5447840.0],[566480.0,5447820.0],[566420.0,5447820.0],[566420.0,5447800.0],[566300.0,5447800.0],[566300.0,5447820.0],[566340.0,5447820.0],[566340.0,5447840.0],[566380.0,5447840.0],[566380.0,5447860.0],[566460.0,5447860.0],[566460.0,5447880.0],[566580.0,5447880.0],[566580.0,5447900.0],[566640.0,5447900.0],[566640.0,5447920.0],[566680.0,5447920.0],[566680.0,5447940.0],[566720.0,5447940.0],[566720.0,5447960.0],[566780.0,5447960.0],[566780.0,5447940.0],[566740.0,5447940.0],[566740.0,5447920.0],[566720.0,5447920.0],[566720.0,5447900.0],[566680.0,5447900.0]]],[[[568040.0,5447880.0],[568040.0,5447920.0],[568060.0,5447920.0],[568060.0,5447880.0],[568040.0,5447880.0]]],[[[568100.0,5447960.0],[568100.0,5447940.0],[568080.0,5447940.0],[568080.0,5447920.0],[568060.0,5447920.0],[568060.0,5447960.0],[568100.0,5447960.0]]],[[[567460.0,5448300.0],[567460.0,5448320.0],[567440.0,5448320.0],[567440.0,5448340.0],[567420.0,5448340.0],[567420.0,5448380.0],[567440.0,5448380.0],[567440.0,5448400.0],[567460.0,5448400.0],[567460.0,5448380.0],[567480.0,5448380.0],[567480.0,5448360.0],[567500.0,5448360.0],[567500.0,5448300.0],[567460.0,5448300.0]]],[[[567400.0,5448380.0],[567400.0,5448440.0],[567380.0,5448440.0],[567380.0,5448480.0],[567360.0,5448480.0],[567360.0,5448520.0],[567380.0,5448520.0],[567380.0,5448500.0],[567400.0,5448500.0],[567400.0,5448480.0],[567420.0,5448480.0],[567420.0,5448380.0],[567400.0,5448380.0]]],[[[568240.0,5448500.0],[568240.0,5448520.0],[568280.0,5448520.0],[568280.0,5448540.0],[568320.0,5448540.0],[568320.0,5448560.0],[568360.0,5448560.0],[568360.0,5448540.0],[568340.0,5448540.0],[568340.0,5448520.0],[568300.0,5448520.0],[568300.0,5448500.0],[568240.0,5448500.0]]],[[[568620.0,5449140.0],[568620.0,5449160.0],[568640.0,5449160.0],[568640.0,5449140.0],[568620.0,5449140.0]]],[[[568620.0,5449180.0],[568620.0,5449160.0],[568520.0,5449160.0],[568520.0,5449180.0],[568620.0,5449180.0]]],[[[568560.0,5449220.0],[568540.0,5449220.0],[568540.0,5449240.0],[568560.0,5449240.0],[568560.0,5449220.0]]],[[[568820.0,5444100.0],[568820.0,5444120.0],[568840.0,5444120.0],[568840.0,5444100.0],[568820.0,5444100.0]]],[[[568860.0,5444120.0],[568860.0,5444140.0],[568880.0,5444140.0],[568880.0,5444120.0],[568860.0,5444120.0]]],[[[568740.0,5444120.0],[568720.0,5444120.0],[568720.0,5444140.0],[568740.0,5444140.0],[568740.0,5444120.0]]],[[[568900.0,5444140.0],[568900.0,5444160.0],[568920.0,5444160.0],[568920.0,5444140.0],[568900.0,5444140.0]]],[[[568940.0,5444160.0],[568940.0,5444180.0],[568960.0,5444180.0],[568960.0,5444160.0],[568940.0,5444160.0]]],[[[568960.0,5444180.0],[568960.0,5444200.0],[569000.0,5444200.0],[569000.0,5444180.0],[568960.0,5444180.0]]],[[[569000.0,5444220.0],[569020.0,5444220.0],[569020.0,5444200.0],[569000.0,5444200.0],[569000.0,5444220.0]]],[[[569040.0,5444220.0],[569020.0,5444220.0],[569020.0,5444240.0],[569040.0,5444240.0],[569040.0,5444220.0]]],[[[569040.0,5444260.0],[569060.0,5444260.0],[569060.0,5444240.0],[569040.0,5444240.0],[569040.0,5444260.0]]],[[[569080.0,5444260.0],[569060.0,5444260.0],[569060.0,5444280.0],[569080.0,5444280.0],[569080.0,5444260.0]]],[[[568700.0,5446380.0],[568720.0,5446380.0],[568720.0,5446360.0],[568700.0,5446360.0],[568700.0,5446380.0]]],[[[568740.0,5446380.0],[568720.0,5446380.0],[568720.0,5446400.0],[568740.0,5446400.0],[568740.0,5446380.0]]],[[[568740.0,5446400.0],[568740.0,5446420.0],[568760.0,5446420.0],[568760.0,5446400.0],[568740.0,5446400.0]]],[[[568760.0,5446420.0],[568760.0,5446440.0],[568780.0,5446440.0],[568780.0,5446420.0],[568760.0,5446420.0]]],[[[569060.0,5446440.0],[569060.0,5446460.0],[569100.0,5446460.0],[569100.0,5446440.0],[569060.0,5446440.0]]],[[[568780.0,5446440.0],[568780.0,5446460.0],[568800.0,5446460.0],[568800.0,5446440.0],[568780.0,5446440.0]]],[[[568800.0,5446460.0],[568800.0,5446480.0],[568820.0,5446480.0],[568820.0,5446460.0],[568800.0,5446460.0]]],[[[569020.0,5446460.0],[569020.0,5446480.0],[569060.0,5446480.0],[569060.0,5446460.0],[569020.0,5446460.0]]],[[[568880.0,5446480.0],[568840.0,5446480.0],[568840.0,5446500.0],[568880.0,5446500.0],[568880.0,5446480.0]]],[[[568920.0,5446480.0],[568920.0,5446500.0],[569000.0,5446500.0],[569000.0,5446480.0],[568920.0,5446480.0]]],[[[568720.0,5446700.0],[568720.0,5446720.0],[568740.0,5446720.0],[568740.0,5446700.0],[568720.0,5446700.0]]],[[[568740.0,5446740.0],[568760.0,5446740.0],[568760.0,5446720.0],[568740.0,5446720.0],[568740.0,5446740.0]]],[[[568780.0,5446740.0],[568760.0,5446740.0],[568760.0,5446760.0],[568780.0,5446760.0],[568780.0,5446740.0]]],[[[568780.0,5446780.0],[568820.0,5446780.0],[568820.0,5446760.0],[568780.0,5446760.0],[568780.0,5446780.0]]],[[[568840.0,5446780.0],[568820.0,5446780.0],[568820.0,5446800.0],[568840.0,5446800.0],[568840.0,5446780.0]]],[[[568860.0,5446800.0],[568840.0,5446800.0],[568840.0,5446820.0],[568860.0,5446820.0],[568860.0,5446800.0]]],[[[568880.0,5446820.0],[568880.0,5446840.0],[568900.0,5446840.0],[568900.0,5446820.0],[568880.0,5446820.0]]],[[[569080.0,5444280.0],[569080.0,5444320.0],[569100.0,5444320.0],[569100.0,5444280.0],[569080.0,5444280.0]]],[[[569120.0,5444320.0],[569100.0,5444320.0],[569100.0,5444340.0],[569120.0,5444340.0],[569120.0,5444320.0]]],[[[569120.0,5446400.0],[569120.0,5446420.0],[569140.0,5446420.0],[569140.0,5446400.0],[569120.0,5446400.0]]],[[[569120.0,5446440.0],[569120.0,5446420.0],[569100.0,5446420.0],[569100.0,5446440.0],[569120.0,5446440.0]]],[[[569660.0,5446800.0],[569660.0,5446840.0],[569680.0,5446840.0],[569680.0,5446800.0],[569660.0,5446800.0]]],[[[569100.0,5446900.0],[569100.0,5446880.0],[569060.0,5446880.0],[569060.0,5446860.0],[569020.0,5446860.0],[569020.0,5446840.0],[568980.0,5446840.0],[568980.0,5446860.0],[569000.0,5446860.0],[569000.0,5446880.0],[569040.0,5446880.0],[569040.0,5446900.0],[569080.0,5446900.0],[569080.0,5446920.0],[569120.0,5446920.0],[569120.0,5446940.0],[569140.0,5446940.0],[569140.0,5446960.0],[569200.0,5446960.0],[569200.0,5446940.0],[569180.0,5446940.0],[569180.0,5446920.0],[569140.0,5446920.0],[569140.0,5446900.0],[569100.0,5446900.0]]],[[[569720.0,5446880.0],[569720.0,5446860.0],[569700.0,5446860.0],[569700.0,5446840.0],[569680.0,5446840.0],[569680.0,5446880.0],[569660.0,5446880.0],[569660.0,5446940.0],[569640.0,5446940.0],[569640.0,5446980.0],[569660.0,5446980.0],[569660.0,5446960.0],[569680.0,5446960.0],[569680.0,5446920.0],[569700.0,5446920.0],[569700.0,5446880.0],[569720.0,5446880.0]]],[[[569200.0,5446980.0],[569220.0,5446980.0],[569220.0,5446960.0],[569200.0,5446960.0],[569200.0,5446980.0]]],[[[569240.0,5446980.0],[569220.0,5446980.0],[569220.0,5447000.0],[569240.0,5447000.0],[569240.0,5446980.0]]],[[[569620.0,5446980.0],[569620.0,5447000.0],[569640.0,5447000.0],[569640.0,5446980.0],[569620.0,5446980.0]]],[[[569740.0,5446980.0],[569740.0,5447020.0],[569780.0,5447020.0],[569780.0,5447040.0],[569820.0,5447040.0],[569820.0,5447020.0],[569840.0,5447020.0],[569840.0,5447000.0],[569760.0,5447000.0],[569760.0,5446980.0],[569740.0,5446980.0]]],[[[569620.0,5447000.0],[569600.0,5447000.0],[569600.0,5447020.0],[569620.0,5447020.0],[569620.0,5447000.0]]],[[[569260.0,5447020.0],[569260.0,5447040.0],[569320.0,5447040.0],[569320.0,5447020.0],[569280.0,5447020.0],[569280.0,5447000.0],[569240.0,5447000.0],[569240.0,5447020.0],[569260.0,5447020.0]]],[[[569580.0,5447020.0],[569580.0,5447040.0],[569600.0,5447040.0],[569600.0,5447020.0],[569580.0,5447020.0]]],[[[569480.0,5447020.0],[569480.0,5447040.0],[569540.0,5447040.0],[569540.0,5447020.0],[569480.0,5447020.0]]],[[[569480.0,5447060.0],[569480.0,5447040.0],[569420.0,5447040.0],[569420.0,5447060.0],[569480.0,5447060.0]]],[[[569320.0,5447040.0],[569320.0,5447060.0],[569360.0,5447060.0],[569360.0,5447040.0],[569320.0,5447040.0]]],[[[569140.0,5447120.0],[569140.0,5447100.0],[569160.0,5447100.0],[569160.0,5447080.0],[569080.0,5447080.0],[569080.0,5447120.0],[569140.0,5447120.0]]],[[[569220.0,5447360.0],[569180.0,5447360.0],[569180.0,5447340.0],[569160.0,5447340.0],[569160.0,5447320.0],[569140.0,5447320.0],[569140.0,5447300.0],[569120.0,5447300.0],[569120.0,5447260.0],[569100.0,5447260.0],[569100.0,5447240.0],[569080.0,5447240.0],[569080.0,5447220.0],[569060.0,5447220.0],[569060.0,5447140.0],[569040.0,5447140.0],[569040.0,5447120.0],[569000.0,5447120.0],[569000.0,5447180.0],[569020.0,5447180.0],[569020.0,5447260.0],[569040.0,5447260.0],[569040.0,5447300.0],[569060.0,5447300.0],[569060.0,5447320.0],[569080.0,5447320.0],[569080.0,5447340.0],[569100.0,5447340.0],[569100.0,5447380.0],[569120.0,5447380.0],[569120.0,5447340.0],[569140.0,5447340.0],[569140.0,5447380.0],[569160.0,5447380.0],[569160.0,5447400.0],[569200.0,5447400.0],[569200.0,5447420.0],[569280.0,5447420.0],[569280.0,5447400.0],[569260.0,5447400.0],[569260.0,5447380.0],[569220.0,5447380.0],[569220.0,5447360.0]]],[[[569580.0,5447340.0],[569580.0,5447300.0],[569560.0,5447300.0],[569560.0,5447280.0],[569540.0,5447280.0],[569540.0,5447260.0],[569520.0,5447260.0],[569520.0,5447240.0],[569500.0,5447240.0],[569500.0,5447220.0],[569460.0,5447220.0],[569460.0,5447240.0],[569480.0,5447240.0],[569480.0,5447260.0],[569500.0,5447260.0],[569500.0,5447280.0],[569520.0,5447280.0],[569520.0,5447300.0],[569540.0,5447300.0],[569540.0,5447340.0],[569560.0,5447340.0],[569560.0,5447380.0],[569580.0,5447380.0],[569580.0,5447400.0],[569620.0,5447400.0],[569620.0,5447420.0],[569640.0,5447420.0],[569640.0,5447380.0],[569620.0,5447380.0],[569620.0,5447360.0],[569600.0,5447360.0],[569600.0,5447340.0],[569580.0,5447340.0]]],[[[569660.0,5447760.0],[569660.0,5447740.0],[569640.0,5447740.0],[569640.0,5447720.0],[569620.0,5447720.0],[569620.0,5447700.0],[569600.0,5447700.0],[569600.0,5447680.0],[569580.0,5447680.0],[569580.0,5447720.0],[569600.0,5447720.0],[569600.0,5447760.0],[569640.0,5447760.0],[569640.0,5447780.0],[569780.0,5447780.0],[569780.0,5447760.0],[569800.0,5447760.0],[569800.0,5447740.0],[569760.0,5447740.0],[569760.0,5447760.0],[569660.0,5447760.0]]],[[[569940.0,5447740.0],[569940.0,5447760.0],[569960.0,5447760.0],[569960.0,5447740.0],[569940.0,5447740.0]]],[[[569580.0,5448020.0],[569580.0,5448040.0],[569640.0,5448040.0],[569640.0,5448020.0],[569580.0,5448020.0]]],[[[569660.0,5448040.0],[569660.0,5448060.0],[569740.0,5448060.0],[569740.0,5448040.0],[569660.0,5448040.0]]],[[[568800.0,5449060.0],[568800.0,5449040.0],[568820.0,5449040.0],[568820.0,5449020.0],[568860.0,5449020.0],[568860.0,5449000.0],[568880.0,5449000.0],[568880.0,5448980.0],[568900.0,5448980.0],[568900.0,5448960.0],[568940.0,5448960.0],[568940.0,5448940.0],[568960.0,5448940.0],[568960.0,5448920.0],[569000.0,5448920.0],[569000.0,5448900.0],[569020.0,5448900.0],[569020.0,5448880.0],[569260.0,5448880.0],[569260.0,5448900.0],[569360.0,5448900.0],[569360.0,5448920.0],[569600.0,5448920.0],[569600.0,5448900.0],[569620.0,5448900.0],[569620.0,5448880.0],[569660.0,5448880.0],[569660.0,5448860.0],[569700.0,5448860.0],[569700.0,5448840.0],[569780.0,5448840.0],[569780.0,5448820.0],[569820.0,5448820.0],[569820.0,5448800.0],[569860.0,5448800.0],[569860.0,5448780.0],[569900.0,5448780.0],[569900.0,5448760.0],[569940.0,5448760.0],[569940.0,5448740.0],[569960.0,5448740.0],[569960.0,5448720.0],[569920.0,5448720.0],[569920.0,5448740.0],[569880.0,5448740.0],[569880.0,5448760.0],[569820.0,5448760.0],[569820.0,5448780.0],[569800.0,5448780.0],[569800.0,5448800.0],[569740.0,5448800.0],[569740.0,5448820.0],[569680.0,5448820.0],[569680.0,5448840.0],[569620.0,5448840.0],[569620.0,5448860.0],[569580.0,5448860.0],[569580.0,5448880.0],[569400.0,5448880.0],[569400.0,5448860.0],[569340.0,5448860.0],[569340.0,5448840.0],[569260.0,5448840.0],[569260.0,5448820.0],[569160.0,5448820.0],[569160.0,5448800.0],[569100.0,5448800.0],[569100.0,5448820.0],[569040.0,5448820.0],[569040.0,5448840.0],[569000.0,5448840.0],[569000.0,5448860.0],[568980.0,5448860.0],[568980.0,5448880.0],[568940.0,5448880.0],[568940.0,5448900.0],[568900.0,5448900.0],[568900.0,5448920.0],[568860.0,5448920.0],[568860.0,5448940.0],[568840.0,5448940.0],[568840.0,5448960.0],[568800.0,5448960.0],[568800.0,5448980.0],[568780.0,5448980.0],[568780.0,5449000.0],[568740.0,5449000.0],[568740.0,5449020.0],[568700.0,5449020.0],[568700.0,5449040.0],[568680.0,5449040.0],[568680.0,5449080.0],[568660.0,5449080.0],[568660.0,5449120.0],[568720.0,5449120.0],[568720.0,5449100.0],[568740.0,5449100.0],[568740.0,5449080.0],[568780.0,5449080.0],[568780.0,5449060.0],[568800.0,5449060.0]]]]}}
]
}
